{"type":"FeatureCollection","features":[{"type":"Feature","properties":{"en":"Alps","fr":"Alpes"},"geometry":{"type":"Point","coordinates":[8.615,46.5780555555556]}},{"type":"Feature","properties":{"en":"Harz","fr":"Harz"},"geometry":{"type":"Point","coordinates":[10.633333333333,51.75]}},{"type":"Feature","properties":{"en":"Ore Mountains","fr":"Monts Métallifères"},"geometry":{"type":"Point","coordinates":[13.0,50.5]}},{"type":"Feature","properties":{"en":"Karakoram","fr":"Karakoram"},"geometry":{"type":"Point","coordinates":[76.508888888889,35.883055555556]}},{"type":"Feature","properties":{"en":"Pyrenees","fr":"Pyrénées"},"geometry":{"type":"Point","coordinates":[0.6,42.7]}},{"type":"Feature","properties":{"en":"Sistema Central","fr":"système Central"},"geometry":{"type":"Point","coordinates":[-5.29777778,40.24666667]}},{"type":"Feature","properties":{"en":"Eastern Alps","fr":"Alpes orientales"},"geometry":{"type":"Point","coordinates":[12.0,47.0]}},{"type":"Feature","properties":{"en":"Western Alps","fr":"Alpes occidentales"},"geometry":{"type":"Point","coordinates":[6.865,45.8336]}},{"type":"Feature","properties":{"en":"Altiplano","fr":"altiplano"},"geometry":{"type":"Point","coordinates":[-68.0,-19.0]}},{"type":"Feature","properties":{"en":"Lechquellen Mountains","fr":"Massif de Lechquellen"},"geometry":{"type":"Point","coordinates":[9.985,47.186111111111]}},{"type":"Feature","properties":{"en":"Silvretta Alps","fr":"Silvretta"},"geometry":{"type":"Point","coordinates":[10.116667,46.866667]}},{"type":"Feature","properties":{"en":"Baar","fr":"Baar"},"geometry":{"type":"Point","coordinates":[8.5,47.93333333]}},{"type":"Feature","properties":{"en":"Eifel","fr":"Eifel"},"geometry":{"type":"Point","coordinates":[6.8130527777778,50.417105555556]}},{"type":"Feature","properties":{"en":"Deccan Plateau","fr":"Deccan"},"geometry":{"type":"Point","coordinates":[77.0,15.0]}},{"type":"Feature","properties":{"en":"Tibetan Plateau","fr":"plateau tibétain"},"geometry":{"type":"Point","coordinates":[88.0,33.0]}},{"type":"Feature","properties":{"en":"Bregenz Forest Mountains","fr":"Massif du Bregenzerwald"},"geometry":{"type":"Point","coordinates":[9.8797222222222,47.265277777778]}},{"type":"Feature","properties":{"en":"Kunlun Mountains","fr":"Cordillère du Kunlun"},"geometry":{"type":"Point","coordinates":[84.0,36.0]}},{"type":"Feature","properties":{"en":"Ross Ice Shelf","fr":"plateforme de glace de Ross"},"geometry":{"type":"Point","coordinates":[-175.0,-81.5]}},{"type":"Feature","properties":{"en":"Iberian System","fr":"système ibérique"},"geometry":{"type":"Point","coordinates":[-1.7813888888889,41.745833333333]}},{"type":"Feature","properties":{"en":"Cantabrian Mountains","fr":"cordillère Cantabrique"},"geometry":{"type":"Point","coordinates":[-4.8516666666667,43.1975]}},{"type":"Feature","properties":{"en":"St. Thomas Mount","fr":"mont Saint-Thomas"},"geometry":{"type":"Point","coordinates":[80.193305555556,13.005055555556]}},{"type":"Feature","properties":{"en":"Bavarian Alpine Foreland","fr":""},"geometry":{"type":"Point","coordinates":[12.0,48.0]}},{"type":"Feature","properties":{"en":"Barnim Plateau","fr":"Barnim"},"geometry":{"type":"Point","coordinates":[14.25,52.6667]}},{"type":"Feature","properties":{"en":"Lambert Glacier","fr":"glacier Lambert"},"geometry":{"type":"Point","coordinates":[70.0,-71.0]}},{"type":"Feature","properties":{"en":"Assateague Island","fr":"Assateague Island"},"geometry":{"type":"Point","coordinates":[-75.2038002,38.0917864]}},{"type":"Feature","properties":{"en":"Ötztal Alps","fr":"Alpes de l'Ötztal"},"geometry":{"type":"Point","coordinates":[10.8753,46.8969]}},{"type":"Feature","properties":{"en":"Tannheim Mountains","fr":""},"geometry":{"type":"Point","coordinates":[10.57369,47.5235]}},{"type":"Feature","properties":{"en":"Teltow","fr":"Teltow"},"geometry":{"type":"Point","coordinates":[13.3333,52.3667]}},{"type":"Feature","properties":{"en":"Adelegg","fr":"Adelegg"},"geometry":{"type":"Point","coordinates":[10.1256,47.6923]}},{"type":"Feature","properties":{"en":"Adneter Riedl","fr":"Adneter Riedl"},"geometry":{"type":"Point","coordinates":[13.1117,47.6931]}},{"type":"Feature","properties":{"en":"Goldberg Group","fr":""},"geometry":{"type":"Point","coordinates":[12.9333333333333,47.0666666666667]}},{"type":"Feature","properties":{"en":"Piedmont","fr":"Piedmont"},"geometry":{"type":"Point","coordinates":[-80.0,36.0]}},{"type":"Feature","properties":{"en":"Glockner Group","fr":""},"geometry":{"type":"Point","coordinates":[12.6944,47.075]}},{"type":"Feature","properties":{"en":"American Highland","fr":"Haut-plateau américain"},"geometry":{"type":"Point","coordinates":[78.0,-72.5]}},{"type":"Feature","properties":{"en":"Ammergau Alps","fr":"Alpes d'Ammergau"},"geometry":{"type":"Point","coordinates":[10.883333,47.433333]}},{"type":"Feature","properties":{"en":"Serra dos Aimorés","fr":"Serra dos Aimorés"},"geometry":{"type":"Point","coordinates":[-40.24777778,-17.78277778]}},{"type":"Feature","properties":{"en":"Mongolian Plateau","fr":"plateau de Mongolie"},"geometry":{"type":"Point","coordinates":[107.0,45.0]}},{"type":"Feature","properties":{"en":"Kozí hřbety","fr":""},"geometry":{"type":"Point","coordinates":[15.654166666667,50.733888888889]}},{"type":"Feature","properties":{"en":"Monte Legnone","fr":"Monte Legnone"},"geometry":{"type":"Point","coordinates":[9.4147222222222,46.094722222222]}},{"type":"Feature","properties":{"en":"Verwall Alps","fr":"Massif de Verwall"},"geometry":{"type":"Point","coordinates":[10.1883,47.0375]}},{"type":"Feature","properties":{"en":"Sierra de los Filabres","fr":"Sierra de los Filabres"},"geometry":{"type":"Point","coordinates":[-2.54611111,37.22361111]}},{"type":"Feature","properties":{"en":"Lubusz Land","fr":"pays de Lubusz"},"geometry":{"type":"Point","coordinates":[14.55,52.43]}},{"type":"Feature","properties":{"en":"Allgäu Alps","fr":"Alpes d'Allgäu"},"geometry":{"type":"Point","coordinates":[10.25,47.4]}},{"type":"Feature","properties":{"en":"Rätikon","fr":"Rätikon"},"geometry":{"type":"Point","coordinates":[9.7072222222222,47.053888888889]}},{"type":"Feature","properties":{"en":"Samnaun Alps","fr":"Massif de Samnaun"},"geometry":{"type":"Point","coordinates":[10.378333333333,46.900277777778]}},{"type":"Feature","properties":{"en":"Sierra Morena","fr":"Sierra Morena"},"geometry":{"type":"Point","coordinates":[-3.82963147811573,38.3700972649661]}},{"type":"Feature","properties":{"en":"Salzkammergut Mountains","fr":"Massif du Salzkammergut"},"geometry":{"type":"Point","coordinates":[13.583333333333,47.7]}},{"type":"Feature","properties":{"en":"Lechtal Alps","fr":"Alpes de Lechtal"},"geometry":{"type":"Point","coordinates":[10.4783,47.1744]}},{"type":"Feature","properties":{"en":"Tennen Mountains","fr":"Massif de Tennen"},"geometry":{"type":"Point","coordinates":[13.2333,47.5]}},{"type":"Feature","properties":{"en":"Serra da Estrela","fr":"Serra da Estrela"},"geometry":{"type":"Point","coordinates":[-7.61291667,40.32188889]}},{"type":"Feature","properties":{"en":"Meseta Sur","fr":"Meseta du sud"},"geometry":{"type":"Point","coordinates":[-3.2629388888889,39.685525]}},{"type":"Feature","properties":{"en":"Meseta Norte","fr":"Meseta du Nord"},"geometry":{"type":"Point","coordinates":[-4.5703138888889,41.687272222222]}},{"type":"Feature","properties":{"en":"Portage Glacier","fr":"glacier Portage"},"geometry":{"type":"Point","coordinates":[-148.78555555556,60.753055555556]}},{"type":"Feature","properties":{"en":"Meseta","fr":"Meseta"},"geometry":{"type":"Point","coordinates":[-3.5,40.5]}},{"type":"Feature","properties":{"en":"Baetic System","fr":"cordillères Bétiques"},"geometry":{"type":"Point","coordinates":[-3.0,37.0]}},{"type":"Feature","properties":{"en":"Geigenkamm","fr":""},"geometry":{"type":"Point","coordinates":[10.9,47.06667]}},{"type":"Feature","properties":{"en":"Daumen Group","fr":""},"geometry":{"type":"Point","coordinates":[10.3583,47.4164]}},{"type":"Feature","properties":{"en":"Kotel","fr":"Kotel"},"geometry":{"type":"Point","coordinates":[15.5298,50.75233]}},{"type":"Feature","properties":{"en":"Gorce Mountains","fr":"Gorce"},"geometry":{"type":"Point","coordinates":[20.16666667,49.56666667]}},{"type":"Feature","properties":{"en":"Antarctic Plateau","fr":"Plateau Antarctique"},"geometry":{"type":"Point","coordinates":[0.0,-90.0]}},{"type":"Feature","properties":{"en":"Monte Cornizzolo","fr":"Cornizzolo"},"geometry":{"type":"Point","coordinates":[9.30189548613806,45.8372351881709]}},{"type":"Feature","properties":{"en":"Qilian Mountains","fr":"monts Qilian"},"geometry":{"type":"Point","coordinates":[98.75,38.75]}},{"type":"Feature","properties":{"en":"Hohe Wart","fr":"Hohe Wart"},"geometry":{"type":"Point","coordinates":[9.26629,49.9145]}},{"type":"Feature","properties":{"en":"Damüls Mountains","fr":""},"geometry":{"type":"Point","coordinates":[9.88333,47.3111]}},{"type":"Feature","properties":{"en":"Monte Resegone","fr":"Resegone"},"geometry":{"type":"Point","coordinates":[9.4688888888889,45.858333333333]}},{"type":"Feature","properties":{"en":"Lower Saxon Hills","fr":""},"geometry":{"type":"Point","coordinates":[9.0,52.0]}},{"type":"Feature","properties":{"en":"Somontano de Barbastro","fr":"Somontano de Barbastro"},"geometry":{"type":"Point","coordinates":[-0.11666666666667,42.033333333333]}},{"type":"Feature","properties":{"en":"Southeastern Walsertal Mountains","fr":""},"geometry":{"type":"Point","coordinates":[10.1903182,47.3175703]}},{"type":"Feature","properties":{"en":"San Gabriel Mountains","fr":"monts San Gabriel"},"geometry":{"type":"Point","coordinates":[-117.65,34.29]}},{"type":"Feature","properties":{"en":"Szrenica","fr":"Szrenica"},"geometry":{"type":"Point","coordinates":[15.514166666667,50.791388888889]}},{"type":"Feature","properties":{"en":"Mount Süphan","fr":"Süphan Daği"},"geometry":{"type":"Point","coordinates":[42.82959,38.92983]}},{"type":"Feature","properties":{"en":"Bavarian Prealps","fr":"Préalpes bavaroises"},"geometry":{"type":"Point","coordinates":[11.65,47.65]}},{"type":"Feature","properties":{"en":"Georgenberg","fr":"Georgenberg"},"geometry":{"type":"Point","coordinates":[15.3553,48.7599]}},{"type":"Feature","properties":{"en":"Zlaté návrší","fr":""},"geometry":{"type":"Point","coordinates":[15.554166666667,50.75]}},{"type":"Feature","properties":{"en":"Łabski Szczyt","fr":""},"geometry":{"type":"Point","coordinates":[15.545556,50.780556]}},{"type":"Feature","properties":{"en":"Hamersley Range","fr":"Monts Hamersley"},"geometry":{"type":"Point","coordinates":[116.767,-21.8833]}},{"type":"Feature","properties":{"en":"San Bernardino Mountains","fr":"Montagnes de San Bernardino"},"geometry":{"type":"Point","coordinates":[-116.87641388889,34.125566666667]}},{"type":"Feature","properties":{"en":"","fr":""},"geometry":{"type":"Point","coordinates":[12.2094,47.5775]}},{"type":"Feature","properties":{"en":"Harrachovy kameny","fr":""},"geometry":{"type":"Point","coordinates":[15.5386,50.7542]}},{"type":"Feature","properties":{"en":"Pizzo Stella","fr":""},"geometry":{"type":"Point","coordinates":[9.42138889,46.38138889]}},{"type":"Feature","properties":{"en":"Hörner Group","fr":""},"geometry":{"type":"Point","coordinates":[10.20337,47.47847]}},{"type":"Feature","properties":{"en":"Mangkam Shan","fr":""},"geometry":{"type":"Point","coordinates":[97.25,31.75]}},{"type":"Feature","properties":{"en":"Mount Archer","fr":"Mount Archer"},"geometry":{"type":"Point","coordinates":[150.5828,-23.3333]}},{"type":"Feature","properties":{"en":"Walser Ridge","fr":""},"geometry":{"type":"Point","coordinates":[9.7775,47.2392]}},{"type":"Feature","properties":{"en":"Sierra de Baza","fr":"Sierra de Baza"},"geometry":{"type":"Point","coordinates":[-2.84333333,37.38333333]}},{"type":"Feature","properties":{"en":"Santa Ana Mountains","fr":"monts Santa Ana"},"geometry":{"type":"Point","coordinates":[-117.53416666667,33.710555555556]}},{"type":"Feature","properties":{"en":"Rauhhorn Chain","fr":""},"geometry":{"type":"Point","coordinates":[10.4686,47.4582]}},{"type":"Feature","properties":{"en":"Luční hora","fr":"Luční hora"},"geometry":{"type":"Point","coordinates":[15.6825,50.7278]}},{"type":"Feature","properties":{"en":"Santa Susana Mountains","fr":"Santa Susana Mountains"},"geometry":{"type":"Point","coordinates":[-118.6,34.33]}},{"type":"Feature","properties":{"en":"Lysá hora","fr":""},"geometry":{"type":"Point","coordinates":[15.51,50.75361111]}},{"type":"Feature","properties":{"en":"Mount Lindesay","fr":"mont Lindesay"},"geometry":{"type":"Point","coordinates":[152.71774,-28.34841]}},{"type":"Feature","properties":{"en":"Nagelfluhkette","fr":""},"geometry":{"type":"Point","coordinates":[10.0786,47.4953]}},{"type":"Feature","properties":{"en":"Aregun Mountains","fr":""},"geometry":{"type":"Point","coordinates":[45.1,40.616666666667]}},{"type":"Feature","properties":{"en":"Northwestern Walsertal Mountains","fr":""},"geometry":{"type":"Point","coordinates":[10.1,47.3583]}},{"type":"Feature","properties":{"en":"Vidzeme Upland","fr":"Collines de Vidzeme"},"geometry":{"type":"Point","coordinates":[25.95,56.866667]}},{"type":"Feature","properties":{"en":"Catalan Mediterranean System","fr":"système méditerranéen catalan"},"geometry":{"type":"Point","coordinates":[2.57766667,41.68932222]}},{"type":"Feature","properties":{"en":"","fr":""},"geometry":{"type":"Point","coordinates":[12.925,49.975]}},{"type":"Feature","properties":{"en":"Cordillera Subbética","fr":"Cordillère subbétique"},"geometry":{"type":"Point","coordinates":[-3.3667,37.55]}},{"type":"Feature","properties":{"en":"Basque Mountains","fr":"Montagnes basques"},"geometry":{"type":"Point","coordinates":[-2.3166666666667,42.95]}},{"type":"Feature","properties":{"en":"Pizzo Tre Signori","fr":"Pizzo Tre Signori"},"geometry":{"type":"Point","coordinates":[9.5333333333333,46.0]}},{"type":"Feature","properties":{"en":"Har HaAri","fr":"Har HaAri"},"geometry":{"type":"Point","coordinates":[35.36666667,32.95527778]}},{"type":"Feature","properties":{"en":"Kopa","fr":"Kopa"},"geometry":{"type":"Point","coordinates":[15.73,50.746388888889]}},{"type":"Feature","properties":{"en":"","fr":"mont Mimat"},"geometry":{"type":"Point","coordinates":[3.49389,44.5106]}},{"type":"Feature","properties":{"en":"Galician Massif","fr":"massif galicien"},"geometry":{"type":"Point","coordinates":[-8.1,42.5]}},{"type":"Feature","properties":{"en":"Śmielec","fr":""},"geometry":{"type":"Point","coordinates":[15.5783,50.7803]}},{"type":"Feature","properties":{"en":"Mały Szyszak","fr":""},"geometry":{"type":"Point","coordinates":[15.648611111111,50.759444444444]}},{"type":"Feature","properties":{"en":"Pambak range","fr":""},"geometry":{"type":"Point","coordinates":[44.583607,40.670282]}},{"type":"Feature","properties":{"en":"Cima di Menna","fr":""},"geometry":{"type":"Point","coordinates":[9.75991,45.9294]}},{"type":"Feature","properties":{"en":"Jabalcón","fr":""},"geometry":{"type":"Point","coordinates":[-2.8188888888889,37.575833333333]}},{"type":"Feature","properties":{"en":"Pizzo Arera","fr":"Pizzo Arera"},"geometry":{"type":"Point","coordinates":[9.814947,45.9357]}},{"type":"Feature","properties":{"en":"Allegheny Mountain","fr":""},"geometry":{"type":"Point","coordinates":[-78.7581,40.0581]}},{"type":"Feature","properties":{"en":"Box Springs Mountain","fr":""},"geometry":{"type":"Point","coordinates":[-117.28,33.9617]}},{"type":"Feature","properties":{"en":"Braemar Hill","fr":"Colline Braemar"},"geometry":{"type":"Point","coordinates":[114.2,22.2843]}},{"type":"Feature","properties":{"en":"Czarna Kopa","fr":""},"geometry":{"type":"Point","coordinates":[15.769722222222,50.742777777778]}},{"type":"Feature","properties":{"en":"Desert of Wales","fr":""},"geometry":{"type":"Point","coordinates":[-3.721662,52.310644]}},{"type":"Feature","properties":{"en":"Fortress Hill","fr":""},"geometry":{"type":"Point","coordinates":[114.194,22.2886]}},{"type":"Feature","properties":{"en":"Sierra Almagrera","fr":""},"geometry":{"type":"Point","coordinates":[-1.758177,37.273315]}},{"type":"Feature","properties":{"en":"Sierra de las Estancias","fr":""},"geometry":{"type":"Point","coordinates":[-2.1853,37.5241]}},{"type":"Feature","properties":{"en":"Jardine's Lookout","fr":""},"geometry":{"type":"Point","coordinates":[114.192,22.2683]}},{"type":"Feature","properties":{"en":"Jumbo Glacier","fr":""},"geometry":{"type":"Point","coordinates":[-116.567,50.4083]}},{"type":"Feature","properties":{"en":"Kiels Mountain","fr":"Kiels Mountain"},"geometry":{"type":"Point","coordinates":[153.007,-26.6572]}},{"type":"Feature","properties":{"en":"Mount Annan","fr":"Mount Annan"},"geometry":{"type":"Point","coordinates":[150.7594444,-34.065]}},{"type":"Feature","properties":{"en":"Mount Kaukau","fr":""},"geometry":{"type":"Point","coordinates":[174.777806,-41.231472]}},{"type":"Feature","properties":{"en":"Mount Mee","fr":""},"geometry":{"type":"Point","coordinates":[152.76972222222,-27.074166666667]}},{"type":"Feature","properties":{"en":"Verdugo Mountains","fr":""},"geometry":{"type":"Point","coordinates":[-118.284,34.2172]}},{"type":"Feature","properties":{"en":"Bílá louka","fr":""},"geometry":{"type":"Point","coordinates":[15.691666666667,50.741111111111]}},{"type":"Feature","properties":{"en":"Coltignone","fr":"Monte Coltignone"},"geometry":{"type":"Point","coordinates":[9.38899,45.8857]}},{"type":"Feature","properties":{"en":"Czoło","fr":""},"geometry":{"type":"Point","coordinates":[15.8128,50.7553]}},{"type":"Feature","properties":{"en":"Růžová hora","fr":""},"geometry":{"type":"Point","coordinates":[15.7403,50.7206]}},{"type":"Feature","properties":{"en":"Skalny Stół","fr":""},"geometry":{"type":"Point","coordinates":[15.791548611111,50.752705833333]}},{"type":"Feature","properties":{"en":"Wołowa Góra","fr":""},"geometry":{"type":"Point","coordinates":[15.8164,50.7675]}},{"type":"Feature","properties":{"en":"","fr":""},"geometry":{"type":"Point","coordinates":[15.6278,50.7375]}},{"type":"Feature","properties":{"en":"Nevosa","fr":""},"geometry":{"type":"Point","coordinates":[-8.04083,41.8275]}},{"type":"Feature","properties":{"en":"Mount Haituo","fr":""},"geometry":{"type":"Point","coordinates":[115.723055,40.582573]}},{"type":"Feature","properties":{"en":"Mount Uniacke","fr":"Mount Uniacke"},"geometry":{"type":"Point","coordinates":[-63.8263888888889,44.8919444444444]}},{"type":"Feature","properties":{"en":"Zadní Planina","fr":""},"geometry":{"type":"Point","coordinates":[15.6692,50.7119]}},{"type":"Feature","properties":{"en":"Medvědín","fr":""},"geometry":{"type":"Point","coordinates":[15.5825,50.7411]}},{"type":"Feature","properties":{"en":"Luboch","fr":"Luboch"},"geometry":{"type":"Point","coordinates":[15.4906,50.7889]}},{"type":"Feature","properties":{"en":"Połonina Wetlińska","fr":""},"geometry":{"type":"Point","coordinates":[22.5286,49.1672]}},{"type":"Feature","properties":{"en":"Vysoká pláň","fr":""},"geometry":{"type":"Point","coordinates":[15.5572222222222,50.7788888888889]}},{"type":"Feature","properties":{"en":"Mount Kembla","fr":""},"geometry":{"type":"Point","coordinates":[150.8255556,-34.4269444444444]}},{"type":"Feature","properties":{"en":"Simi Hills","fr":""},"geometry":{"type":"Point","coordinates":[-118.717,34.2244]}},{"type":"Feature","properties":{"en":"Ardettus","fr":"Ardittos"},"geometry":{"type":"Point","coordinates":[23.73972222,37.9675]}},{"type":"Feature","properties":{"en":"","fr":""},"geometry":{"type":"Point","coordinates":[24.479038888889,53.152805555556]}},{"type":"Feature","properties":{"en":"Monte Pilastro","fr":"Monte Pilastro"},"geometry":{"type":"Point","coordinates":[9.3559,45.9722]}},{"type":"Feature","properties":{"en":"Dornbirner First","fr":""},"geometry":{"type":"Point","coordinates":[9.810861,47.345528]}},{"type":"Feature","properties":{"en":"Grignone","fr":"Grigna settentrionale"},"geometry":{"type":"Point","coordinates":[9.3875086,45.95333338]}},{"type":"Feature","properties":{"en":"","fr":""},"geometry":{"type":"Point","coordinates":[44.48361,40.28889]}},{"type":"Feature","properties":{"en":"Rajaouna","fr":"Redjaouna"},"geometry":{"type":"Point","coordinates":[4.04972,36.7325]}},{"type":"Feature","properties":{"en":"Falkenstein Ridge","fr":"Crêtes de Falkenstein"},"geometry":{"type":"Point","coordinates":[10.60333,47.5675]}},{"type":"Feature","properties":{"en":"Babylonåsen","fr":""},"geometry":{"type":"Point","coordinates":[12.222805555556,65.471333333333]}},{"type":"Feature","properties":{"en":"Glatthorn Group","fr":""},"geometry":{"type":"Point","coordinates":[9.879722,47.265278]}},{"type":"Feature","properties":{"en":"Zucco Sileggio","fr":"Zucco Sileggio"},"geometry":{"type":"Point","coordinates":[9.33630836278137,45.9469586655092]}},{"type":"Feature","properties":{"en":"Cambridge Plateau","fr":""},"geometry":{"type":"Point","coordinates":[152.7361111,-28.8036111111111]}},{"type":"Feature","properties":{"en":"Pic del Solempí","fr":"Pic del Solempí"},"geometry":{"type":"Point","coordinates":[2.38172426836581,42.6092185166534]}},{"type":"Feature","properties":{"en":"Kojen-Schichtkamm","fr":""},"geometry":{"type":"Point","coordinates":[9.9826285,47.4966736]}},{"type":"Feature","properties":{"en":"Prodel Ridge","fr":""},"geometry":{"type":"Point","coordinates":[10.1419902,47.5416482]}},{"type":"Feature","properties":{"en":"Bocchetta di Calivazzo","fr":""},"geometry":{"type":"Point","coordinates":[9.34291036358627,45.9634421862703]}},{"type":"Feature","properties":{"en":"Cima degli Eghen","fr":"Pizzo Enghen"},"geometry":{"type":"Point","coordinates":[9.3449583,45.9620873]}},{"type":"Feature","properties":{"en":"Corno Regismondo","fr":"Corno Regismondo"},"geometry":{"type":"Point","coordinates":[9.38838382305525,45.8812642705546]}},{"type":"Feature","properties":{"en":"Bou Arous","fr":"Bou Arous"},"geometry":{"type":"Point","coordinates":[3.5268893,36.7554483]}},{"type":"Feature","properties":{"en":"Djerrah","fr":"Djerrah"},"geometry":{"type":"Point","coordinates":[3.5660423,36.6072708]}},{"type":"Feature","properties":{"en":"Walsertal Mountains","fr":""},"geometry":{"type":"Point","coordinates":[10.13957,47.34482]}},{"type":"Feature","properties":{"en":"Torrione del Cinquantenario","fr":""},"geometry":{"type":"Point","coordinates":[9.3761621,45.9206924]}},{"type":"Feature","properties":{"en":"Lorena Mountains","fr":""},"geometry":{"type":"Point","coordinates":[9.820925,47.456986]}},{"type":"Feature","properties":{"en":"Hochälpele-Weißenfluh Group","fr":""},"geometry":{"type":"Point","coordinates":[9.812851,47.403128]}},{"type":"Feature","properties":{"en":"Pfänder Ridge","fr":""},"geometry":{"type":"Point","coordinates":[9.82166666666667,47.5225]}},{"type":"Feature","properties":{"en":"Schuttannen Mountains","fr":""},"geometry":{"type":"Point","coordinates":[9.737742,47.357045]}},{"type":"Feature","properties":{"en":"Sulzberg","fr":""},"geometry":{"type":"Point","coordinates":[9.94,47.538]}},{"type":"Feature","properties":{"en":"Kugel Group","fr":""},"geometry":{"type":"Point","coordinates":[9.7338,47.326897]}},{"type":"Feature","properties":{"en":"Freschen Group","fr":""},"geometry":{"type":"Point","coordinates":[9.777639,47.306889]}},{"type":"Feature","properties":{"en":"Winterstaude Ridge","fr":""},"geometry":{"type":"Point","coordinates":[9.980374,47.39937]}},{"type":"Feature","properties":{"en":"Bontestraat","fr":"Bontestraat"},"geometry":{"type":"Point","coordinates":[3.80076111111111,50.8182833333333]}},{"type":"Feature","properties":{"en":"Hinteregg Ridge","fr":""},"geometry":{"type":"Point","coordinates":[9.989761,47.38536]}},{"type":"Feature","properties":{"en":"Sonneneck","fr":""},"geometry":{"type":"Point","coordinates":[10.1569006,47.6616481]}},{"type":"Feature","properties":{"en":"Hauchenberg","fr":""},"geometry":{"type":"Point","coordinates":[10.1725164,47.6241373]}},{"type":"Feature","properties":{"en":"Bizauer Hirschberg Group","fr":""},"geometry":{"type":"Point","coordinates":[9.999122,47.359472]}},{"type":"Feature","properties":{"en":"Himmelschrofen Chain","fr":""},"geometry":{"type":"Point","coordinates":[10.28176,47.36002]}},{"type":"Feature","properties":{"en":"Säuling Group","fr":""},"geometry":{"type":"Point","coordinates":[10.755,47.5347222222222]}},{"type":"Feature","properties":{"en":"Southern Main Ridge of the Ammergau Alps","fr":""},"geometry":{"type":"Point","coordinates":[10.8802309,47.4326486]}},{"type":"Feature","properties":{"en":"Zitterklapfen Group","fr":""},"geometry":{"type":"Point","coordinates":[9.97030555555556,47.2681111111111]}},{"type":"Feature","properties":{"en":"Karhorn Group","fr":""},"geometry":{"type":"Point","coordinates":[10.1511111111111,47.2481111111111]}},{"type":"Feature","properties":{"en":"Stafelvedergrat","fr":""},"geometry":{"type":"Point","coordinates":[9.91494444444444,47.2109722222222]}},{"type":"Feature","properties":{"en":"Group of Klostertaler Gamsfreiheit","fr":""},"geometry":{"type":"Point","coordinates":[9.89735,47.17341]}},{"type":"Feature","properties":{"en":"Formarin-Schafberg Group","fr":""},"geometry":{"type":"Point","coordinates":[9.9478197,47.1744137]}},{"type":"Feature","properties":{"en":"Rote Wand Group","fr":""},"geometry":{"type":"Point","coordinates":[9.985,47.1861111111111]}},{"type":"Feature","properties":{"en":"Galina-Group","fr":""},"geometry":{"type":"Point","coordinates":[9.61,47.0825]}},{"type":"Feature","properties":{"en":"Allgäuer Molasseberge","fr":""},"geometry":{"type":"Point","coordinates":[10.00051,47.51917]}},{"type":"Feature","properties":{"en":"Allgäu Alps in the strict sense","fr":""},"geometry":{"type":"Point","coordinates":[10.39425,47.39649]}},{"type":"Feature","properties":{"en":"Pfronten Mountains","fr":""},"geometry":{"type":"Point","coordinates":[10.36939,47.54582]}},{"type":"Feature","properties":{"en":"Besler-Hittisberg Chain","fr":""},"geometry":{"type":"Point","coordinates":[10.08339,47.44182]}},{"type":"Feature","properties":{"en":"Hoher Ifen-Heiterberg Chain","fr":""},"geometry":{"type":"Point","coordinates":[10.09837,47.34831]}},{"type":"Feature","properties":{"en":"Widderstein-Schafalpen Chain","fr":""},"geometry":{"type":"Point","coordinates":[10.20586,47.329131]}},{"type":"Feature","properties":{"en":"Western Tannheim Group","fr":""},"geometry":{"type":"Point","coordinates":[10.534006,47.538948]}},{"type":"Feature","properties":{"en":"Tannheim Group","fr":""},"geometry":{"type":"Point","coordinates":[10.64497,47.50172]}},{"type":"Feature","properties":{"en":"Eastern Allgäu Prealps","fr":""},"geometry":{"type":"Point","coordinates":[10.37899,47.54873]}},{"type":"Feature","properties":{"en":"Western Allgäu Prealps","fr":""},"geometry":{"type":"Point","coordinates":[10.03327,47.50538]}},{"type":"Feature","properties":{"en":"Hochvogel-Rosszahn Chain","fr":""},"geometry":{"type":"Point","coordinates":[10.47712,47.38652]}},{"type":"Feature","properties":{"en":"Rauhorn-Leilachspitze Chain","fr":""},"geometry":{"type":"Point","coordinates":[10.50094,47.46184]}},{"type":"Feature","properties":{"en":"Krottenkopf Group","fr":""},"geometry":{"type":"Point","coordinates":[10.43262,47.31729]}},{"type":"Feature","properties":{"en":"Krottenspitze-Höfats Chain","fr":""},"geometry":{"type":"Point","coordinates":[10.333226,47.352973]}},{"type":"Feature","properties":{"en":"Mädelegabel-Hochlicht Group","fr":""},"geometry":{"type":"Point","coordinates":[10.279509,47.302707]}},{"type":"Feature","properties":{"en":"Baader Bergumrahmung","fr":""},"geometry":{"type":"Point","coordinates":[10.090028,47.290431]}},{"type":"Feature","properties":{"en":"Schwarzwasser Mountains","fr":""},"geometry":{"type":"Point","coordinates":[10.060298,47.341936]}},{"type":"Feature","properties":{"en":"Mittagsfluh","fr":""},"geometry":{"type":"Point","coordinates":[9.9945331,47.339368]}},{"type":"Feature","properties":{"en":"Krottenspitze Group","fr":""},"geometry":{"type":"Point","coordinates":[10.342477,47.323636]}},{"type":"Feature","properties":{"en":"Höfats Group","fr":""},"geometry":{"type":"Point","coordinates":[10.351291,47.371768]}},{"type":"Feature","properties":{"en":"Diedamskopf Ridge","fr":""},"geometry":{"type":"Point","coordinates":[10.025634,47.337768]}},{"type":"Feature","properties":{"en":"Hoher Ifen Ridge","fr":""},"geometry":{"type":"Point","coordinates":[10.091081,47.353456]}},{"type":"Feature","properties":{"en":"Zitterklapfen Ridge","fr":""},"geometry":{"type":"Point","coordinates":[9.9756932,47.2673852]}},{"type":"Feature","properties":{"en":"Hochkünzel Ridge","fr":""},"geometry":{"type":"Point","coordinates":[10.0221973,47.2705503]}},{"type":"Feature","properties":{"en":"Blasenka-Zaferhorn Ridge","fr":""},"geometry":{"type":"Point","coordinates":[9.9418524,47.2625696]}},{"type":"Feature","properties":{"en":"Rappen Alps","fr":""},"geometry":{"type":"Point","coordinates":[10.2527767,47.2804137]}},{"type":"Feature","properties":{"en":"Mädelegabel Ridge","fr":""},"geometry":{"type":"Point","coordinates":[10.294016,47.298812]}},{"type":"Feature","properties":{"en":"Wilden Group","fr":""},"geometry":{"type":"Point","coordinates":[10.3915724,47.3715735]}},{"type":"Feature","properties":{"en":"Hochvogel Group","fr":""},"geometry":{"type":"Point","coordinates":[10.4312423,47.3846543]}},{"type":"Feature","properties":{"en":"Rosszahn Group","fr":""},"geometry":{"type":"Point","coordinates":[10.4775479,47.384075]}},{"type":"Feature","properties":{"en":"Siplingerkopf Ridge","fr":""},"geometry":{"type":"Point","coordinates":[10.098834,47.478047]}},{"type":"Feature","properties":{"en":"Weißach Mountains","fr":""},"geometry":{"type":"Point","coordinates":[10.01281,47.52307]}},{"type":"Feature","properties":{"en":"Schneck Chain","fr":""},"geometry":{"type":"Point","coordinates":[10.381811,47.389316]}},{"type":"Feature","properties":{"en":"Nebelhorn Chain","fr":""},"geometry":{"type":"Point","coordinates":[10.336035,47.422117]}},{"type":"Feature","properties":{"en":"Daumen Chain","fr":""},"geometry":{"type":"Point","coordinates":[10.378263,47.442006]}},{"type":"Feature","properties":{"en":"Lorena Mountains in the strict sense","fr":""},"geometry":{"type":"Point","coordinates":[9.845728,47.435708]}},{"type":"Feature","properties":{"en":"Schneiderkopf Ridge","fr":""},"geometry":{"type":"Point","coordinates":[9.808877,47.470334]}},{"type":"Feature","properties":{"en":"Guglie del Gerone","fr":""},"geometry":{"type":"Point","coordinates":[9.34305555555556,45.9438888888889]}},{"type":"Feature","properties":{"en":"Wertach Ridge","fr":""},"geometry":{"type":"Point","coordinates":[10.3881,47.53855]}},{"type":"Feature","properties":{"en":"Grünten Massif","fr":""},"geometry":{"type":"Point","coordinates":[10.33119,47.55442]}},{"type":"Feature","properties":{"en":"Humpata Plateau","fr":""},"geometry":{"type":"Point","coordinates":[13.46667,15.31667]}},{"type":"Feature","properties":{"en":"Monte Prasanto","fr":""},"geometry":{"type":"Point","coordinates":[9.266,45.869]}},{"type":"Feature","properties":{"en":"","fr":""},"geometry":{"type":"Point","coordinates":[9.810143,47.024799]}},{"type":"Feature","properties":{"en":"","fr":""},"geometry":{"type":"Point","coordinates":[9.839361,47.012611]}},{"type":"Feature","properties":{"en":"","fr":""},"geometry":{"type":"Point","coordinates":[9.7074,47.05385]}},{"type":"Feature","properties":{"en":"Fundelkopf Group","fr":""},"geometry":{"type":"Point","coordinates":[9.711683,47.125313]}},{"type":"Feature","properties":{"en":"","fr":""},"geometry":{"type":"Point","coordinates":[11.91433,50.27389]}},{"type":"Feature","properties":{"en":"Luppioberget","fr":""},"geometry":{"type":"Point","coordinates":[23.6092861111111,66.3122472222222]}},{"type":"Feature","properties":{"en":"Schweinskopf","fr":""},"geometry":{"type":"Point","coordinates":[11.85824,50.32622]}}]}