{"type":"FeatureCollection","features":[{"type":"Feature","properties":{"en":"Old Vaasa","fr":"Vanha Vaasa"},"geometry":{"type":"Point","coordinates":[21.722219444444,63.073061111111]}},{"type":"Feature","properties":{"en":"Isolahti","fr":""},"geometry":{"type":"Point","coordinates":[21.59743,63.12512]}},{"type":"Feature","properties":{"en":"Haapaniemi","fr":"Haapaniemi"},"geometry":{"type":"Point","coordinates":[21.7209,63.08711]}},{"type":"Feature","properties":{"en":"Kotiranta","fr":"Kotiranta"},"geometry":{"type":"Point","coordinates":[21.63898,63.10694]}},{"type":"Feature","properties":{"en":"Tervajoki","fr":"Tervajoki"},"geometry":{"type":"Point","coordinates":[22.14161,63.00536]}},{"type":"Feature","properties":{"en":"Vetokannas","fr":"Vetokannas"},"geometry":{"type":"Point","coordinates":[21.61741,63.11544]}},{"type":"Feature","properties":{"en":"Vikinga","fr":""},"geometry":{"type":"Point","coordinates":[21.59629,63.11581]}},{"type":"Feature","properties":{"en":"Metsäkallio","fr":""},"geometry":{"type":"Point","coordinates":[21.64857,63.11876]}},{"type":"Feature","properties":{"en":"Runsor","fr":"Runsor"},"geometry":{"type":"Point","coordinates":[21.75022,63.05266]}},{"type":"Feature","properties":{"en":"Ristinummi","fr":""},"geometry":{"type":"Point","coordinates":[21.722969444444,63.091919444444]}},{"type":"Feature","properties":{"en":"Sundom archipelago","fr":"archipel de Sundom"},"geometry":{"type":"Point","coordinates":[21.36748417,63.03604822]}},{"type":"Feature","properties":{"en":"Alkula","fr":"Alkula"},"geometry":{"type":"Point","coordinates":[21.72228,63.07978]}},{"type":"Feature","properties":{"en":"Kustaala","fr":""},"geometry":{"type":"Point","coordinates":[21.62836,63.11306]}},{"type":"Feature","properties":{"en":"Böle","fr":"Böle"},"geometry":{"type":"Point","coordinates":[21.6774532,63.1252527]}},{"type":"Feature","properties":{"en":"Klemettilä","fr":"Klemettilä"},"geometry":{"type":"Point","coordinates":[21.63731,63.09565]}},{"type":"Feature","properties":{"en":"Sokeri","fr":""},"geometry":{"type":"Point","coordinates":[21.56105,63.09358]}},{"type":"Feature","properties":{"en":"Satama","fr":""},"geometry":{"type":"Point","coordinates":[21.5714107937449,63.086680737143]}},{"type":"Feature","properties":{"en":"Niemeläntie","fr":""},"geometry":{"type":"Point","coordinates":[21.57558,63.09891]}},{"type":"Feature","properties":{"en":"Yliopisto","fr":""},"geometry":{"type":"Point","coordinates":[21.59491,63.10352]}},{"type":"Feature","properties":{"en":"Onkilahden ranta","fr":""},"geometry":{"type":"Point","coordinates":[21.60319,63.10652]}},{"type":"Feature","properties":{"en":"Sunti","fr":""},"geometry":{"type":"Point","coordinates":[21.58487,63.10786]}},{"type":"Feature","properties":{"en":"Palosaari center","fr":""},"geometry":{"type":"Point","coordinates":[21.5918076016441,63.1097429295133]}},{"type":"Feature","properties":{"en":"Lillby","fr":""},"geometry":{"type":"Point","coordinates":[21.60667,63.13347]}},{"type":"Feature","properties":{"en":"Gerby","fr":""},"geometry":{"type":"Point","coordinates":[21.6225709576494,63.136221759823]}},{"type":"Feature","properties":{"en":"Vanhasatama","fr":""},"geometry":{"type":"Point","coordinates":[21.69152,63.06896]}},{"type":"Feature","properties":{"en":"Pilvilampi","fr":""},"geometry":{"type":"Point","coordinates":[21.7640972615567,63.0958385894948]}},{"type":"Feature","properties":{"en":"Höstvesi","fr":""},"geometry":{"type":"Point","coordinates":[21.76613,63.07174]}},{"type":"Feature","properties":{"en":"Yttersundom","fr":""},"geometry":{"type":"Point","coordinates":[21.55811,63.04471]}},{"type":"Feature","properties":{"en":"Översundom","fr":""},"geometry":{"type":"Point","coordinates":[21.54548,63.03054]}},{"type":"Feature","properties":{"en":"Keskusta 1","fr":""},"geometry":{"type":"Point","coordinates":[21.61103,63.09486]}},{"type":"Feature","properties":{"en":"Keskusta 2","fr":""},"geometry":{"type":"Point","coordinates":[21.60431,63.0976]}},{"type":"Feature","properties":{"en":"Keskusta 3","fr":""},"geometry":{"type":"Point","coordinates":[21.61015,63.09854]}},{"type":"Feature","properties":{"en":"Keskusta 4","fr":""},"geometry":{"type":"Point","coordinates":[21.6168923389156,63.0980316444262]}},{"type":"Feature","properties":{"en":"Keskusta 6","fr":""},"geometry":{"type":"Point","coordinates":[21.60916,63.0912]}},{"type":"Feature","properties":{"en":"Keskusta 7","fr":""},"geometry":{"type":"Point","coordinates":[21.61536,63.09263]}},{"type":"Feature","properties":{"en":"Keskusta 8","fr":""},"geometry":{"type":"Point","coordinates":[21.6241666666667,63.0938888888889]}},{"type":"Feature","properties":{"en":"Hietalahti 9","fr":""},"geometry":{"type":"Point","coordinates":[21.6326424635147,63.0883178259847]}},{"type":"Feature","properties":{"en":"Hietalahti 10","fr":""},"geometry":{"type":"Point","coordinates":[21.6230284630358,63.0859513426584]}},{"type":"Feature","properties":{"en":"Keskusta 11","fr":""},"geometry":{"type":"Point","coordinates":[21.6151077526618,63.0851020234775]}},{"type":"Feature","properties":{"en":"Vöyrinkaupunki eteläinen","fr":""},"geometry":{"type":"Point","coordinates":[21.6259363058109,63.1009043465776]}},{"type":"Feature","properties":{"en":"Vöyrinkaupunki pohjoinen","fr":""},"geometry":{"type":"Point","coordinates":[21.6167736364894,63.105703149672]}}]}