{"type":"FeatureCollection","features":[{"type":"Feature","properties":{"en":"Derik district","fr":"Derik"},"geometry":{"type":"Point","coordinates":[40.268888888889,37.364444444444]}},{"type":"Feature","properties":{"en":"Osmaniye","fr":"Osmaniye"},"geometry":{"type":"Point","coordinates":[36.25,37.075]}},{"type":"Feature","properties":{"en":"Karabük","fr":"Karabük"},"geometry":{"type":"Point","coordinates":[32.633333333333,41.2]}},{"type":"Feature","properties":{"en":"Yalova","fr":"Yalova"},"geometry":{"type":"Point","coordinates":[29.275,40.655555555556]}},{"type":"Feature","properties":{"en":"Akhisar","fr":"Akhisar"},"geometry":{"type":"Point","coordinates":[27.8401895,38.9240528]}},{"type":"Feature","properties":{"en":"Ödemiş district","fr":"Ödemiş"},"geometry":{"type":"Point","coordinates":[27.971944444444,38.231111111111]}},{"type":"Feature","properties":{"en":"İslahiye","fr":"Islahiye"},"geometry":{"type":"Point","coordinates":[36.632222222222,37.026388888889]}},{"type":"Feature","properties":{"en":"Karataş","fr":"Karataş"},"geometry":{"type":"Point","coordinates":[35.378044444444,36.572380555556]}},{"type":"Feature","properties":{"en":"Narlıdere district","fr":"Narlıdere"},"geometry":{"type":"Point","coordinates":[27.0097222222222,38.3944444444444]}},{"type":"Feature","properties":{"en":"Bergama","fr":"Bergama"},"geometry":{"type":"Point","coordinates":[27.1777296,39.1191544]}},{"type":"Feature","properties":{"en":"Karaburun district","fr":"Karaburun"},"geometry":{"type":"Point","coordinates":[26.5097308,38.6359137]}},{"type":"Feature","properties":{"en":"Ayvalık","fr":"Ayvalık"},"geometry":{"type":"Point","coordinates":[26.7,39.316666666667]}},{"type":"Feature","properties":{"en":"Bayraklı district","fr":"Bayraklı"},"geometry":{"type":"Point","coordinates":[27.166666666667,38.462222222222]}},{"type":"Feature","properties":{"en":"Bornova district","fr":"Bornova"},"geometry":{"type":"Point","coordinates":[27.2190721,38.4660651]}},{"type":"Feature","properties":{"en":"Milas","fr":"Milas"},"geometry":{"type":"Point","coordinates":[27.783333333333,37.316666666667]}},{"type":"Feature","properties":{"en":"Aliağa","fr":"Aliağa"},"geometry":{"type":"Point","coordinates":[26.9755555555556,38.7961111111111]}},{"type":"Feature","properties":{"en":"Torbalı district","fr":"Torbalı"},"geometry":{"type":"Point","coordinates":[27.3616214,38.1513559]}},{"type":"Feature","properties":{"en":"Salihli","fr":"Salihli"},"geometry":{"type":"Point","coordinates":[28.139166666667,38.481111111111]}},{"type":"Feature","properties":{"en":"Kemalpaşa","fr":"Kemalpaşa"},"geometry":{"type":"Point","coordinates":[27.41552,38.42943]}},{"type":"Feature","properties":{"en":"Kumlu district","fr":"Kumlu"},"geometry":{"type":"Point","coordinates":[36.4511111111111,36.3627777777778]}},{"type":"Feature","properties":{"en":"Gaziemir district","fr":"Gaziemir"},"geometry":{"type":"Point","coordinates":[27.1372222222222,38.3258333333333]}},{"type":"Feature","properties":{"en":"Güzelbahçe district","fr":"Güzelbahçe"},"geometry":{"type":"Point","coordinates":[26.8880555555556,38.3597222222222]}},{"type":"Feature","properties":{"en":"Gördes district","fr":"Gördes"},"geometry":{"type":"Point","coordinates":[28.28861111,38.93305556]}},{"type":"Feature","properties":{"en":"Beydağ district","fr":"Beydağ"},"geometry":{"type":"Point","coordinates":[28.20888889,38.08694444]}},{"type":"Feature","properties":{"en":"Çiğli district","fr":"Çiğli"},"geometry":{"type":"Point","coordinates":[27.0638888888889,38.4966666666667]}},{"type":"Feature","properties":{"en":"Foça district","fr":"Foça"},"geometry":{"type":"Point","coordinates":[26.7527777777778,38.6688888888889]}},{"type":"Feature","properties":{"en":"Kırkağaç district","fr":"Kırkağaç"},"geometry":{"type":"Point","coordinates":[27.67305556,39.10555556]}},{"type":"Feature","properties":{"en":"Suruç district","fr":""},"geometry":{"type":"Point","coordinates":[38.426111111111,36.976944444444]}},{"type":"Feature","properties":{"en":"Ahmetli district","fr":"Ahmetli"},"geometry":{"type":"Point","coordinates":[27.944722222222,38.528888888889]}},{"type":"Feature","properties":{"en":"Düzce district","fr":""},"geometry":{"type":"Point","coordinates":[31.1613888888889,40.8386111111111]}},{"type":"Feature","properties":{"en":"Seferihisar district","fr":"Seferihisar"},"geometry":{"type":"Point","coordinates":[26.83881,38.1975]}},{"type":"Feature","properties":{"en":"Gölmarmara district","fr":"Gölmarmara"},"geometry":{"type":"Point","coordinates":[27.9147222222222,38.7119444444444]}},{"type":"Feature","properties":{"en":"Yıldırım district","fr":"Yıldırım"},"geometry":{"type":"Point","coordinates":[29.097653,40.1900988]}},{"type":"Feature","properties":{"en":"İvrindi district","fr":"İvrindi"},"geometry":{"type":"Point","coordinates":[27.484444444444,39.583333333333]}},{"type":"Feature","properties":{"en":"Gömeç district","fr":"Gömeç"},"geometry":{"type":"Point","coordinates":[26.84,39.391111111111]}},{"type":"Feature","properties":{"en":"Balçova district","fr":"Balçova"},"geometry":{"type":"Point","coordinates":[27.0463888888889,38.3922222222222]}},{"type":"Feature","properties":{"en":"Karşıyaka district","fr":"Karşıyaka"},"geometry":{"type":"Point","coordinates":[27.1019444444444,38.4761111111111]}},{"type":"Feature","properties":{"en":"Buca district","fr":"Buca"},"geometry":{"type":"Point","coordinates":[27.1719444444444,38.3886111111111]}},{"type":"Feature","properties":{"en":"Kiraz district","fr":"Kiraz"},"geometry":{"type":"Point","coordinates":[28.2044,38.2306]}},{"type":"Feature","properties":{"en":"Fındıklı district","fr":""},"geometry":{"type":"Point","coordinates":[41.1429403,41.2704528]}},{"type":"Feature","properties":{"en":"Karabağlar district","fr":"Karabağlar"},"geometry":{"type":"Point","coordinates":[27.1133333333333,38.3847222222222]}},{"type":"Feature","properties":{"en":"Soma","fr":"Soma"},"geometry":{"type":"Point","coordinates":[27.60555556,39.18333333]}},{"type":"Feature","properties":{"en":"Arhavi district","fr":""},"geometry":{"type":"Point","coordinates":[41.319444444444,41.348333333333]}},{"type":"Feature","properties":{"en":"Hopa district","fr":""},"geometry":{"type":"Point","coordinates":[41.4356,41.4069]}},{"type":"Feature","properties":{"en":"Artuklu district","fr":""},"geometry":{"type":"Point","coordinates":[40.7167,37.3167]}},{"type":"Feature","properties":{"en":"Defne district","fr":""},"geometry":{"type":"Point","coordinates":[36.15416718,36.19972229]}},{"type":"Feature","properties":{"en":"Efeler district","fr":""},"geometry":{"type":"Point","coordinates":[27.85,37.85]}},{"type":"Feature","properties":{"en":"Şehzadeler district","fr":"Şehzadeler"},"geometry":{"type":"Point","coordinates":[27.43861,38.6166]}},{"type":"Feature","properties":{"en":"Yunusemre district","fr":"Yunusemre"},"geometry":{"type":"Point","coordinates":[27.4194561,38.6086543]}},{"type":"Feature","properties":{"en":"Cumayeri district","fr":""},"geometry":{"type":"Point","coordinates":[30.95,40.8666666666667]}},{"type":"Feature","properties":{"en":"Akçakoca district","fr":""},"geometry":{"type":"Point","coordinates":[31.1166666666667,41.0333333333333]}},{"type":"Feature","properties":{"en":"Çilimli district","fr":""},"geometry":{"type":"Point","coordinates":[31.05,40.9]}},{"type":"Feature","properties":{"en":"Gümüşova district","fr":""},"geometry":{"type":"Point","coordinates":[30.9333333333333,40.85]}}]}