{"type":"FeatureCollection","features":[{"type":"Feature","properties":{"en":"Pohrebyshche Raion","fr":"Pohrebychtche"},"geometry":{"type":"Point","coordinates":[29.25,49.5]}},{"type":"Feature","properties":{"en":"Nikopol Raion","fr":"raïon de Nikopol"},"geometry":{"type":"Point","coordinates":[34.5327,47.6231]}},{"type":"Feature","properties":{"en":"Velykyi Bereznyi Raion","fr":"raïon de Velyky Berezny"},"geometry":{"type":"Point","coordinates":[22.6504,48.8911]}},{"type":"Feature","properties":{"en":"Uzhhorod Raion","fr":""},"geometry":{"type":"Point","coordinates":[22.373617,48.529666]}},{"type":"Feature","properties":{"en":"Iziaslav Raion","fr":"raïon d'Iziaslav"},"geometry":{"type":"Point","coordinates":[26.70018,50.10205]}},{"type":"Feature","properties":{"en":"Yasynuvata Raion","fr":"raïon de Iassynouvata"},"geometry":{"type":"Point","coordinates":[37.6154,47.2463]}},{"type":"Feature","properties":{"en":"Korosten Raion","fr":""},"geometry":{"type":"Point","coordinates":[28.6625,50.8897]}},{"type":"Feature","properties":{"en":"Ovruch Raion","fr":"raïon d'Ovroutch"},"geometry":{"type":"Point","coordinates":[28.8139,51.3217]}},{"type":"Feature","properties":{"en":"Horokhiv Raion","fr":"raïon de Horokhiv"},"geometry":{"type":"Point","coordinates":[24.783333333333,50.5]}},{"type":"Feature","properties":{"en":"Radomyshl Raion","fr":""},"geometry":{"type":"Point","coordinates":[29.2333,50.4989]}},{"type":"Feature","properties":{"en":"Zakharivka Raion","fr":"Zakharivka"},"geometry":{"type":"Point","coordinates":[29.76166667,47.34027778]}},{"type":"Feature","properties":{"en":"Berdychiv Raion","fr":"raïon de Berdytchiv"},"geometry":{"type":"Point","coordinates":[28.6117,49.9344]}},{"type":"Feature","properties":{"en":"Volochysk Raion","fr":"raïon de Volotchysk"},"geometry":{"type":"Point","coordinates":[26.33333,49.5]}},{"type":"Feature","properties":{"en":"Horodok Raion, Khmelnytskyi Oblast","fr":"raïon d'Horodok"},"geometry":{"type":"Point","coordinates":[27.32416667,47.77666667]}},{"type":"Feature","properties":{"en":"Kamianets-Podilskyi Raion","fr":""},"geometry":{"type":"Point","coordinates":[26.5825,48.68222222]}},{"type":"Feature","properties":{"en":"Polonne Raion","fr":""},"geometry":{"type":"Point","coordinates":[27.5,50.08333]}},{"type":"Feature","properties":{"en":"Shepetivka Raion","fr":""},"geometry":{"type":"Point","coordinates":[27.16667,50.16667]}},{"type":"Feature","properties":{"en":"Podilsk Raion","fr":"Podilsk"},"geometry":{"type":"Point","coordinates":[29.53805556,47.70805556]}},{"type":"Feature","properties":{"en":"Balta Raion","fr":"Balta"},"geometry":{"type":"Point","coordinates":[29.62194444,47.94]}},{"type":"Feature","properties":{"en":"Reni Raion","fr":"Raïon de Réni"},"geometry":{"type":"Point","coordinates":[28.49444444,45.40361111]}},{"type":"Feature","properties":{"en":"Zaporizhzhia Raion","fr":"Zaporizhzhia"},"geometry":{"type":"Point","coordinates":[35.0261,47.7398]}},{"type":"Feature","properties":{"en":"Piatykhatky Raion","fr":"raïon de Piatykhatky"},"geometry":{"type":"Point","coordinates":[33.71666667,48.41666667]}},{"type":"Feature","properties":{"en":"Ovidiopol Raion","fr":""},"geometry":{"type":"Point","coordinates":[30.51138889,46.27916667]}},{"type":"Feature","properties":{"en":"Tatarbunary Raion","fr":"Raïon de Tatarbounary"},"geometry":{"type":"Point","coordinates":[29.76722222,45.74555556]}},{"type":"Feature","properties":{"en":"Orikhiv Raion","fr":"Orikhiv"},"geometry":{"type":"Point","coordinates":[35.7792,47.687]}},{"type":"Feature","properties":{"en":"Stara Syniava Raion","fr":""},"geometry":{"type":"Point","coordinates":[27.6139,49.6311]}},{"type":"Feature","properties":{"en":"Krasyliv Raion","fr":"raïon de Krasyliv"},"geometry":{"type":"Point","coordinates":[26.87166667,49.72611111]}},{"type":"Feature","properties":{"en":"Teofipol Raion","fr":"raïon de Téofipol"},"geometry":{"type":"Point","coordinates":[26.4119,49.8419]}},{"type":"Feature","properties":{"en":"Starokostiantyniv Raion","fr":""},"geometry":{"type":"Point","coordinates":[27.2208,49.7556]}},{"type":"Feature","properties":{"en":"Vinkivtsi Raion","fr":""},"geometry":{"type":"Point","coordinates":[27.2336,49.0331]}},{"type":"Feature","properties":{"en":"Yarmolyntsi Raion","fr":""},"geometry":{"type":"Point","coordinates":[26.8397,49.1925]}},{"type":"Feature","properties":{"en":"Dunaivtsi Raion","fr":"raïon de Dounaïvtsi"},"geometry":{"type":"Point","coordinates":[26.84907,48.89812]}},{"type":"Feature","properties":{"en":"Bilohiria Raion","fr":""},"geometry":{"type":"Point","coordinates":[26.36631,50.01955]}},{"type":"Feature","properties":{"en":"Letychiv Raion","fr":""},"geometry":{"type":"Point","coordinates":[27.59055556,49.45277778]}},{"type":"Feature","properties":{"en":"Slavuta Raion","fr":"raïon de Slavouta"},"geometry":{"type":"Point","coordinates":[26.83333,50.33333]}},{"type":"Feature","properties":{"en":"Ivankiv Raion","fr":"raïon d'Ivankiv"},"geometry":{"type":"Point","coordinates":[30.00388889,51.12277778]}},{"type":"Feature","properties":{"en":"Khoroshiv Raion","fr":"raïon de Khorochiv"},"geometry":{"type":"Point","coordinates":[28.4447,50.6047]}},{"type":"Feature","properties":{"en":"Peremyshliany Raion","fr":"raïon de Peremychliany"},"geometry":{"type":"Point","coordinates":[24.51916695,49.63416672]}},{"type":"Feature","properties":{"en":"Olevsk Raion","fr":""},"geometry":{"type":"Point","coordinates":[27.6528,51.2242]}},{"type":"Feature","properties":{"en":"Ruzhyn Raion","fr":""},"geometry":{"type":"Point","coordinates":[29.2272,49.7233]}},{"type":"Feature","properties":{"en":"Pulyny Raion","fr":"raïon de Poulyny"},"geometry":{"type":"Point","coordinates":[28.2756,50.4744]}},{"type":"Feature","properties":{"en":"Popilnia Raion","fr":""},"geometry":{"type":"Point","coordinates":[29.4531,49.9453]}},{"type":"Feature","properties":{"en":"Chudniv Raion","fr":"raïon de Tchoudniv"},"geometry":{"type":"Point","coordinates":[28.1264,50.0447]}},{"type":"Feature","properties":{"en":"Cherniakhiv Raion","fr":"raïon de Tcherniakhiv"},"geometry":{"type":"Point","coordinates":[28.6786,50.4567]}},{"type":"Feature","properties":{"en":"Romaniv Raion","fr":""},"geometry":{"type":"Point","coordinates":[27.9331,50.1533]}},{"type":"Feature","properties":{"en":"Narodychi Raion","fr":"raïon de Narodytchi"},"geometry":{"type":"Point","coordinates":[29.0747,51.2058]}},{"type":"Feature","properties":{"en":"Andrushivka Raion","fr":""},"geometry":{"type":"Point","coordinates":[28.9803,50.0083]}},{"type":"Feature","properties":{"en":"Baranivka Raion","fr":""},"geometry":{"type":"Point","coordinates":[27.7458,50.3039]}},{"type":"Feature","properties":{"en":"Liubar Raion","fr":""},"geometry":{"type":"Point","coordinates":[27.7553,49.9222]}},{"type":"Feature","properties":{"en":"Yemilchyne Raion","fr":""},"geometry":{"type":"Point","coordinates":[27.8078,50.8769]}},{"type":"Feature","properties":{"en":"Malyn Raion","fr":""},"geometry":{"type":"Point","coordinates":[29.1800814585,50.8412626463077]}},{"type":"Feature","properties":{"en":"Novohrad-Volynskyi Raion","fr":"raïon de Novohrad-Volynsky"},"geometry":{"type":"Point","coordinates":[27.7333333333333,50.6333333333333]}},{"type":"Feature","properties":{"en":"Brusyliv Raion","fr":"raïon de Broussyliv"},"geometry":{"type":"Point","coordinates":[29.5372,50.2872]}},{"type":"Feature","properties":{"en":"Luhyny Raion","fr":""},"geometry":{"type":"Point","coordinates":[28.3931,51.0808]}},{"type":"Feature","properties":{"en":"Zhytomyr Raion","fr":"raïon de Jytomyr"},"geometry":{"type":"Point","coordinates":[28.6486,50.2047]}},{"type":"Feature","properties":{"en":"Khmilnyk Raion","fr":"Khmilnyk"},"geometry":{"type":"Point","coordinates":[27.9,49.55]}},{"type":"Feature","properties":{"en":"Kryvyi Rih Raion","fr":"raïon de Kryvyï Rih"},"geometry":{"type":"Point","coordinates":[33.35,47.91666667]}},{"type":"Feature","properties":{"en":"Verkhnodniprovsk Raion","fr":"raïon de Verkhnodniprovsk"},"geometry":{"type":"Point","coordinates":[39.2117,48.6561]}},{"type":"Feature","properties":{"en":"Solone Raion","fr":"raïon de Solone"},"geometry":{"type":"Point","coordinates":[34.8764,48.2028]}},{"type":"Feature","properties":{"en":"Chaplynka Raion","fr":"raïon de Tchaplynka"},"geometry":{"type":"Point","coordinates":[33.70893983,46.394263]}},{"type":"Feature","properties":{"en":"Shyroke Raion","fr":"raïon de Chyroke"},"geometry":{"type":"Point","coordinates":[33.1861,47.6856]}},{"type":"Feature","properties":{"en":"Haisyn Raion","fr":"Haïssyn"},"geometry":{"type":"Point","coordinates":[29.3842,48.8103]}},{"type":"Feature","properties":{"en":"Kalanchak Raion","fr":"raïon de Kalantchak"},"geometry":{"type":"Point","coordinates":[33.37913183,46.14796483]}},{"type":"Feature","properties":{"en":"Derazhnia Raion","fr":""},"geometry":{"type":"Point","coordinates":[27.46444444,49.22027778]}},{"type":"Feature","properties":{"en":"Beryslav Raion","fr":""},"geometry":{"type":"Point","coordinates":[33.42944444,46.84138889]}},{"type":"Feature","properties":{"en":"Borodianka Raion","fr":"Borodianka"},"geometry":{"type":"Point","coordinates":[29.88111111,50.65916667]}},{"type":"Feature","properties":{"en":"Kozelets Raion","fr":"raïon de Kozelets"},"geometry":{"type":"Point","coordinates":[31.11666667,50.9]}},{"type":"Feature","properties":{"en":"Dnipro Raion","fr":"raïon de Dnipro"},"geometry":{"type":"Point","coordinates":[35.1226,48.5736]}},{"type":"Feature","properties":{"en":"Apostolove Raion","fr":"raïon d'Apostolove"},"geometry":{"type":"Point","coordinates":[33.65972222,47.66]}},{"type":"Feature","properties":{"en":"Korostyshiv Raion","fr":""},"geometry":{"type":"Point","coordinates":[29.0661,50.3147]}},{"type":"Feature","properties":{"en":"Sofiyivka Raion","fr":"raïon de Sofiïvka"},"geometry":{"type":"Point","coordinates":[33.86666667,48.05]}},{"type":"Feature","properties":{"en":"Vyshhorod Raion","fr":"raïon de Vychhorod"},"geometry":{"type":"Point","coordinates":[30.32305556,50.81777778]}},{"type":"Feature","properties":{"en":"Koziatyn Raion","fr":"Koziatyn"},"geometry":{"type":"Point","coordinates":[28.8333,49.7167]}},{"type":"Feature","properties":{"en":"Fastiv Raion","fr":"Fastiv"},"geometry":{"type":"Point","coordinates":[29.90888889,50.045]}},{"type":"Feature","properties":{"en":"Poliske Raion","fr":"Poliské"},"geometry":{"type":"Point","coordinates":[29.59472222,51.25666667]}},{"type":"Feature","properties":{"en":"Makariv Raion","fr":"Makariv"},"geometry":{"type":"Point","coordinates":[29.77722222,50.41888889]}},{"type":"Feature","properties":{"en":"Skvyra Raion","fr":"Skvyra"},"geometry":{"type":"Point","coordinates":[29.69916667,49.74194444]}}]}