{"type":"FeatureCollection","features":[{"type":"Feature","properties":{"en":"Ward of Billingsgate","fr":"Billingsgate"},"geometry":{"type":"Point","coordinates":[-0.0837,51.5095]}},{"type":"Feature","properties":{"en":"Blackbird Leys","fr":"Blackbird Leys"},"geometry":{"type":"Point","coordinates":[-1.211,51.722]}},{"type":"Feature","properties":{"en":"Charlestown","fr":""},"geometry":{"type":"Point","coordinates":[-2.1977,53.5262]}},{"type":"Feature","properties":{"en":"Fourth Ward","fr":""},"geometry":{"type":"Point","coordinates":[-95.381,29.756]}},{"type":"Feature","properties":{"en":"Miles Platting & Newton Heath","fr":""},"geometry":{"type":"Point","coordinates":[-2.2186,53.4692]}},{"type":"Feature","properties":{"en":"Rodney Ward","fr":""},"geometry":{"type":"Point","coordinates":[174.528,-36.539]}},{"type":"Feature","properties":{"en":"Brooklands","fr":""},"geometry":{"type":"Point","coordinates":[-2.3137,53.411089]}},{"type":"Feature","properties":{"en":"Smithills","fr":"Smithills"},"geometry":{"type":"Point","coordinates":[-2.462251,53.604657]}},{"type":"Feature","properties":{"en":"Chorlton Park","fr":""},"geometry":{"type":"Point","coordinates":[-2.2631,53.4304]}},{"type":"Feature","properties":{"en":"Burnage","fr":""},"geometry":{"type":"Point","coordinates":[-2.2067,53.4271]}},{"type":"Feature","properties":{"en":"Chorlton","fr":""},"geometry":{"type":"Point","coordinates":[-2.2835,53.4405]}},{"type":"Feature","properties":{"en":"Didsbury East","fr":""},"geometry":{"type":"Point","coordinates":[-2.2267,53.4127]}},{"type":"Feature","properties":{"en":"Didsbury West","fr":""},"geometry":{"type":"Point","coordinates":[-2.2431,53.4186]}},{"type":"Feature","properties":{"en":"Old Moat","fr":""},"geometry":{"type":"Point","coordinates":[-2.235,53.4358]}},{"type":"Feature","properties":{"en":"Withington","fr":""},"geometry":{"type":"Point","coordinates":[-2.218,53.4344]}},{"type":"Feature","properties":{"en":"Gorton & Abbey Hey","fr":""},"geometry":{"type":"Point","coordinates":[-2.169614,53.464526]}},{"type":"Feature","properties":{"en":"Ancoats & Beswick","fr":""},"geometry":{"type":"Point","coordinates":[-2.2074,53.4807]}},{"type":"Feature","properties":{"en":"Clayton & Openshaw","fr":""},"geometry":{"type":"Point","coordinates":[-2.1801,53.4837]}},{"type":"Feature","properties":{"en":"Deansgate","fr":""},"geometry":{"type":"Point","coordinates":[-2.2494,53.4784]}},{"type":"Feature","properties":{"en":"Piccadilly","fr":""},"geometry":{"type":"Point","coordinates":[-2.234,53.4807]}},{"type":"Feature","properties":{"en":"Uke","fr":""},"geometry":{"type":"Point","coordinates":[7.6975,8.91722222222222]}},{"type":"Feature","properties":{"en":"Garki District 1","fr":"Garki"},"geometry":{"type":"Point","coordinates":[7.4818316,9.0352005]}},{"type":"Feature","properties":{"en":"Boothstown & Ellenbrook","fr":""},"geometry":{"type":"Point","coordinates":[-2.412,53.511]}},{"type":"Feature","properties":{"en":"Claremont","fr":""},"geometry":{"type":"Point","coordinates":[-2.3149,53.4995]}},{"type":"Feature","properties":{"en":"Eccles","fr":""},"geometry":{"type":"Point","coordinates":[-2.3428,53.49]}},{"type":"Feature","properties":{"en":"Little Hulton","fr":""},"geometry":{"type":"Point","coordinates":[-2.4291,53.5301]}},{"type":"Feature","properties":{"en":"Ordsall","fr":""},"geometry":{"type":"Point","coordinates":[-2.2779,53.476]}},{"type":"Feature","properties":{"en":"Walkden North","fr":""},"geometry":{"type":"Point","coordinates":[-2.4,53.534]}},{"type":"Feature","properties":{"en":"Walkden South","fr":""},"geometry":{"type":"Point","coordinates":[-2.3963,53.5198]}},{"type":"Feature","properties":{"en":"Weaste & Seedley","fr":""},"geometry":{"type":"Point","coordinates":[-2.3142,53.4851]}},{"type":"Feature","properties":{"en":"Worsley & Westwood Park","fr":""},"geometry":{"type":"Point","coordinates":[-2.3804,53.5008]}}]}