{"type":"FeatureCollection","features":[{"type":"Feature","properties":{"en":"Aceh","fr":"Aceh"},"geometry":{"type":"Point","coordinates":[95.3407655857683,5.57028144073702]}},{"type":"Feature","properties":{"en":"Bangka Belitung Islands","fr":"Îles Bangka Belitung"},"geometry":{"type":"Point","coordinates":[106.1,-2.1]}},{"type":"Feature","properties":{"en":"Bengkulu","fr":"Bengkulu"},"geometry":{"type":"Point","coordinates":[102.284094121608,-3.82092458116514]}},{"type":"Feature","properties":{"en":"Jambi","fr":"Jambi"},"geometry":{"type":"Point","coordinates":[103.583333333333,-1.60333333333333]}},{"type":"Feature","properties":{"en":"Lampung","fr":"Lampung"},"geometry":{"type":"Point","coordinates":[105.258333333333,-5.44083333333333]}},{"type":"Feature","properties":{"en":"North Sumatra","fr":"Sumatra du Nord"},"geometry":{"type":"Point","coordinates":[99.0,2.0]}},{"type":"Feature","properties":{"en":"Riau","fr":"Riau"},"geometry":{"type":"Point","coordinates":[101.45,0.54]}},{"type":"Feature","properties":{"en":"Riau Islands","fr":"Îles Riau"},"geometry":{"type":"Point","coordinates":[104.45,0.9]}},{"type":"Feature","properties":{"en":"South Sumatra","fr":"Sumatra du Sud"},"geometry":{"type":"Point","coordinates":[103.83333333333,-2.75]}},{"type":"Feature","properties":{"en":"West Sumatra","fr":"Sumatra occidental"},"geometry":{"type":"Point","coordinates":[100.5,-1.0]}},{"type":"Feature","properties":{"en":"Banten","fr":"Banten"},"geometry":{"type":"Point","coordinates":[106.25,-6.5]}},{"type":"Feature","properties":{"en":"Central Java","fr":"Java central"},"geometry":{"type":"Point","coordinates":[110.0,-7.5]}},{"type":"Feature","properties":{"en":"East Java","fr":"Java oriental"},"geometry":{"type":"Point","coordinates":[112.5,-7.7]}},{"type":"Feature","properties":{"en":"Jakarta","fr":"Jakarta"},"geometry":{"type":"Point","coordinates":[106.826944444444,-6.17527777777778]}},{"type":"Feature","properties":{"en":"West Java","fr":"Java occidental"},"geometry":{"type":"Point","coordinates":[107.5,-6.75]}},{"type":"Feature","properties":{"en":"Yogyakarta","fr":"région de Daérah Istiméwa Yogyakarta"},"geometry":{"type":"Point","coordinates":[110.36444444444,-7.8013888888889]}},{"type":"Feature","properties":{"en":"Central Kalimantan","fr":"Kalimantan central"},"geometry":{"type":"Point","coordinates":[113.91666666667,-2.2166666666667]}},{"type":"Feature","properties":{"en":"East Kalimantan","fr":"Kalimantan oriental"},"geometry":{"type":"Point","coordinates":[116.31666666667,1.05]}},{"type":"Feature","properties":{"en":"North Kalimantan","fr":"Kalimantan du Nord"},"geometry":{"type":"Point","coordinates":[116.46333333333,3.4150833333333]}},{"type":"Feature","properties":{"en":"South Kalimantan","fr":"Kalimantan du Sud"},"geometry":{"type":"Point","coordinates":[115.5,-2.5]}},{"type":"Feature","properties":{"en":"West Kalimantan","fr":"Kalimantan occidental"},"geometry":{"type":"Point","coordinates":[110.5,0.0]}},{"type":"Feature","properties":{"en":"Surakarta","fr":"Surakarta"},"geometry":{"type":"Point","coordinates":[110.81666666667,-7.5666666666667]}},{"type":"Feature","properties":{"en":"East Nusa Tenggara","fr":"Petites Îles de la Sonde orientales"},"geometry":{"type":"Point","coordinates":[123.58333333333,-10.183333333333]}},{"type":"Feature","properties":{"en":"West Nusa Tenggara","fr":"Petites Îles de la Sonde occidentales"},"geometry":{"type":"Point","coordinates":[116.11666666667,-8.5833333333333]}},{"type":"Feature","properties":{"en":"Central Sulawesi","fr":"Sulawesi central"},"geometry":{"type":"Point","coordinates":[121.0,-1.0]}},{"type":"Feature","properties":{"en":"Gorontalo","fr":"Gorontalo"},"geometry":{"type":"Point","coordinates":[123.0,0.666667]}},{"type":"Feature","properties":{"en":"North Sulawesi","fr":"Sulawesi du Nord"},"geometry":{"type":"Point","coordinates":[124.83333333333,1.25]}},{"type":"Feature","properties":{"en":"Southeast Sulawesi","fr":"Sulawesi du Sud-Est"},"geometry":{"type":"Point","coordinates":[122.5,-3.95]}},{"type":"Feature","properties":{"en":"South Sulawesi","fr":"Sulawesi du Sud"},"geometry":{"type":"Point","coordinates":[120.0,-3.75]}},{"type":"Feature","properties":{"en":"West Sulawesi","fr":"Sulawesi occidental"},"geometry":{"type":"Point","coordinates":[118.9,-2.6833333333333]}},{"type":"Feature","properties":{"en":"Maluku","fr":"Moluques"},"geometry":{"type":"Point","coordinates":[128.17,-3.705]}},{"type":"Feature","properties":{"en":"North Maluku","fr":"Moluques du Nord"},"geometry":{"type":"Point","coordinates":[127.36666666667,0.78333333333333]}},{"type":"Feature","properties":{"en":"Papua","fr":"Papouasie"},"geometry":{"type":"Point","coordinates":[140.714618202741,-2.53685823371889]}},{"type":"Feature","properties":{"en":"West Papua","fr":"Papouasie occidentale"},"geometry":{"type":"Point","coordinates":[133.670556,-1.801389]}},{"type":"Feature","properties":{"en":"Banda Aceh","fr":"Banda Aceh"},"geometry":{"type":"Point","coordinates":[95.3175,5.55]}},{"type":"Feature","properties":{"en":"Binjai","fr":"Binjai"},"geometry":{"type":"Point","coordinates":[98.485277777778,3.6]}},{"type":"Feature","properties":{"en":"Medan","fr":"Medan"},"geometry":{"type":"Point","coordinates":[98.6738888888889,3.58944444444444]}},{"type":"Feature","properties":{"en":"Pematangsiantar","fr":"Pematang Siantar"},"geometry":{"type":"Point","coordinates":[99.06,2.96]}},{"type":"Feature","properties":{"en":"Tanjungbalai","fr":"Kota Tanjung Balai"},"geometry":{"type":"Point","coordinates":[99.8,2.9666666666667]}},{"type":"Feature","properties":{"en":"Tebing Tinggi","fr":"Tebing Tinggi"},"geometry":{"type":"Point","coordinates":[99.1625,3.3283333333333]}},{"type":"Feature","properties":{"en":"Bukittinggi","fr":"Bukittinggi"},"geometry":{"type":"Point","coordinates":[100.37527777778,-0.30972222222222]}},{"type":"Feature","properties":{"en":"Padang","fr":"Padang"},"geometry":{"type":"Point","coordinates":[100.360556,-0.955556]}},{"type":"Feature","properties":{"en":"Padang Panjang","fr":"Padang Panjang"},"geometry":{"type":"Point","coordinates":[100.40083333333,-0.46444444444444]}},{"type":"Feature","properties":{"en":"Payakumbuh","fr":"Payakumbuh"},"geometry":{"type":"Point","coordinates":[100.6325,-0.22444444444444]}},{"type":"Feature","properties":{"en":"Sawahlunto","fr":"Sawahlunto"},"geometry":{"type":"Point","coordinates":[100.77833333333,-0.68277777777778]}},{"type":"Feature","properties":{"en":"Solok","fr":"Solok"},"geometry":{"type":"Point","coordinates":[100.65416666667,-0.78833333333333]}},{"type":"Feature","properties":{"en":"Yogyakarta","fr":"Yogyakarta"},"geometry":{"type":"Point","coordinates":[110.391280229855,-7.80045676649044]}},{"type":"Feature","properties":{"en":"Jambi","fr":"Jambi"},"geometry":{"type":"Point","coordinates":[103.608227492044,-1.62879445223381]}},{"type":"Feature","properties":{"en":"Pekanbaru","fr":"Pekanbaru"},"geometry":{"type":"Point","coordinates":[101.45,0.53333333333333]}},{"type":"Feature","properties":{"en":"Bengkulu","fr":"Bengkulu"},"geometry":{"type":"Point","coordinates":[102.25916666667,-3.7955555555556]}},{"type":"Feature","properties":{"en":"Palembang","fr":"Palembang"},"geometry":{"type":"Point","coordinates":[104.76444444444,-2.9833333333333]}},{"type":"Feature","properties":{"en":"Bandar Lampung","fr":"Bandar Lampung"},"geometry":{"type":"Point","coordinates":[105.2625,-5.4294444444444]}},{"type":"Feature","properties":{"en":"Pangkal Pinang","fr":"Pangkal Pinang"},"geometry":{"type":"Point","coordinates":[106.1,-2.1]}},{"type":"Feature","properties":{"en":"Bandung","fr":"Bandung"},"geometry":{"type":"Point","coordinates":[107.607083055556,-6.92184583333333]}},{"type":"Feature","properties":{"en":"Bogor","fr":"Bogor"},"geometry":{"type":"Point","coordinates":[106.799263333333,-6.59780277777778]}},{"type":"Feature","properties":{"en":"Cirebon","fr":"Cirebon"},"geometry":{"type":"Point","coordinates":[108.5529678,-6.7396903]}},{"type":"Feature","properties":{"en":"Semarang","fr":"Semarang"},"geometry":{"type":"Point","coordinates":[110.4225,-6.99]}},{"type":"Feature","properties":{"en":"Pekalongan","fr":"Pekalongan"},"geometry":{"type":"Point","coordinates":[109.67527777778,-6.8883333333333]}},{"type":"Feature","properties":{"en":"Kediri","fr":"Kediri"},"geometry":{"type":"Point","coordinates":[112.004722222222,-7.81111111111111]}},{"type":"Feature","properties":{"en":"Madiun","fr":"Madiun"},"geometry":{"type":"Point","coordinates":[111.52305555556,-7.63]}},{"type":"Feature","properties":{"en":"Malang","fr":"Malang"},"geometry":{"type":"Point","coordinates":[112.632727716516,-7.96893041000582]}},{"type":"Feature","properties":{"en":"Surabaya","fr":"Surabaya"},"geometry":{"type":"Point","coordinates":[112.737767222222,-7.24628361111111]}},{"type":"Feature","properties":{"en":"Pontianak","fr":"Pontianak"},"geometry":{"type":"Point","coordinates":[109.34138888889,-0.020555555555556]}},{"type":"Feature","properties":{"en":"Banjarmasin","fr":"Banjarmasin"},"geometry":{"type":"Point","coordinates":[114.592253736149,-3.31442947285577]}},{"type":"Feature","properties":{"en":"Balikpapan","fr":"Balikpapan"},"geometry":{"type":"Point","coordinates":[116.90305555556,-1.1488888888889]}},{"type":"Feature","properties":{"en":"Samarinda","fr":"Samarinda"},"geometry":{"type":"Point","coordinates":[117.15361111111,-0.50222222222222]}},{"type":"Feature","properties":{"en":"Gorontalo","fr":"Gorontalo"},"geometry":{"type":"Point","coordinates":[123.061388888889,0.542222222222222]}},{"type":"Feature","properties":{"en":"Makassar","fr":"Makassar"},"geometry":{"type":"Point","coordinates":[119.413611111111,-5.13305555555556]}},{"type":"Feature","properties":{"en":"Parepare","fr":"Pare-Pare"},"geometry":{"type":"Point","coordinates":[119.62361111111,-4.0166666666667]}},{"type":"Feature","properties":{"en":"Manado","fr":"Manado"},"geometry":{"type":"Point","coordinates":[124.84126111111,1.4930555555556]}},{"type":"Feature","properties":{"en":"Bali","fr":"province de Bali"},"geometry":{"type":"Point","coordinates":[115.0,-8.5]}},{"type":"Feature","properties":{"en":"Central Papua","fr":"Papouasie centrale"},"geometry":{"type":"Point","coordinates":[136.0,-4.0]}},{"type":"Feature","properties":{"en":"South Papua","fr":"Papouasie méridionale"},"geometry":{"type":"Point","coordinates":[139.5,-6.5]}},{"type":"Feature","properties":{"en":"Highland Papua","fr":"Papouasie des hautes terres"},"geometry":{"type":"Point","coordinates":[139.5,-4.0]}},{"type":"Feature","properties":{"en":"Southwest Papua","fr":"Papouasie du Sud-Ouest"},"geometry":{"type":"Point","coordinates":[131.39,-0.86]}}]}