{"type":"FeatureCollection","features":[{"type":"Feature","properties":{"en":"San Francisco","fr":"San Francisco"},"geometry":{"type":"Point","coordinates":[-122.416388888889,37.7775]}},{"type":"Feature","properties":{"en":"Los Angeles","fr":"Los Angeles"},"geometry":{"type":"Point","coordinates":[-118.24368,34.05223]}},{"type":"Feature","properties":{"en":"Huntington Beach","fr":"Huntington Beach"},"geometry":{"type":"Point","coordinates":[-117.99972222222,33.692777777778]}},{"type":"Feature","properties":{"en":"San Jose","fr":"San José"},"geometry":{"type":"Point","coordinates":[-121.87277777778,37.304166666667]}},{"type":"Feature","properties":{"en":"Long Beach","fr":"Long Beach"},"geometry":{"type":"Point","coordinates":[-118.195555555556,33.7680555555556]}},{"type":"Feature","properties":{"en":"Oakland","fr":"Oakland"},"geometry":{"type":"Point","coordinates":[-122.25,37.8]}},{"type":"Feature","properties":{"en":"Sacramento","fr":"Sacramento"},"geometry":{"type":"Point","coordinates":[-121.48611111111,38.575277777778]}},{"type":"Feature","properties":{"en":"Burbank","fr":"Burbank"},"geometry":{"type":"Point","coordinates":[-118.32833333333,34.180277777778]}},{"type":"Feature","properties":{"en":"Santa Monica","fr":"Santa Monica"},"geometry":{"type":"Point","coordinates":[-118.48138888889,34.021944444444]}},{"type":"Feature","properties":{"en":"Palo Alto","fr":"Palo Alto"},"geometry":{"type":"Point","coordinates":[-122.13805555556,37.429166666667]}},{"type":"Feature","properties":{"en":"Irvine","fr":"Irvine"},"geometry":{"type":"Point","coordinates":[-117.7925,33.684166666667]}},{"type":"Feature","properties":{"en":"Riverside","fr":"Riverside"},"geometry":{"type":"Point","coordinates":[-117.3725,33.9822222222222]}},{"type":"Feature","properties":{"en":"Santa Ana","fr":"Santa Ana"},"geometry":{"type":"Point","coordinates":[-117.88138888889,33.740833333333]}},{"type":"Feature","properties":{"en":"Anaheim","fr":"Anaheim"},"geometry":{"type":"Point","coordinates":[-117.88972222222,33.836111111111]}},{"type":"Feature","properties":{"en":"Napa","fr":"Napa"},"geometry":{"type":"Point","coordinates":[-122.3,38.3]}},{"type":"Feature","properties":{"en":"Menlo Park","fr":"Menlo Park"},"geometry":{"type":"Point","coordinates":[-122.17861111111,37.454166666667]}},{"type":"Feature","properties":{"en":"St. Helena","fr":"Saint Helena"},"geometry":{"type":"Point","coordinates":[-122.46972222222,38.502777777778]}},{"type":"Feature","properties":{"en":"Santa Clara","fr":"Santa Clara"},"geometry":{"type":"Point","coordinates":[-121.96666666667,37.35]}},{"type":"Feature","properties":{"en":"San Mateo","fr":"San Mateo"},"geometry":{"type":"Point","coordinates":[-122.31305555556,37.554166666667]}},{"type":"Feature","properties":{"en":"Cupertino","fr":"Cupertino"},"geometry":{"type":"Point","coordinates":[-122.04194444444,37.3175]}},{"type":"Feature","properties":{"en":"Suisun City","fr":"Suisun City"},"geometry":{"type":"Point","coordinates":[-122.01694444444,38.245]}},{"type":"Feature","properties":{"en":"Sunnyvale","fr":"Sunnyvale"},"geometry":{"type":"Point","coordinates":[-122.03694444444,37.368888888889]}},{"type":"Feature","properties":{"en":"Santa Rosa","fr":"Santa Rosa"},"geometry":{"type":"Point","coordinates":[-122.70472222222,38.448611111111]}},{"type":"Feature","properties":{"en":"Newport Beach","fr":"Newport Beach"},"geometry":{"type":"Point","coordinates":[-117.8975,33.616666666667]}},{"type":"Feature","properties":{"en":"Pittsburg","fr":"Pittsburg"},"geometry":{"type":"Point","coordinates":[-121.88472222222,38.028055555556]}},{"type":"Feature","properties":{"en":"Fairfield","fr":"Fairfield"},"geometry":{"type":"Point","coordinates":[-122.05416666667,38.257777777778]}},{"type":"Feature","properties":{"en":"Daly City","fr":"Daly City"},"geometry":{"type":"Point","coordinates":[-122.46833333333,37.686388888889]}},{"type":"Feature","properties":{"en":"Bell","fr":"Bell"},"geometry":{"type":"Point","coordinates":[-118.18277777778,33.978333333333]}},{"type":"Feature","properties":{"en":"San Carlos","fr":"San Carlos"},"geometry":{"type":"Point","coordinates":[-122.26333333333,37.499166666667]}},{"type":"Feature","properties":{"en":"Palm Desert","fr":"Palm Desert"},"geometry":{"type":"Point","coordinates":[-116.36944444444,33.725555555556]}},{"type":"Feature","properties":{"en":"Big Bear Lake","fr":"Big Bear Lake"},"geometry":{"type":"Point","coordinates":[-116.90333333333,34.241388888889]}},{"type":"Feature","properties":{"en":"Chico","fr":"Chico"},"geometry":{"type":"Point","coordinates":[-121.83555555556,39.74]}},{"type":"Feature","properties":{"en":"American Canyon","fr":"American Canyon"},"geometry":{"type":"Point","coordinates":[-122.2525,38.168055555556]}},{"type":"Feature","properties":{"en":"Berkeley","fr":"Berkeley"},"geometry":{"type":"Point","coordinates":[-122.26805555556,37.870277777778]}},{"type":"Feature","properties":{"en":"Pasadena","fr":"Pasadena"},"geometry":{"type":"Point","coordinates":[-118.143888888889,34.1475]}},{"type":"Feature","properties":{"en":"Glendale","fr":"Glendale"},"geometry":{"type":"Point","coordinates":[-118.25,34.170833333333]}},{"type":"Feature","properties":{"en":"San Bernardino","fr":"San Bernardino"},"geometry":{"type":"Point","coordinates":[-117.292222222222,34.1041666666667]}},{"type":"Feature","properties":{"en":"Mountain View","fr":"Mountain View"},"geometry":{"type":"Point","coordinates":[-122.04194444444,37.392777777778]}},{"type":"Feature","properties":{"en":"Pomona","fr":"Pomona"},"geometry":{"type":"Point","coordinates":[-117.75583333333,34.060833333333]}},{"type":"Feature","properties":{"en":"Compton","fr":"Compton"},"geometry":{"type":"Point","coordinates":[-118.225,33.896666666667]}},{"type":"Feature","properties":{"en":"Monterey","fr":"Monterey"},"geometry":{"type":"Point","coordinates":[-121.89468,36.60024]}},{"type":"Feature","properties":{"en":"Palm Springs","fr":"Palm Springs"},"geometry":{"type":"Point","coordinates":[-116.53027777778,33.823888888889]}},{"type":"Feature","properties":{"en":"Salinas","fr":"Salinas"},"geometry":{"type":"Point","coordinates":[-121.65555555556,36.677777777778]}},{"type":"Feature","properties":{"en":"Ontario","fr":"Ontario"},"geometry":{"type":"Point","coordinates":[-117.62777777778,34.052777777778]}},{"type":"Feature","properties":{"en":"Palmdale","fr":"Palmdale"},"geometry":{"type":"Point","coordinates":[-118.11646,34.57943]}},{"type":"Feature","properties":{"en":"Downey","fr":"Downey"},"geometry":{"type":"Point","coordinates":[-118.13083333333,33.938055555556]}},{"type":"Feature","properties":{"en":"Torrance","fr":"Torrance"},"geometry":{"type":"Point","coordinates":[-118.3406288,33.8358492]}},{"type":"Feature","properties":{"en":"Ventura","fr":"Ventura"},"geometry":{"type":"Point","coordinates":[-119.254206,34.26778]}},{"type":"Feature","properties":{"en":"Concord","fr":"Concord"},"geometry":{"type":"Point","coordinates":[-122.03111111111,37.978055555556]}},{"type":"Feature","properties":{"en":"Indian Wells","fr":"Indian Wells"},"geometry":{"type":"Point","coordinates":[-116.34111111111,33.715833333333]}},{"type":"Feature","properties":{"en":"Alameda","fr":"Alameda"},"geometry":{"type":"Point","coordinates":[-122.25694444444,37.763888888889]}},{"type":"Feature","properties":{"en":"Hayward","fr":"Hayward"},"geometry":{"type":"Point","coordinates":[-122.08083333333,37.668888888889]}},{"type":"Feature","properties":{"en":"Santa Clarita","fr":"Santa Clarita"},"geometry":{"type":"Point","coordinates":[-118.542586,34.3916641]}},{"type":"Feature","properties":{"en":"Roseville","fr":"Roseville"},"geometry":{"type":"Point","coordinates":[-121.28944444444,38.7525]}},{"type":"Feature","properties":{"en":"Walnut Creek","fr":"Walnut Creek"},"geometry":{"type":"Point","coordinates":[-122.064963,37.9063131]}},{"type":"Feature","properties":{"en":"Culver City","fr":"Culver City"},"geometry":{"type":"Point","coordinates":[-118.40138888889,34.008055555556]}},{"type":"Feature","properties":{"en":"Lancaster","fr":"Lancaster"},"geometry":{"type":"Point","coordinates":[-118.15416666667,34.686944444444]}},{"type":"Feature","properties":{"en":"Fullerton","fr":"Fullerton"},"geometry":{"type":"Point","coordinates":[-117.92861111111,33.88]}},{"type":"Feature","properties":{"en":"Victorville","fr":"Victorville"},"geometry":{"type":"Point","coordinates":[-117.28833333333,34.536111111111]}},{"type":"Feature","properties":{"en":"Antioch","fr":"Antioch"},"geometry":{"type":"Point","coordinates":[-121.80583333333,38.005]}},{"type":"Feature","properties":{"en":"Richmond","fr":"Richmond"},"geometry":{"type":"Point","coordinates":[-122.34777777778,37.935833333333]}},{"type":"Feature","properties":{"en":"Emeryville","fr":"Emeryville"},"geometry":{"type":"Point","coordinates":[-122.28527777778,37.831388888889]}},{"type":"Feature","properties":{"en":"Costa Mesa","fr":"Costa Mesa"},"geometry":{"type":"Point","coordinates":[-117.91,33.67]}},{"type":"Feature","properties":{"en":"Redwood City","fr":"Redwood City"},"geometry":{"type":"Point","coordinates":[-122.23611111111,37.482777777778]}},{"type":"Feature","properties":{"en":"Martinez","fr":"Martinez"},"geometry":{"type":"Point","coordinates":[-122.13416666667,38.019444444444]}},{"type":"Feature","properties":{"en":"Rancho Mirage","fr":"Rancho Mirage"},"geometry":{"type":"Point","coordinates":[-116.42111111111,33.769166666667]}},{"type":"Feature","properties":{"en":"Arcadia","fr":"Arcadia"},"geometry":{"type":"Point","coordinates":[-118.03638888889,34.132777777778]}},{"type":"Feature","properties":{"en":"Piedmont","fr":"Piedmont"},"geometry":{"type":"Point","coordinates":[-122.23166666667,37.824444444444]}},{"type":"Feature","properties":{"en":"Desert Hot Springs","fr":"Desert Hot Springs"},"geometry":{"type":"Point","coordinates":[-116.50805555556,33.961111111111]}},{"type":"Feature","properties":{"en":"Cerritos","fr":"Cerritos"},"geometry":{"type":"Point","coordinates":[-118.07,33.87]}},{"type":"Feature","properties":{"en":"Seal Beach","fr":"Seal Beach"},"geometry":{"type":"Point","coordinates":[-118.0825,33.759166666667]}},{"type":"Feature","properties":{"en":"San Ramon","fr":"San Ramon"},"geometry":{"type":"Point","coordinates":[-121.97805555556,37.78]}},{"type":"Feature","properties":{"en":"Morgan Hill","fr":"Morgan Hill"},"geometry":{"type":"Point","coordinates":[-121.65444444444,37.130555555556]}},{"type":"Feature","properties":{"en":"Inglewood","fr":"Inglewood"},"geometry":{"type":"Point","coordinates":[-118.34611111111,33.9575]}},{"type":"Feature","properties":{"en":"Pinole","fr":"Pinole"},"geometry":{"type":"Point","coordinates":[-122.29111111111,38.004444444444]}},{"type":"Feature","properties":{"en":"Albany","fr":"Albany"},"geometry":{"type":"Point","coordinates":[-122.29777777778,37.886944444444]}},{"type":"Feature","properties":{"en":"Cypress","fr":"Cypress"},"geometry":{"type":"Point","coordinates":[-118.03916666667,33.818333333333]}},{"type":"Feature","properties":{"en":"Petaluma","fr":"Petaluma"},"geometry":{"type":"Point","coordinates":[-122.63138888889,38.245833333333]}},{"type":"Feature","properties":{"en":"Alhambra","fr":"Alhambra"},"geometry":{"type":"Point","coordinates":[-118.135,34.081944444444]}},{"type":"Feature","properties":{"en":"Belmont","fr":"Belmont"},"geometry":{"type":"Point","coordinates":[-122.29166666667,37.518055555556]}},{"type":"Feature","properties":{"en":"Benicia","fr":"Benicia"},"geometry":{"type":"Point","coordinates":[-122.15611111111,38.063333333333]}},{"type":"Feature","properties":{"en":"Solvang","fr":"Solvang"},"geometry":{"type":"Point","coordinates":[-120.13972222222,34.593888888889]}},{"type":"Feature","properties":{"en":"Sausalito","fr":"Sausalito"},"geometry":{"type":"Point","coordinates":[-122.49027777778,37.857777777778]}},{"type":"Feature","properties":{"en":"Grass Valley","fr":"Grass Valley"},"geometry":{"type":"Point","coordinates":[-121.058333,39.219167]}},{"type":"Feature","properties":{"en":"Dublin","fr":"Dublin"},"geometry":{"type":"Point","coordinates":[-121.9125,37.714167]}},{"type":"Feature","properties":{"en":"Loma Linda","fr":"Loma Linda"},"geometry":{"type":"Point","coordinates":[-117.25055555556,34.048333333333]}},{"type":"Feature","properties":{"en":"Ojai","fr":"Ojai"},"geometry":{"type":"Point","coordinates":[-119.246578,34.448253]}},{"type":"Feature","properties":{"en":"Buena Park","fr":"Buena Park"},"geometry":{"type":"Point","coordinates":[-118.00416666667,33.856111111111]}},{"type":"Feature","properties":{"en":"Whittier","fr":"Whittier"},"geometry":{"type":"Point","coordinates":[-118.02444444444,33.965555555556]}},{"type":"Feature","properties":{"en":"Redondo Beach","fr":"Redondo Beach"},"geometry":{"type":"Point","coordinates":[-118.37694444444,33.856388888889]}},{"type":"Feature","properties":{"en":"Brentwood","fr":"Brentwood"},"geometry":{"type":"Point","coordinates":[-121.69583333333,37.931944444444]}},{"type":"Feature","properties":{"en":"Vacaville","fr":"Vacaville"},"geometry":{"type":"Point","coordinates":[-121.97277777778,38.353888888889]}},{"type":"Feature","properties":{"en":"San Leandro","fr":"San Leandro"},"geometry":{"type":"Point","coordinates":[-122.15611111111,37.725]}},{"type":"Feature","properties":{"en":"Los Altos","fr":"Los Altos"},"geometry":{"type":"Point","coordinates":[-122.098,37.3681]}},{"type":"Feature","properties":{"en":"Placentia","fr":"Placentia"},"geometry":{"type":"Point","coordinates":[-117.855,33.8825]}},{"type":"Feature","properties":{"en":"Temple City","fr":"Temple City"},"geometry":{"type":"Point","coordinates":[-118.05805555556,34.102777777778]}},{"type":"Feature","properties":{"en":"Commerce","fr":"Commerce"},"geometry":{"type":"Point","coordinates":[-118.15472222222,34.000555555556]}},{"type":"Feature","properties":{"en":"Brisbane","fr":"Brisbane"},"geometry":{"type":"Point","coordinates":[-122.41916666667,37.680833333333]}},{"type":"Feature","properties":{"en":"Pacifica","fr":"Pacifica"},"geometry":{"type":"Point","coordinates":[-122.48555555556,37.622777777778]}},{"type":"Feature","properties":{"en":"City of Industry","fr":"Industry"},"geometry":{"type":"Point","coordinates":[-117.95083333333,34.015833333333]}},{"type":"Feature","properties":{"en":"Saratoga","fr":"Saratoga"},"geometry":{"type":"Point","coordinates":[-122.01944444444,37.2725]}},{"type":"Feature","properties":{"en":"Milpitas","fr":"Milpitas"},"geometry":{"type":"Point","coordinates":[-121.895,37.434722222222]}},{"type":"Feature","properties":{"en":"Vernon","fr":"Vernon"},"geometry":{"type":"Point","coordinates":[-118.21111111111,34.001111111111]}},{"type":"Feature","properties":{"en":"Hercules","fr":"Hercules"},"geometry":{"type":"Point","coordinates":[-122.28861111111,38.017222222222]}},{"type":"Feature","properties":{"en":"Clayton","fr":"Clayton"},"geometry":{"type":"Point","coordinates":[-121.93583333333,37.941111111111]}},{"type":"Feature","properties":{"en":"Oakley","fr":"Oakley"},"geometry":{"type":"Point","coordinates":[-121.7125,37.9975]}},{"type":"Feature","properties":{"en":"Pleasant Hill","fr":"Pleasant Hill"},"geometry":{"type":"Point","coordinates":[-122.0525,37.948055555556]}},{"type":"Feature","properties":{"en":"Marysville","fr":"Marysville"},"geometry":{"type":"Point","coordinates":[-121.59138888889,39.145833333333]}},{"type":"Feature","properties":{"en":"Calistoga","fr":"Calistoga"},"geometry":{"type":"Point","coordinates":[-122.58277777778,38.581388888889]}},{"type":"Feature","properties":{"en":"Norco","fr":"Norco"},"geometry":{"type":"Point","coordinates":[-117.56138888889,33.927222222222]}},{"type":"Feature","properties":{"en":"La Quinta","fr":"La Quinta"},"geometry":{"type":"Point","coordinates":[-116.2975,33.675277777778]}},{"type":"Feature","properties":{"en":"Half Moon Bay","fr":"Half Moon Bay"},"geometry":{"type":"Point","coordinates":[-122.43694444444,37.458888888889]}},{"type":"Feature","properties":{"en":"Port Hueneme","fr":"Port Hueneme"},"geometry":{"type":"Point","coordinates":[-119.19444444444,34.160277777778]}},{"type":"Feature","properties":{"en":"San Pablo","fr":"San Pablo"},"geometry":{"type":"Point","coordinates":[-122.34555555556,37.962222222222]}},{"type":"Feature","properties":{"en":"Folsom","fr":"Folsom"},"geometry":{"type":"Point","coordinates":[-121.15777777778,38.672222222222]}},{"type":"Feature","properties":{"en":"Irwindale","fr":"Irwindale"},"geometry":{"type":"Point","coordinates":[-117.96444444444,34.1125]}},{"type":"Feature","properties":{"en":"Rio Vista","fr":"Rio Vista"},"geometry":{"type":"Point","coordinates":[-121.69583333333,38.163888888889]}},{"type":"Feature","properties":{"en":"Sebastopol","fr":"Sebastopol"},"geometry":{"type":"Point","coordinates":[-122.82694444444,38.399166666667]}},{"type":"Feature","properties":{"en":"Signal Hill","fr":"Signal Hill"},"geometry":{"type":"Point","coordinates":[-118.16558,33.79935]}},{"type":"Feature","properties":{"en":"Exeter","fr":"Exeter"},"geometry":{"type":"Point","coordinates":[-119.14277777778,36.294166666667]}},{"type":"Feature","properties":{"en":"Rohnert Park","fr":"Rohnert Park"},"geometry":{"type":"Point","coordinates":[-122.69527777778,38.347222222222]}},{"type":"Feature","properties":{"en":"Foster City","fr":"Foster City"},"geometry":{"type":"Point","coordinates":[-122.26638888889,37.551388888889]}},{"type":"Feature","properties":{"en":"East Palo Alto","fr":"East Palo Alto"},"geometry":{"type":"Point","coordinates":[-122.13,37.47]}},{"type":"Feature","properties":{"en":"Campbell","fr":""},"geometry":{"type":"Point","coordinates":[-121.955,37.283888888889]}},{"type":"Feature","properties":{"en":"El Cerrito","fr":"El Cerrito"},"geometry":{"type":"Point","coordinates":[-122.31166666667,37.915833333333]}},{"type":"Feature","properties":{"en":"Cotati","fr":"Cotati"},"geometry":{"type":"Point","coordinates":[-122.70916666667,38.327777777778]}},{"type":"Feature","properties":{"en":"Sand City","fr":"Sand City"},"geometry":{"type":"Point","coordinates":[-121.84833333333,36.617222222222]}}]}