{"type":"FeatureCollection","features":[{"type":"Feature","properties":{"en":"Astana","fr":"Astana"},"geometry":{"type":"Point","coordinates":[71.433333333333,51.133333333333]}},{"type":"Feature","properties":{"en":"East Kazakhstan Region","fr":"Kazakhstan-Oriental"},"geometry":{"type":"Point","coordinates":[82.616666666667,49.95]}},{"type":"Feature","properties":{"en":"Almaty Region","fr":"oblys d'Almaty"},"geometry":{"type":"Point","coordinates":[78.0,45.0]}},{"type":"Feature","properties":{"en":"Mangystau Region","fr":"Manguistaou"},"geometry":{"type":"Point","coordinates":[53.25,43.8]}},{"type":"Feature","properties":{"en":"Atyrau Region","fr":"Atyraou"},"geometry":{"type":"Point","coordinates":[51.988048,47.55577]}},{"type":"Feature","properties":{"en":"Akmola Region","fr":"Aqmola"},"geometry":{"type":"Point","coordinates":[69.0,52.0]}},{"type":"Feature","properties":{"en":"North Kazakhstan Region","fr":"Kazakhstan-Septentrional"},"geometry":{"type":"Point","coordinates":[69.166666666667,54.883333333333]}},{"type":"Feature","properties":{"en":"Kyzylorda Region","fr":"Kyzylorda"},"geometry":{"type":"Point","coordinates":[64.0,45.0]}},{"type":"Feature","properties":{"en":"Karaganda Region","fr":"Karaganda"},"geometry":{"type":"Point","coordinates":[71.0,48.0]}},{"type":"Feature","properties":{"en":"Aktobe Region","fr":"Aqtöbe"},"geometry":{"type":"Point","coordinates":[58.557129,48.632909]}},{"type":"Feature","properties":{"en":"Kostanay Region","fr":"Kostanaï"},"geometry":{"type":"Point","coordinates":[63.633333333333,53.2]}},{"type":"Feature","properties":{"en":"West Kazakhstan Region","fr":"Kazakhstan-Occidental"},"geometry":{"type":"Point","coordinates":[50.581055,49.79545]}},{"type":"Feature","properties":{"en":"Pavlodar Region","fr":"Pavlodar"},"geometry":{"type":"Point","coordinates":[76.95,52.3]}},{"type":"Feature","properties":{"en":"Jambyl Region","fr":"Djamboul"},"geometry":{"type":"Point","coordinates":[72.0,44.0]}},{"type":"Feature","properties":{"en":"Turkistan Region","fr":"Turkestan"},"geometry":{"type":"Point","coordinates":[68.5,43.0]}},{"type":"Feature","properties":{"en":"Talgar","fr":"Talgar"},"geometry":{"type":"Point","coordinates":[77.240833333333,43.303611111111]}},{"type":"Feature","properties":{"en":"Shu District","fr":"district de Chou"},"geometry":{"type":"Point","coordinates":[73.7611111111111,43.6755555555556]}},{"type":"Feature","properties":{"en":"Merki District","fr":"district de Merke"},"geometry":{"type":"Point","coordinates":[73.18,42.88]}},{"type":"Feature","properties":{"en":"Ulan District","fr":"district d'Ulan"},"geometry":{"type":"Point","coordinates":[82.4844,49.8769]}},{"type":"Feature","properties":{"en":"Kokpekti District","fr":"district de Kokpekti"},"geometry":{"type":"Point","coordinates":[82.38166667,48.7575]}},{"type":"Feature","properties":{"en":"Kurshim District","fr":"district de Kourchim"},"geometry":{"type":"Point","coordinates":[83.665,48.5675]}},{"type":"Feature","properties":{"en":"Korday District","fr":"district de Kordaï"},"geometry":{"type":"Point","coordinates":[75.07,43.33]}},{"type":"Feature","properties":{"en":"Zharma District","fr":"district de Jarma"},"geometry":{"type":"Point","coordinates":[81.25,48.83333]}},{"type":"Feature","properties":{"en":"Aksuat District","fr":"District d'Aksuat"},"geometry":{"type":"Point","coordinates":[82.5,47.833333333333]}},{"type":"Feature","properties":{"en":"Samar District","fr":"District de Samar"},"geometry":{"type":"Point","coordinates":[83.5,49.16667]}}]}