{"type":"FeatureCollection","features":[{"type":"Feature","properties":{"en":"Intibucá Department","fr":"Intibucá"},"geometry":{"type":"Point","coordinates":[-88.1767861111111,14.3081027777778]}},{"type":"Feature","properties":{"en":"Santa Bárbara Department","fr":"Santa Bárbara"},"geometry":{"type":"Point","coordinates":[-88.2364472222222,14.9216444444444]}},{"type":"Feature","properties":{"en":"Atlántida Department","fr":"Atlántida"},"geometry":{"type":"Point","coordinates":[-86.7917777777778,15.7833444444444]}},{"type":"Feature","properties":{"en":"Lempira Department","fr":"Lempira"},"geometry":{"type":"Point","coordinates":[-88.5805472222222,14.5888805555556]}},{"type":"Feature","properties":{"en":"Cortés Department","fr":"Cortés"},"geometry":{"type":"Point","coordinates":[-88.0250833333333,15.5053222222222]}},{"type":"Feature","properties":{"en":"Comayagua Department","fr":"Comayagua"},"geometry":{"type":"Point","coordinates":[-87.637925,14.4527666666667]}},{"type":"Feature","properties":{"en":"Copán Department","fr":"Copán"},"geometry":{"type":"Point","coordinates":[-88.7781,14.767525]}},{"type":"Feature","properties":{"en":"La Paz Department","fr":"La Paz"},"geometry":{"type":"Point","coordinates":[-87.6832027777778,14.3233583333333]}},{"type":"Feature","properties":{"en":"Ocotepeque Department","fr":"Ocotepeque"},"geometry":{"type":"Point","coordinates":[-89.1844833333333,14.4354833333333]}},{"type":"Feature","properties":{"en":"Olancho Department","fr":"Olancho"},"geometry":{"type":"Point","coordinates":[-86.2195833333333,14.6671722222222]}},{"type":"Feature","properties":{"en":"Valle Department","fr":"Valle"},"geometry":{"type":"Point","coordinates":[-87.4881416666667,13.5325194444444]}},{"type":"Feature","properties":{"en":"El Paraíso Department","fr":"El Paraíso"},"geometry":{"type":"Point","coordinates":[-86.85265,13.9443888888889]}},{"type":"Feature","properties":{"en":"Gracias a Dios Department","fr":"Gracias a Dios"},"geometry":{"type":"Point","coordinates":[-83.7725305555556,15.2664083333333]}},{"type":"Feature","properties":{"en":"Colón Department","fr":"Colón"},"geometry":{"type":"Point","coordinates":[-85.9529583333333,15.9179361111111]}},{"type":"Feature","properties":{"en":"Francisco Morazán Department","fr":"Francisco Morazán"},"geometry":{"type":"Point","coordinates":[-87.2047055555555,14.1057833333333]}},{"type":"Feature","properties":{"en":"Choluteca Department","fr":"Choluteca"},"geometry":{"type":"Point","coordinates":[-87.1955638888889,13.3061]}},{"type":"Feature","properties":{"en":"Yoro Department","fr":"Yoro"},"geometry":{"type":"Point","coordinates":[-87.12495,15.1379138888889]}},{"type":"Feature","properties":{"en":"San Marcos de Colón","fr":"San Marcos de Colón"},"geometry":{"type":"Point","coordinates":[-86.8079666666667,13.4310916666667]}}]}