{"type":"FeatureCollection","features":[{"type":"Feature","properties":{"en":"Granada Department","fr":"département de Granada"},"geometry":{"type":"Point","coordinates":[-85.9535916666667,11.93035]}},{"type":"Feature","properties":{"en":"Managua Department","fr":"département de Managua"},"geometry":{"type":"Point","coordinates":[-86.273725,12.1546805555556]}},{"type":"Feature","properties":{"en":"Boaco Department","fr":"Boaco"},"geometry":{"type":"Point","coordinates":[-85.6598194444444,12.4717722222222]}},{"type":"Feature","properties":{"en":"South Caribbean Coast Autonomous Region","fr":"région autonome de la Côte caraïbe Sud"},"geometry":{"type":"Point","coordinates":[-83.7649111111111,12.013125]}},{"type":"Feature","properties":{"en":"Carazo Department","fr":"département de Carazo"},"geometry":{"type":"Point","coordinates":[-86.19925,11.8478166666667]}},{"type":"Feature","properties":{"en":"Chontales Department","fr":"département de Chontales"},"geometry":{"type":"Point","coordinates":[-85.3689416666667,12.1085666666667]}},{"type":"Feature","properties":{"en":"North Caribbean Coast Autonomous Region","fr":"département de la région autonome de la Côte caraïbe Nord"},"geometry":{"type":"Point","coordinates":[-83.383125,14.0294138888889]}},{"type":"Feature","properties":{"en":"Masaya Department","fr":"Département de Masaya"},"geometry":{"type":"Point","coordinates":[-86.0960583333333,11.9736166666667]}},{"type":"Feature","properties":{"en":"León Department","fr":"département de León"},"geometry":{"type":"Point","coordinates":[-86.8788333333333,12.434825]}},{"type":"Feature","properties":{"en":"Chinandega Department","fr":"département de Chinandega"},"geometry":{"type":"Point","coordinates":[-87.1347388888889,12.6310527777778]}},{"type":"Feature","properties":{"en":"Estelí Department","fr":"Département d'Estelí"},"geometry":{"type":"Point","coordinates":[-86.3561583333333,13.0929305555556]}},{"type":"Feature","properties":{"en":"Nueva Segovia Department","fr":"Département de Nueva Segovia"},"geometry":{"type":"Point","coordinates":[-86.4744083333333,13.6319194444444]}},{"type":"Feature","properties":{"en":"Madriz Department","fr":"département de Madriz"},"geometry":{"type":"Point","coordinates":[-86.582625,13.4836805555556]}},{"type":"Feature","properties":{"en":"Matagalpa Department","fr":"Département de Matagalpa"},"geometry":{"type":"Point","coordinates":[-85.9184472222222,12.9283611111111]}},{"type":"Feature","properties":{"en":"Jinotega Department","fr":"département de Jinotega"},"geometry":{"type":"Point","coordinates":[-86.0031805555556,13.0919833333333]}},{"type":"Feature","properties":{"en":"Rivas Department","fr":"département de Rivas"},"geometry":{"type":"Point","coordinates":[-85.8287416666667,11.4389083333333]}},{"type":"Feature","properties":{"en":"Río San Juan Department","fr":"Département du Río San Juan"},"geometry":{"type":"Point","coordinates":[-84.7783444444444,11.1230388888889]}},{"type":"Feature","properties":{"en":"Estelí","fr":"Estelí"},"geometry":{"type":"Point","coordinates":[-86.3561583333333,13.0929305555556]}},{"type":"Feature","properties":{"en":"Somoto","fr":"Somoto"},"geometry":{"type":"Point","coordinates":[-86.582625,13.4836805555556]}}]}