{"type":"FeatureCollection","features":[{"type":"Feature","properties":{"en":"Ruchheim","fr":"Ruchheim"},"geometry":{"type":"Point","coordinates":[8.3333333333333,49.466666666667]}},{"type":"Feature","properties":{"en":"Delkenheim","fr":"Delkenheim"},"geometry":{"type":"Point","coordinates":[8.3611111111111,50.046944444444]}},{"type":"Feature","properties":{"en":"Mombach","fr":"Mainz-Mombach"},"geometry":{"type":"Point","coordinates":[8.22778,50.0194]}},{"type":"Feature","properties":{"en":"Mainz-Kostheim","fr":"Mainz-Kostheim"},"geometry":{"type":"Point","coordinates":[8.3055555555556,50.002777777778]}},{"type":"Feature","properties":{"en":"Neustadt","fr":"Neustadt"},"geometry":{"type":"Point","coordinates":[8.2583333333333,50.009722222222]}},{"type":"Feature","properties":{"en":"Mainz-Kastel","fr":"Cassel"},"geometry":{"type":"Point","coordinates":[8.2844444444444,50.009722222222]}},{"type":"Feature","properties":{"en":"Eschhofen","fr":"Eschhofen"},"geometry":{"type":"Point","coordinates":[8.1041666666667,50.391944444444]}},{"type":"Feature","properties":{"en":"Altstadt","fr":"Mainzer Altstadt"},"geometry":{"type":"Point","coordinates":[8.2694444444444,49.998611111111]}},{"type":"Feature","properties":{"en":"Drais","fr":"Mainz-Drais"},"geometry":{"type":"Point","coordinates":[8.19167,49.975]}},{"type":"Feature","properties":{"en":"Weisenau","fr":"Weisenau"},"geometry":{"type":"Point","coordinates":[8.30306,49.9828]}},{"type":"Feature","properties":{"en":"Gonsenheim","fr":"Mainz-Gonsenheim"},"geometry":{"type":"Point","coordinates":[8.20833,50.0014]}},{"type":"Feature","properties":{"en":"Gronau","fr":"Gronau"},"geometry":{"type":"Point","coordinates":[8.78056,50.1933]}},{"type":"Feature","properties":{"en":"Dietkirchen","fr":""},"geometry":{"type":"Point","coordinates":[8.09167,50.4028]}},{"type":"Feature","properties":{"en":"Dortelweil","fr":"Dortelweil"},"geometry":{"type":"Point","coordinates":[8.75472,50.2075]}},{"type":"Feature","properties":{"en":"Emmershausen","fr":""},"geometry":{"type":"Point","coordinates":[8.37683,50.3646]}},{"type":"Feature","properties":{"en":"Oberstadt","fr":""},"geometry":{"type":"Point","coordinates":[8.265,49.989722222222]}},{"type":"Feature","properties":{"en":"Hechtsheim","fr":"Hechtsheim"},"geometry":{"type":"Point","coordinates":[8.28028,49.9603]}},{"type":"Feature","properties":{"en":"Linter","fr":""},"geometry":{"type":"Point","coordinates":[8.0925,50.3694]}},{"type":"Feature","properties":{"en":"Finthen","fr":"Mainz-Finthen"},"geometry":{"type":"Point","coordinates":[8.175,49.9861]}},{"type":"Feature","properties":{"en":"Marienborn","fr":""},"geometry":{"type":"Point","coordinates":[8.22944,49.9608]}},{"type":"Feature","properties":{"en":"Ebersheim","fr":"Ebersheim"},"geometry":{"type":"Point","coordinates":[8.24583,49.9125]}},{"type":"Feature","properties":{"en":"Bretzenheim","fr":"Bretzenheim"},"geometry":{"type":"Point","coordinates":[8.24167,49.9806]}},{"type":"Feature","properties":{"en":"Lerchenberg","fr":""},"geometry":{"type":"Point","coordinates":[8.19306,49.9583]}},{"type":"Feature","properties":{"en":"Hartenberg-Münchfeld","fr":"Hartenberg-Münchfeld"},"geometry":{"type":"Point","coordinates":[8.23889,50.0]}},{"type":"Feature","properties":{"en":"Laubenheim","fr":"Laubenheim"},"geometry":{"type":"Point","coordinates":[8.31036,49.9614]}},{"type":"Feature","properties":{"en":"Oggersheim","fr":"Oggersheim"},"geometry":{"type":"Point","coordinates":[8.37472,49.4908]}},{"type":"Feature","properties":{"en":"Limburg (Innenstadt)","fr":"Limburg (Innenstadt)"},"geometry":{"type":"Point","coordinates":[8.0618381,50.3871793]}},{"type":"Feature","properties":{"en":"Bad Vilbel","fr":""},"geometry":{"type":"Point","coordinates":[8.7443915,50.1835727]}}]}