{"type":"FeatureCollection","features":[{"type":"Feature","properties":{"en":"Essling","fr":"Essling"},"geometry":{"type":"Point","coordinates":[16.5253,48.2144]}},{"type":"Feature","properties":{"en":"Grinzing","fr":"Grinzing"},"geometry":{"type":"Point","coordinates":[16.3428,48.2544]}},{"type":"Feature","properties":{"en":"Adneter Riedl","fr":"Adneter Riedl"},"geometry":{"type":"Point","coordinates":[13.1117,47.6931]}},{"type":"Feature","properties":{"en":"Bad Dürrnberg","fr":"Bad Dürrnberg"},"geometry":{"type":"Point","coordinates":[13.089722222222,47.665555555556]}},{"type":"Feature","properties":{"en":"Strebersdorf","fr":""},"geometry":{"type":"Point","coordinates":[16.3894,48.295]}},{"type":"Feature","properties":{"en":"Heiligenstadt","fr":"Heiligenstadt"},"geometry":{"type":"Point","coordinates":[16.3549,48.2538]}},{"type":"Feature","properties":{"en":"Atzgersdorf","fr":"Atzgersdorf"},"geometry":{"type":"Point","coordinates":[16.2964,48.1461]}},{"type":"Feature","properties":{"en":"Kaiserebersdorf","fr":"Kaiserebersdorf"},"geometry":{"type":"Point","coordinates":[16.4509,48.1547]}},{"type":"Feature","properties":{"en":"Breitenlee","fr":"Breitenlee"},"geometry":{"type":"Point","coordinates":[16.4976,48.2512]}},{"type":"Feature","properties":{"en":"Breitensee","fr":"Breitensee"},"geometry":{"type":"Point","coordinates":[16.3108,48.2017]}},{"type":"Feature","properties":{"en":"Hietzing","fr":"Hietzing"},"geometry":{"type":"Point","coordinates":[16.2986,48.1856]}},{"type":"Feature","properties":{"en":"Salmannsdorf","fr":""},"geometry":{"type":"Point","coordinates":[16.2911,48.2553]}},{"type":"Feature","properties":{"en":"Lainz","fr":"Lainz"},"geometry":{"type":"Point","coordinates":[16.2756,48.1733]}},{"type":"Feature","properties":{"en":"Josefsdorf","fr":"Josefsdorf"},"geometry":{"type":"Point","coordinates":[16.3372,48.2747]}},{"type":"Feature","properties":{"en":"Erlaa","fr":"Erlaa"},"geometry":{"type":"Point","coordinates":[16.3092,48.1483]}},{"type":"Feature","properties":{"en":"Nussdorf","fr":"Nussdorf"},"geometry":{"type":"Point","coordinates":[16.3647,48.2596]}},{"type":"Feature","properties":{"en":"Hütteldorf","fr":"Hütteldorf"},"geometry":{"type":"Point","coordinates":[16.2581,48.2017]}},{"type":"Feature","properties":{"en":"Leopoldau","fr":""},"geometry":{"type":"Point","coordinates":[16.4408,48.2633]}},{"type":"Feature","properties":{"en":"Ottakring","fr":""},"geometry":{"type":"Point","coordinates":[16.3261,48.2131]}},{"type":"Feature","properties":{"en":"Gersthof","fr":""},"geometry":{"type":"Point","coordinates":[16.3272,48.235]}},{"type":"Feature","properties":{"en":"Hacking","fr":"Hacking"},"geometry":{"type":"Point","coordinates":[16.260801,48.194996]}},{"type":"Feature","properties":{"en":"Rothneusiedl","fr":""},"geometry":{"type":"Point","coordinates":[16.3764,48.1344]}},{"type":"Feature","properties":{"en":"Hernals","fr":""},"geometry":{"type":"Point","coordinates":[16.3214,48.2217]}},{"type":"Feature","properties":{"en":"Ober Sankt Veit","fr":"Ober-Sankt-Veit"},"geometry":{"type":"Point","coordinates":[16.2664,48.1881]}},{"type":"Feature","properties":{"en":"Inzersdorf","fr":"Inzersdorf"},"geometry":{"type":"Point","coordinates":[16.3494,48.1426]}},{"type":"Feature","properties":{"en":"Kalksburg","fr":"Kalksburg"},"geometry":{"type":"Point","coordinates":[16.2467,48.14]}},{"type":"Feature","properties":{"en":"Speising","fr":""},"geometry":{"type":"Point","coordinates":[16.284,48.1681]}},{"type":"Feature","properties":{"en":"Kagran","fr":"Kagran"},"geometry":{"type":"Point","coordinates":[16.4483,48.2486]}},{"type":"Feature","properties":{"en":"Kahlenbergerdorf","fr":"Kahlenbergerdorf"},"geometry":{"type":"Point","coordinates":[16.355,48.2747]}},{"type":"Feature","properties":{"en":"Währing","fr":"Währing"},"geometry":{"type":"Point","coordinates":[16.3089,48.2317]}},{"type":"Feature","properties":{"en":"Neustift am Walde","fr":"Neustift am Walde"},"geometry":{"type":"Point","coordinates":[16.3014,48.251]}},{"type":"Feature","properties":{"en":"Oberlanzendorf","fr":""},"geometry":{"type":"Point","coordinates":[16.4364,48.1053]}},{"type":"Feature","properties":{"en":"Liesing","fr":"Liesing"},"geometry":{"type":"Point","coordinates":[16.2819,48.135]}},{"type":"Feature","properties":{"en":"Mauer","fr":"Mauer"},"geometry":{"type":"Point","coordinates":[16.268888888889,48.150555555556]}},{"type":"Feature","properties":{"en":"Neulerchenfeld","fr":"Neulerchenfeld"},"geometry":{"type":"Point","coordinates":[16.3335305555556,48.2113944444445]}},{"type":"Feature","properties":{"en":"Neuwaldegg","fr":"Neuwaldegg"},"geometry":{"type":"Point","coordinates":[16.2861,48.2378]}},{"type":"Feature","properties":{"en":"Oberdöbling","fr":"Oberdöbling"},"geometry":{"type":"Point","coordinates":[16.355,48.241111111111]}},{"type":"Feature","properties":{"en":"Penzing","fr":""},"geometry":{"type":"Point","coordinates":[16.3031,48.1903]}},{"type":"Feature","properties":{"en":"Pötzleinsdorf","fr":"Pötzleinsdorf"},"geometry":{"type":"Point","coordinates":[16.3106,48.2414]}},{"type":"Feature","properties":{"en":"Rodaun","fr":"Rodaun"},"geometry":{"type":"Point","coordinates":[16.2582368,48.1332259]}},{"type":"Feature","properties":{"en":"Siebenhirten","fr":"Siebenhirten"},"geometry":{"type":"Point","coordinates":[16.3133,48.1314]}},{"type":"Feature","properties":{"en":"Stammersdorf","fr":""},"geometry":{"type":"Point","coordinates":[16.4339,48.2964]}},{"type":"Feature","properties":{"en":"","fr":""},"geometry":{"type":"Point","coordinates":[12.2536,47.2383]}},{"type":"Feature","properties":{"en":"Süßenbrunn","fr":""},"geometry":{"type":"Point","coordinates":[16.4956,48.2775]}},{"type":"Feature","properties":{"en":"Unter Sankt Veit","fr":""},"geometry":{"type":"Point","coordinates":[16.2844,48.1869]}},{"type":"Feature","properties":{"en":"Unterdöbling","fr":"Unterdöbling"},"geometry":{"type":"Point","coordinates":[16.3513,48.2442]}},{"type":"Feature","properties":{"en":"Unterlaa","fr":""},"geometry":{"type":"Point","coordinates":[16.4097,48.1356]}},{"type":"Feature","properties":{"en":"Weinhaus","fr":""},"geometry":{"type":"Point","coordinates":[16.3308,48.2297]}},{"type":"Feature","properties":{"en":"Albern","fr":""},"geometry":{"type":"Point","coordinates":[16.487,48.1627]}},{"type":"Feature","properties":{"en":"Dornbach","fr":"Dornbach"},"geometry":{"type":"Point","coordinates":[16.3,48.2283]}},{"type":"Feature","properties":{"en":"","fr":""},"geometry":{"type":"Point","coordinates":[13.417427,47.949727]}},{"type":"Feature","properties":{"en":"Hernstein","fr":""},"geometry":{"type":"Point","coordinates":[16.08,47.91332]}},{"type":"Feature","properties":{"en":"Landjägermeisteramt","fr":""},"geometry":{"type":"Point","coordinates":[16.4884,48.1867]}},{"type":"Feature","properties":{"en":"Kaiserebersdorf Herrschaft","fr":""},"geometry":{"type":"Point","coordinates":[16.5204,48.1748]}},{"type":"Feature","properties":{"en":"Schwarze Lackenau","fr":""},"geometry":{"type":"Point","coordinates":[16.3774,48.2732]}},{"type":"Feature","properties":{"en":"Untersievering","fr":""},"geometry":{"type":"Point","coordinates":[16.3286,48.2483]}},{"type":"Feature","properties":{"en":"Obersievering","fr":""},"geometry":{"type":"Point","coordinates":[16.3167,48.2543]}},{"type":"Feature","properties":{"en":"Oberlaa Land","fr":""},"geometry":{"type":"Point","coordinates":[16.4,48.138]}},{"type":"Feature","properties":{"en":"Alsergrund","fr":"Alsergrund"},"geometry":{"type":"Point","coordinates":[16.357,48.2231]}},{"type":"Feature","properties":{"en":"Josefstadt","fr":"Josefstadt"},"geometry":{"type":"Point","coordinates":[16.3472,48.2111]}},{"type":"Feature","properties":{"en":"Neubau","fr":""},"geometry":{"type":"Point","coordinates":[16.3482,48.2028]}},{"type":"Feature","properties":{"en":"Mariahilf","fr":""},"geometry":{"type":"Point","coordinates":[16.3499,48.1939]}},{"type":"Feature","properties":{"en":"Margarethen","fr":""},"geometry":{"type":"Point","coordinates":[16.3556,48.1866]}},{"type":"Feature","properties":{"en":"Wieden","fr":""},"geometry":{"type":"Point","coordinates":[16.3704,48.1928]}},{"type":"Feature","properties":{"en":"Landstraße","fr":""},"geometry":{"type":"Point","coordinates":[16.3934,48.1952]}},{"type":"Feature","properties":{"en":"Leopoldstadt","fr":""},"geometry":{"type":"Point","coordinates":[16.4164,48.2045]}},{"type":"Feature","properties":{"en":"Innere Stadt","fr":""},"geometry":{"type":"Point","coordinates":[16.3697,48.2086]}},{"type":"Feature","properties":{"en":"Rustenfeld","fr":""},"geometry":{"type":"Point","coordinates":[16.394722222222,48.119722222222]}},{"type":"Feature","properties":{"en":"Steinhof","fr":""},"geometry":{"type":"Point","coordinates":[16.0833333333333,47.9333333333333]}},{"type":"Feature","properties":{"en":"Jassingau","fr":"Jassingau"},"geometry":{"type":"Point","coordinates":[14.794722,47.590833]}},{"type":"Feature","properties":{"en":"Grillenberg","fr":""},"geometry":{"type":"Point","coordinates":[16.0861111111111,47.9263888888889]}},{"type":"Feature","properties":{"en":"Veitsau","fr":""},"geometry":{"type":"Point","coordinates":[16.04459,47.93515]}},{"type":"Feature","properties":{"en":"","fr":""},"geometry":{"type":"Point","coordinates":[14.6844444444444,47.19]}},{"type":"Feature","properties":{"en":"Soboth","fr":""},"geometry":{"type":"Point","coordinates":[15.074444444444,46.681666666667]}},{"type":"Feature","properties":{"en":"Hieflau","fr":""},"geometry":{"type":"Point","coordinates":[14.745797,47.605928]}}]}