{"type":"FeatureCollection","features":[{"type":"Feature","properties":{"en":"Jokikylä","fr":""},"geometry":{"type":"Point","coordinates":[25.4683333333333,65.1902777777778]}},{"type":"Feature","properties":{"en":"Myllytulli","fr":"Myllytulli"},"geometry":{"type":"Point","coordinates":[25.483732,65.01705]}},{"type":"Feature","properties":{"en":"Raksila","fr":"Raksila"},"geometry":{"type":"Point","coordinates":[25.497594444444,65.008002777778]}},{"type":"Feature","properties":{"en":"Intiö","fr":"Intiö"},"geometry":{"type":"Point","coordinates":[25.50004,65.01618]}},{"type":"Feature","properties":{"en":"Pokkinen","fr":"Pokkinen"},"geometry":{"type":"Point","coordinates":[25.47138889,65.01305556]}},{"type":"Feature","properties":{"en":"Vanhatulli","fr":"Vanhatulli"},"geometry":{"type":"Point","coordinates":[25.469444444444,65.008333333333]}},{"type":"Feature","properties":{"en":"Linnanmaa","fr":"Linnanmaa"},"geometry":{"type":"Point","coordinates":[25.466111,65.059167]}},{"type":"Feature","properties":{"en":"Kontinkangas","fr":"Kontinkangas"},"geometry":{"type":"Point","coordinates":[25.521666666667,65.006111111111]}},{"type":"Feature","properties":{"en":"Sanginsuu","fr":"Sanginsuu"},"geometry":{"type":"Point","coordinates":[25.6857511,64.9638193]}},{"type":"Feature","properties":{"en":"Limingantulli","fr":"Limingantulli"},"geometry":{"type":"Point","coordinates":[25.4551414,64.9971864]}},{"type":"Feature","properties":{"en":"Liikanen","fr":""},"geometry":{"type":"Point","coordinates":[25.51837,65.06276]}},{"type":"Feature","properties":{"en":"Vesala","fr":""},"geometry":{"type":"Point","coordinates":[26.03389,65.03466]}},{"type":"Feature","properties":{"en":"Lapinkangas","fr":""},"geometry":{"type":"Point","coordinates":[25.78966,64.92987]}},{"type":"Feature","properties":{"en":"Heikkilänkangas","fr":""},"geometry":{"type":"Point","coordinates":[25.61424,64.96861]}},{"type":"Feature","properties":{"en":"Herukka","fr":""},"geometry":{"type":"Point","coordinates":[25.40929,65.09467]}},{"type":"Feature","properties":{"en":"Taskila","fr":""},"geometry":{"type":"Point","coordinates":[25.43074,65.05272]}},{"type":"Feature","properties":{"en":"Myllyoja","fr":"Myllyoja"},"geometry":{"type":"Point","coordinates":[25.545,65.0198]}},{"type":"Feature","properties":{"en":"Alakylä","fr":""},"geometry":{"type":"Point","coordinates":[25.6375,65.148610833333]}},{"type":"Feature","properties":{"en":"Alppila","fr":""},"geometry":{"type":"Point","coordinates":[25.45483,65.0376]}},{"type":"Feature","properties":{"en":"Haapalehto","fr":""},"geometry":{"type":"Point","coordinates":[25.55565,65.02551]}},{"type":"Feature","properties":{"en":"Hangaskangas","fr":""},"geometry":{"type":"Point","coordinates":[25.7388763,64.9085948]}},{"type":"Feature","properties":{"en":"Hannus","fr":""},"geometry":{"type":"Point","coordinates":[25.96817,65.15944]}},{"type":"Feature","properties":{"en":"Haukkasuo","fr":""},"geometry":{"type":"Point","coordinates":[25.6124189,65.0223482]}},{"type":"Feature","properties":{"en":"Hietasaari","fr":"Hietasaari"},"geometry":{"type":"Point","coordinates":[25.4252777777778,65.0261111111111]}},{"type":"Feature","properties":{"en":"Hiukkavaara","fr":"Hiukkavaara"},"geometry":{"type":"Point","coordinates":[25.595,65.0117]}},{"type":"Feature","properties":{"en":"Huttukylä","fr":""},"geometry":{"type":"Point","coordinates":[25.866666944444,65.083333055556]}},{"type":"Feature","properties":{"en":"Iinatti","fr":""},"geometry":{"type":"Point","coordinates":[25.58162,64.97253]}},{"type":"Feature","properties":{"en":"Isko","fr":""},"geometry":{"type":"Point","coordinates":[25.47228,65.04294]}},{"type":"Feature","properties":{"en":"Juurusoja","fr":""},"geometry":{"type":"Point","coordinates":[25.6404043,64.9486954]}},{"type":"Feature","properties":{"en":"Kaijonharju","fr":"Kaijonharju"},"geometry":{"type":"Point","coordinates":[25.4785387,65.0611262]}},{"type":"Feature","properties":{"en":"Kalimenkylä","fr":""},"geometry":{"type":"Point","coordinates":[25.48057,65.10471]}},{"type":"Feature","properties":{"en":"Karjasilta","fr":"Karjasilta"},"geometry":{"type":"Point","coordinates":[25.493888888889,65.001666666667]}},{"type":"Feature","properties":{"en":"Kello","fr":"Kello"},"geometry":{"type":"Point","coordinates":[25.356944444444,65.127777777778]}},{"type":"Feature","properties":{"en":"Kirkkokangas","fr":"Kirkkokangas"},"geometry":{"type":"Point","coordinates":[25.5615951,65.0093978]}},{"type":"Feature","properties":{"en":"Kivikkokangas","fr":""},"geometry":{"type":"Point","coordinates":[25.61024,64.99908]}},{"type":"Feature","properties":{"en":"Korvenkylä","fr":"Korvenkylä"},"geometry":{"type":"Point","coordinates":[25.6283711,65.058024]}},{"type":"Feature","properties":{"en":"Koskela","fr":"Koskela"},"geometry":{"type":"Point","coordinates":[25.4493,65.0475]}},{"type":"Feature","properties":{"en":"Kylänpuoli","fr":""},"geometry":{"type":"Point","coordinates":[25.39176,64.91905]}},{"type":"Feature","properties":{"en":"Kynsilehto","fr":""},"geometry":{"type":"Point","coordinates":[25.5391888888889,65.0303805555556]}},{"type":"Feature","properties":{"en":"Laanila","fr":""},"geometry":{"type":"Point","coordinates":[25.50042,65.02536]}},{"type":"Feature","properties":{"en":"Lintula","fr":""},"geometry":{"type":"Point","coordinates":[25.496666666667,64.988055555556]}},{"type":"Feature","properties":{"en":"Metsokangas","fr":""},"geometry":{"type":"Point","coordinates":[25.54656,64.94596]}},{"type":"Feature","properties":{"en":"Mäntylä","fr":"Mäntylä"},"geometry":{"type":"Point","coordinates":[25.496666666667,64.981944444444]}},{"type":"Feature","properties":{"en":"Nokela","fr":""},"geometry":{"type":"Point","coordinates":[25.485277777778,64.9925]}},{"type":"Feature","properties":{"en":"Nuoritta","fr":""},"geometry":{"type":"Point","coordinates":[26.45714,65.09276]}},{"type":"Feature","properties":{"en":"Nuottasaari","fr":"Nuottasaari"},"geometry":{"type":"Point","coordinates":[25.4374193,64.9965342]}},{"type":"Feature","properties":{"en":"Oulunsalo","fr":"Oulunsalo (quartier)"},"geometry":{"type":"Point","coordinates":[25.4166674,64.9333388]}},{"type":"Feature","properties":{"en":"Oulunsuu","fr":"Oulunsuu (quartier)"},"geometry":{"type":"Point","coordinates":[25.549722222222,65.003611111111]}},{"type":"Feature","properties":{"en":"Pahkala","fr":"Pahkala"},"geometry":{"type":"Point","coordinates":[25.98805,65.35866]}},{"type":"Feature","properties":{"en":"Parkkisenkangas","fr":""},"geometry":{"type":"Point","coordinates":[25.53495,65.0212]}},{"type":"Feature","properties":{"en":"Pateniemi","fr":"Pateniemi"},"geometry":{"type":"Point","coordinates":[25.4084411,65.0797086]}},{"type":"Feature","properties":{"en":"Peltola","fr":"Peltola"},"geometry":{"type":"Point","coordinates":[25.509716666667,65.013516666667]}},{"type":"Feature","properties":{"en":"Pikkarala","fr":""},"geometry":{"type":"Point","coordinates":[25.742417,64.916194]}},{"type":"Feature","properties":{"en":"Puolivälinkangas","fr":"Puolivälinkangas"},"geometry":{"type":"Point","coordinates":[25.4864118,65.0429482]}},{"type":"Feature","properties":{"en":"Pyykösjärvi","fr":"Pyykösjärvi"},"geometry":{"type":"Point","coordinates":[25.49916667,65.045]}},{"type":"Feature","properties":{"en":"Saarela","fr":""},"geometry":{"type":"Point","coordinates":[25.58949,64.99531]}},{"type":"Feature","properties":{"en":"Salonpää","fr":""},"geometry":{"type":"Point","coordinates":[25.24112,64.96345]}},{"type":"Feature","properties":{"en":"Takalaanila","fr":""},"geometry":{"type":"Point","coordinates":[25.52129,65.04162]}},{"type":"Feature","properties":{"en":"Talvikangas","fr":""},"geometry":{"type":"Point","coordinates":[25.59695,65.042]}},{"type":"Feature","properties":{"en":"Tannila","fr":""},"geometry":{"type":"Point","coordinates":[25.97467,65.48564]}},{"type":"Feature","properties":{"en":"Toppila","fr":"Toppila"},"geometry":{"type":"Point","coordinates":[25.4360905,65.041678]}},{"type":"Feature","properties":{"en":"Toppilansaari","fr":"Toppilansaari"},"geometry":{"type":"Point","coordinates":[25.423,65.03245]}},{"type":"Feature","properties":{"en":"Tuira","fr":"Tuira"},"geometry":{"type":"Point","coordinates":[25.471,65.026]}},{"type":"Feature","properties":{"en":"Vepsä","fr":""},"geometry":{"type":"Point","coordinates":[26.29445,64.95552]}},{"type":"Feature","properties":{"en":"Vihreäsaari","fr":"Vihreäsaari"},"geometry":{"type":"Point","coordinates":[25.411,65.008]}},{"type":"Feature","properties":{"en":"Välikylä","fr":""},"geometry":{"type":"Point","coordinates":[25.65907,65.07235]}},{"type":"Feature","properties":{"en":"Värttö","fr":"Värttö"},"geometry":{"type":"Point","coordinates":[25.518333333333,65.018333333333]}},{"type":"Feature","properties":{"en":"Ylikiiminki","fr":"Ylikiiminki (quartier)"},"geometry":{"type":"Point","coordinates":[26.15,65.033333]}},{"type":"Feature","properties":{"en":"Äimärautio","fr":"Äimärautio"},"geometry":{"type":"Point","coordinates":[25.45937,64.98739]}},{"type":"Feature","properties":{"en":"Ritaharju","fr":""},"geometry":{"type":"Point","coordinates":[25.45475,65.0789694444444]}},{"type":"Feature","properties":{"en":"Vaara","fr":"Vaara"},"geometry":{"type":"Point","coordinates":[25.4828,65.0105]}},{"type":"Feature","properties":{"en":"Pikisaari","fr":"Pikisaari"},"geometry":{"type":"Point","coordinates":[25.4564629,65.0176713]}},{"type":"Feature","properties":{"en":"Koskikeskus","fr":"Koskikeskus"},"geometry":{"type":"Point","coordinates":[25.4666666666667,65.0205555555556]}},{"type":"Feature","properties":{"en":"Hollihaka","fr":"Hollihaka"},"geometry":{"type":"Point","coordinates":[25.454166666667,65.006111111111]}},{"type":"Feature","properties":{"en":"Välivainio","fr":""},"geometry":{"type":"Point","coordinates":[25.47783,65.03289]}},{"type":"Feature","properties":{"en":"Perävainio","fr":""},"geometry":{"type":"Point","coordinates":[25.50846,64.9467]}},{"type":"Feature","properties":{"en":"Yli-Ii","fr":"Yli-Ii (quartier)"},"geometry":{"type":"Point","coordinates":[25.84008,65.37217]}},{"type":"Feature","properties":{"en":"Haukipudas","fr":"Haukipudas (quartier)"},"geometry":{"type":"Point","coordinates":[25.353055555556,65.176388888889]}},{"type":"Feature","properties":{"en":"Kiiminki","fr":"Kiiminki (quartier)"},"geometry":{"type":"Point","coordinates":[25.775555555556,65.128888888889]}},{"type":"Feature","properties":{"en":"Vuotto","fr":""},"geometry":{"type":"Point","coordinates":[26.54269,64.94622]}},{"type":"Feature","properties":{"en":"Heikinharju","fr":""},"geometry":{"type":"Point","coordinates":[25.60194,65.05944]}},{"type":"Feature","properties":{"en":"Höyhtyä","fr":""},"geometry":{"type":"Point","coordinates":[25.496944444444,64.994444444444]}},{"type":"Feature","properties":{"en":"Jolos","fr":""},"geometry":{"type":"Point","coordinates":[26.16832,65.13512]}},{"type":"Feature","properties":{"en":"Kaakkuri","fr":"Kaakkuri"},"geometry":{"type":"Point","coordinates":[25.541666666667,64.968611111111]}},{"type":"Feature","properties":{"en":"Kaukovainio","fr":"Kaukovainio"},"geometry":{"type":"Point","coordinates":[25.5146508,64.992202]}},{"type":"Feature","properties":{"en":"Kiviniemi","fr":""},"geometry":{"type":"Point","coordinates":[25.5,64.966666666667]}},{"type":"Feature","properties":{"en":"Korvensuora","fr":""},"geometry":{"type":"Point","coordinates":[25.57546,65.03747]}},{"type":"Feature","properties":{"en":"Kuivasjärvi","fr":""},"geometry":{"type":"Point","coordinates":[25.5,65.07]}},{"type":"Feature","properties":{"en":"Leveri","fr":"Leveri"},"geometry":{"type":"Point","coordinates":[25.465,65.004722222222]}},{"type":"Feature","properties":{"en":"Madekoski","fr":"Madekoski"},"geometry":{"type":"Point","coordinates":[25.66551,64.95454]}},{"type":"Feature","properties":{"en":"Rajakylä","fr":""},"geometry":{"type":"Point","coordinates":[25.42245,65.06741]}},{"type":"Feature","properties":{"en":"Hiironen","fr":""},"geometry":{"type":"Point","coordinates":[25.52245,64.98416]}},{"type":"Feature","properties":{"en":"Hintta","fr":""},"geometry":{"type":"Point","coordinates":[25.52417,65.0253]}},{"type":"Feature","properties":{"en":"Knuutila","fr":""},"geometry":{"type":"Point","coordinates":[25.55665,64.9921]}},{"type":"Feature","properties":{"en":"Maikkula","fr":"Maikkula"},"geometry":{"type":"Point","coordinates":[25.5721725,64.9823996]}},{"type":"Feature","properties":{"en":"Martinniemi","fr":""},"geometry":{"type":"Point","coordinates":[25.309722222222,65.2125]}},{"type":"Feature","properties":{"en":"Niiles","fr":""},"geometry":{"type":"Point","coordinates":[25.65645,65.01448]}},{"type":"Feature","properties":{"en":"Rusko","fr":""},"geometry":{"type":"Point","coordinates":[25.53973,65.05231]}},{"type":"Feature","properties":{"en":"Ruskonselkä","fr":""},"geometry":{"type":"Point","coordinates":[25.57602,65.04864]}},{"type":"Feature","properties":{"en":"Saviharju","fr":""},"geometry":{"type":"Point","coordinates":[25.69782,65.04108]}},{"type":"Feature","properties":{"en":"Ulkosanki","fr":""},"geometry":{"type":"Point","coordinates":[25.75283,65.00325]}},{"type":"Feature","properties":{"en":"Vanha Hiukkavaara","fr":""},"geometry":{"type":"Point","coordinates":[25.57582,65.01619]}},{"type":"Feature","properties":{"en":"Jääli","fr":"district de Jääli"},"geometry":{"type":"Point","coordinates":[25.69027778,65.09166667]}}]}