{"type":"FeatureCollection","features":[{"type":"Feature","properties":{"en":"Scania","fr":"Scanie"},"geometry":{"type":"Point","coordinates":[13.61666667,55.8]}},{"type":"Feature","properties":{"en":"Gästrikland","fr":"Gästrikland"},"geometry":{"type":"Point","coordinates":[16.793,60.557]}},{"type":"Feature","properties":{"en":"Småland","fr":"Småland"},"geometry":{"type":"Point","coordinates":[14.8980555555556,57.1011111111111]}},{"type":"Feature","properties":{"en":"Uppland","fr":"Uppland"},"geometry":{"type":"Point","coordinates":[18.0,60.0]}},{"type":"Feature","properties":{"en":"Dalarna","fr":"Dalécarlie"},"geometry":{"type":"Point","coordinates":[14.733333333333,60.866666666667]}},{"type":"Feature","properties":{"en":"Hälsingland","fr":"Hälsingland"},"geometry":{"type":"Point","coordinates":[16.507,61.512]}},{"type":"Feature","properties":{"en":"Härjedalen","fr":"Härjedalen"},"geometry":{"type":"Point","coordinates":[13.95,62.25]}},{"type":"Feature","properties":{"en":"Bohuslän","fr":"Bohuslän"},"geometry":{"type":"Point","coordinates":[11.887,58.248]}},{"type":"Feature","properties":{"en":"Ångermanland","fr":"Ångermanland"},"geometry":{"type":"Point","coordinates":[17.238,63.154]}},{"type":"Feature","properties":{"en":"Medelpad","fr":"Medelpad"},"geometry":{"type":"Point","coordinates":[16.25,62.6]}},{"type":"Feature","properties":{"en":"Värmland","fr":"Värmland"},"geometry":{"type":"Point","coordinates":[13.25,59.75]}},{"type":"Feature","properties":{"en":"Norrbotten","fr":"Norrbotten"},"geometry":{"type":"Point","coordinates":[23.0,66.0]}},{"type":"Feature","properties":{"en":"Västerbotten","fr":"Västerbotten"},"geometry":{"type":"Point","coordinates":[20.25,64.25]}},{"type":"Feature","properties":{"en":"Jämtland","fr":"Jämtland"},"geometry":{"type":"Point","coordinates":[14.5,63.5]}},{"type":"Feature","properties":{"en":"Lapland","fr":"Laponie"},"geometry":{"type":"Point","coordinates":[16.743,65.929]}},{"type":"Feature","properties":{"en":"Västergötland","fr":"Västergötland"},"geometry":{"type":"Point","coordinates":[12.7,57.728]}},{"type":"Feature","properties":{"en":"Dalsland","fr":"Dalsland"},"geometry":{"type":"Point","coordinates":[12.161111,58.851944]}},{"type":"Feature","properties":{"en":"Östergötland","fr":"Östergötland"},"geometry":{"type":"Point","coordinates":[15.6252777777778,58.4158333333333]}},{"type":"Feature","properties":{"en":"Närke","fr":"Närke"},"geometry":{"type":"Point","coordinates":[15.271,59.243]}},{"type":"Feature","properties":{"en":"Västmanland","fr":"Västmanland"},"geometry":{"type":"Point","coordinates":[16.333333333333,59.75]}},{"type":"Feature","properties":{"en":"Halland","fr":"Halland"},"geometry":{"type":"Point","coordinates":[13.0,56.75]}},{"type":"Feature","properties":{"en":"Södermanland","fr":"Södermanland"},"geometry":{"type":"Point","coordinates":[17.0,59.0]}},{"type":"Feature","properties":{"en":"Blekinge","fr":"Blekinge"},"geometry":{"type":"Point","coordinates":[15.333333333333,56.333333333333]}},{"type":"Feature","properties":{"en":"Öland","fr":""},"geometry":{"type":"Point","coordinates":[16.666666666667,56.733333333333]}}]}