{"type":"FeatureCollection","features":[{"type":"Feature","properties":{"en":"Montague","fr":"Montague"},"geometry":{"type":"Point","coordinates":[-72.53555556,42.53555556]}},{"type":"Feature","properties":{"en":"Springfield","fr":"Springfield"},"geometry":{"type":"Point","coordinates":[-72.483333333333,43.297222222222]}},{"type":"Feature","properties":{"en":"West Hartford","fr":"West Hartford"},"geometry":{"type":"Point","coordinates":[-72.753888888889,41.767777777778]}},{"type":"Feature","properties":{"en":"Brookline","fr":"Brookline"},"geometry":{"type":"Point","coordinates":[-71.121666666667,42.331666666667]}},{"type":"Feature","properties":{"en":"Provincetown","fr":"Provincetown"},"geometry":{"type":"Point","coordinates":[-70.179166666667,42.058333333333]}},{"type":"Feature","properties":{"en":"Amherst","fr":"Amherst"},"geometry":{"type":"Point","coordinates":[-72.516667,42.366667]}},{"type":"Feature","properties":{"en":"Greenwich","fr":"Greenwich"},"geometry":{"type":"Point","coordinates":[-73.62846,41.02649]}},{"type":"Feature","properties":{"en":"Darien","fr":"Darien"},"geometry":{"type":"Point","coordinates":[-73.46929,41.07871]}},{"type":"Feature","properties":{"en":"Addison","fr":"Addison"},"geometry":{"type":"Point","coordinates":[-73.345008,44.0714243]}},{"type":"Feature","properties":{"en":"Warwick","fr":"Warwick"},"geometry":{"type":"Point","coordinates":[-72.339444444444,42.681944444444]}},{"type":"Feature","properties":{"en":"Natick","fr":"Natick"},"geometry":{"type":"Point","coordinates":[-71.35,42.283333333333]}},{"type":"Feature","properties":{"en":"Deerfield","fr":"Deerfield"},"geometry":{"type":"Point","coordinates":[-72.6044444444444,42.545]}},{"type":"Feature","properties":{"en":"Goshen","fr":"Goshen"},"geometry":{"type":"Point","coordinates":[-72.8,42.440277777778]}},{"type":"Feature","properties":{"en":"Billerica","fr":"Billerica"},"geometry":{"type":"Point","coordinates":[-71.269444444444,42.558333333333]}},{"type":"Feature","properties":{"en":"Millbury","fr":"Millbury"},"geometry":{"type":"Point","coordinates":[-71.760555555556,42.193888888889]}},{"type":"Feature","properties":{"en":"Poultney","fr":"Poultney"},"geometry":{"type":"Point","coordinates":[-73.2372,43.5169]}},{"type":"Feature","properties":{"en":"Fair Haven","fr":"Fair Haven"},"geometry":{"type":"Point","coordinates":[-73.268333333333,43.618888888889]}},{"type":"Feature","properties":{"en":"Brunswick","fr":"Brunswick"},"geometry":{"type":"Point","coordinates":[-69.963055555556,43.910833333333]}},{"type":"Feature","properties":{"en":"Concord","fr":"Concord"},"geometry":{"type":"Point","coordinates":[-71.349444444444,42.460277777778]}},{"type":"Feature","properties":{"en":"Proctor","fr":"Proctor"},"geometry":{"type":"Point","coordinates":[-73.036666666667,43.658888888889]}},{"type":"Feature","properties":{"en":"Westport","fr":"Westport"},"geometry":{"type":"Point","coordinates":[-73.3578955,41.1414855]}},{"type":"Feature","properties":{"en":"Norton","fr":"Norton"},"geometry":{"type":"Point","coordinates":[-71.8165004,44.9791031]}},{"type":"Feature","properties":{"en":"Manchester","fr":"Manchester"},"geometry":{"type":"Point","coordinates":[-69.8761,44.3139]}},{"type":"Feature","properties":{"en":"Sudbury","fr":"Sudbury"},"geometry":{"type":"Point","coordinates":[-71.416666666667,42.383333333333]}},{"type":"Feature","properties":{"en":"Hampden","fr":"Hampden"},"geometry":{"type":"Point","coordinates":[-72.413888888889,42.063888888889]}},{"type":"Feature","properties":{"en":"Mount Washington","fr":"Mount Washington"},"geometry":{"type":"Point","coordinates":[-73.4661111111111,42.0938888888889]}},{"type":"Feature","properties":{"en":"Cheshire","fr":"Cheshire"},"geometry":{"type":"Point","coordinates":[-73.163333333333,42.561944444444]}},{"type":"Feature","properties":{"en":"Mashpee","fr":"Mashpee"},"geometry":{"type":"Point","coordinates":[-70.481666666667,41.648333333333]}},{"type":"Feature","properties":{"en":"Peru","fr":"Peru"},"geometry":{"type":"Point","coordinates":[-73.046388888889,42.438055555556]}},{"type":"Feature","properties":{"en":"Northfield","fr":"Northfield"},"geometry":{"type":"Point","coordinates":[-72.453333333333,42.695833333333]}},{"type":"Feature","properties":{"en":"Bedford","fr":"Bedford"},"geometry":{"type":"Point","coordinates":[-71.276666666667,42.490555555556]}},{"type":"Feature","properties":{"en":"Ashburnham","fr":"Ashburnham"},"geometry":{"type":"Point","coordinates":[-71.908333333333,42.636111111111]}},{"type":"Feature","properties":{"en":"Milton","fr":"Milton"},"geometry":{"type":"Point","coordinates":[-71.066666666667,42.25]}},{"type":"Feature","properties":{"en":"Auburn","fr":"Auburn"},"geometry":{"type":"Point","coordinates":[-71.348333333333,43.004444444444]}},{"type":"Feature","properties":{"en":"Fairfield","fr":"Fairfield"},"geometry":{"type":"Point","coordinates":[-73.271944444444,41.175833333333]}},{"type":"Feature","properties":{"en":"Orange","fr":"Orange"},"geometry":{"type":"Point","coordinates":[-73.025277777778,41.279444444444]}},{"type":"Feature","properties":{"en":"New Canaan","fr":"New Canaan"},"geometry":{"type":"Point","coordinates":[-73.4949,41.1468]}},{"type":"Feature","properties":{"en":"Stratford","fr":"Stratford"},"geometry":{"type":"Point","coordinates":[-73.13317,41.18454]}},{"type":"Feature","properties":{"en":"Wilbraham","fr":"Wilbraham"},"geometry":{"type":"Point","coordinates":[-72.431944444444,42.123611111111]}},{"type":"Feature","properties":{"en":"Cummington","fr":"Cummington"},"geometry":{"type":"Point","coordinates":[-72.894444444444,42.461666666667]}},{"type":"Feature","properties":{"en":"Monroe","fr":"Monroe"},"geometry":{"type":"Point","coordinates":[-72.941388888889,42.721944444444]}},{"type":"Feature","properties":{"en":"New Milford","fr":"New Milford"},"geometry":{"type":"Point","coordinates":[-73.4,41.583333333333]}},{"type":"Feature","properties":{"en":"Hopkinton","fr":"Hopkinton"},"geometry":{"type":"Point","coordinates":[-71.675277777778,43.191388888889]}},{"type":"Feature","properties":{"en":"East Greenwich","fr":"East Greenwich"},"geometry":{"type":"Point","coordinates":[-71.483333333333,41.65]}},{"type":"Feature","properties":{"en":"Hopkinton","fr":"Hopkinton"},"geometry":{"type":"Point","coordinates":[-71.523055555556,42.228611111111]}},{"type":"Feature","properties":{"en":"Coventry","fr":"Coventry"},"geometry":{"type":"Point","coordinates":[-71.595833333333,41.693888888889]}},{"type":"Feature","properties":{"en":"Burrillville","fr":"Burrillville"},"geometry":{"type":"Point","coordinates":[-71.683055555556,41.968333333333]}},{"type":"Feature","properties":{"en":"Grafton","fr":"Grafton"},"geometry":{"type":"Point","coordinates":[-71.686111111111,42.206944444444]}},{"type":"Feature","properties":{"en":"Exeter","fr":"Exeter"},"geometry":{"type":"Point","coordinates":[-71.5375,41.5775]}},{"type":"Feature","properties":{"en":"Westerly","fr":"Westerly"},"geometry":{"type":"Point","coordinates":[-71.827222222222,41.3775]}},{"type":"Feature","properties":{"en":"Castleton","fr":"Castleton"},"geometry":{"type":"Point","coordinates":[-73.193333333333,43.625555555556]}},{"type":"Feature","properties":{"en":"Florida","fr":"Florida"},"geometry":{"type":"Point","coordinates":[-73.0144875,42.6803465]}},{"type":"Feature","properties":{"en":"Cumberland","fr":"Cumberland"},"geometry":{"type":"Point","coordinates":[-71.432777777778,41.966666666667]}},{"type":"Feature","properties":{"en":"Great Barrington","fr":"Great Barrington"},"geometry":{"type":"Point","coordinates":[-73.3625,42.1958]}},{"type":"Feature","properties":{"en":"Erving","fr":"Erving"},"geometry":{"type":"Point","coordinates":[-72.398611111111,42.6]}},{"type":"Feature","properties":{"en":"Hopkinton","fr":"Hopkinton"},"geometry":{"type":"Point","coordinates":[-71.7775,41.461111111111]}},{"type":"Feature","properties":{"en":"Needham","fr":"Needham"},"geometry":{"type":"Point","coordinates":[-71.233333333333,42.283333333333]}},{"type":"Feature","properties":{"en":"Southampton","fr":"Southampton"},"geometry":{"type":"Point","coordinates":[-72.730555555556,42.229166666667]}},{"type":"Feature","properties":{"en":"Windsor","fr":"Windsor"},"geometry":{"type":"Point","coordinates":[-72.643055555556,41.852777777778]}},{"type":"Feature","properties":{"en":"North Smithfield","fr":"North Smithfield"},"geometry":{"type":"Point","coordinates":[-71.549444444444,41.966666666667]}},{"type":"Feature","properties":{"en":"Bridport","fr":"Bridport"},"geometry":{"type":"Point","coordinates":[-73.3329887,43.9831508]}},{"type":"Feature","properties":{"en":"Bristol","fr":"Bristol"},"geometry":{"type":"Point","coordinates":[-73.0701488,44.1231347]}},{"type":"Feature","properties":{"en":"Cornwall","fr":"Cornwall"},"geometry":{"type":"Point","coordinates":[-73.2160062,43.9602413]}},{"type":"Feature","properties":{"en":"Ferrisburgh","fr":"Ferrisburgh"},"geometry":{"type":"Point","coordinates":[-73.2771907,44.2063557]}},{"type":"Feature","properties":{"en":"Goshen","fr":"Goshen"},"geometry":{"type":"Point","coordinates":[-73.0048022,43.8657914]}},{"type":"Feature","properties":{"en":"Granville","fr":"Granville"},"geometry":{"type":"Point","coordinates":[-72.8401873,44.0054779]}},{"type":"Feature","properties":{"en":"Panton","fr":"Panton"},"geometry":{"type":"Point","coordinates":[-73.3364244,44.1368441]}},{"type":"Feature","properties":{"en":"Windham","fr":"Windham"},"geometry":{"type":"Point","coordinates":[-72.15702,41.69982]}},{"type":"Feature","properties":{"en":"Woodbridge","fr":"Woodbridge"},"geometry":{"type":"Point","coordinates":[-73.011388888889,41.354166666667]}},{"type":"Feature","properties":{"en":"Dorset","fr":"Dorset"},"geometry":{"type":"Point","coordinates":[-73.09872,43.2548]}},{"type":"Feature","properties":{"en":"Manchester","fr":"Manchester"},"geometry":{"type":"Point","coordinates":[-73.0676568,43.1653655]}},{"type":"Feature","properties":{"en":"Narragansett","fr":"Narragansett"},"geometry":{"type":"Point","coordinates":[-71.449444444444,41.45]}},{"type":"Feature","properties":{"en":"Leicester","fr":"Leicester"},"geometry":{"type":"Point","coordinates":[-71.909166666667,42.245833333333]}},{"type":"Feature","properties":{"en":"Guildhall","fr":"Guildhall"},"geometry":{"type":"Point","coordinates":[-71.6283358,44.5475675]}},{"type":"Feature","properties":{"en":"Lemington","fr":"Lemington"},"geometry":{"type":"Point","coordinates":[-71.5831081,44.8907164]}},{"type":"Feature","properties":{"en":"Lewis","fr":"Lewis"},"geometry":{"type":"Point","coordinates":[-71.7489579,44.8668708]}},{"type":"Feature","properties":{"en":"Lunenburg","fr":"Lunenburg"},"geometry":{"type":"Point","coordinates":[-71.7108102,44.4764211]}},{"type":"Feature","properties":{"en":"Maidstone","fr":"Maidstone"},"geometry":{"type":"Point","coordinates":[-71.6161201,44.6400983]}},{"type":"Feature","properties":{"en":"Victory","fr":"Victory"},"geometry":{"type":"Point","coordinates":[-71.8198608,44.5465023]}},{"type":"Feature","properties":{"en":"North Kingstown","fr":"North Kingstown"},"geometry":{"type":"Point","coordinates":[-71.453888888889,41.580555555556]}},{"type":"Feature","properties":{"en":"Brookfield","fr":"Brookfield"},"geometry":{"type":"Point","coordinates":[-72.5922172,44.0286165]}},{"type":"Feature","properties":{"en":"Fairlee","fr":"Fairlee"},"geometry":{"type":"Point","coordinates":[-72.1631896,43.9253225]}},{"type":"Feature","properties":{"en":"Conway","fr":"Conway"},"geometry":{"type":"Point","coordinates":[-71.118888888889,43.978611111111]}},{"type":"Feature","properties":{"en":"Plymouth","fr":"Plymouth"},"geometry":{"type":"Point","coordinates":[-71.688611111111,43.7575]}},{"type":"Feature","properties":{"en":"Weathersfield","fr":"Weathersfield"},"geometry":{"type":"Point","coordinates":[-72.4625,43.384444444444]}},{"type":"Feature","properties":{"en":"Richmond","fr":"Richmond"},"geometry":{"type":"Point","coordinates":[-71.666666666667,41.5]}},{"type":"Feature","properties":{"en":"Brimfield","fr":"Brimfield"},"geometry":{"type":"Point","coordinates":[-72.201388888889,42.122777777778]}},{"type":"Feature","properties":{"en":"Bourne","fr":"Bourne"},"geometry":{"type":"Point","coordinates":[-70.599444444444,41.741111111111]}},{"type":"Feature","properties":{"en":"Hadley","fr":"Hadley"},"geometry":{"type":"Point","coordinates":[-72.588888888889,42.341666666667]}},{"type":"Feature","properties":{"en":"Southwick","fr":"Southwick"},"geometry":{"type":"Point","coordinates":[-72.770833333333,42.054722222222]}},{"type":"Feature","properties":{"en":"Hawley","fr":"Hawley"},"geometry":{"type":"Point","coordinates":[-72.878333333333,42.564444444444]}},{"type":"Feature","properties":{"en":"Chester","fr":"Chester"},"geometry":{"type":"Point","coordinates":[-72.979166666667,42.279166666667]}},{"type":"Feature","properties":{"en":"Ludlow","fr":"Ludlow"},"geometry":{"type":"Point","coordinates":[-72.476388888889,42.16]}},{"type":"Feature","properties":{"en":"Plainfield","fr":"Plainfield"},"geometry":{"type":"Point","coordinates":[-72.916666666667,42.515277777778]}},{"type":"Feature","properties":{"en":"East Longmeadow","fr":"East Longmeadow"},"geometry":{"type":"Point","coordinates":[-72.513055555556,42.064444444444]}},{"type":"Feature","properties":{"en":"Longmeadow","fr":"Longmeadow"},"geometry":{"type":"Point","coordinates":[-72.583333333333,42.05]}},{"type":"Feature","properties":{"en":"Blandford","fr":"Blandford"},"geometry":{"type":"Point","coordinates":[-72.927777777778,42.180555555556]}},{"type":"Feature","properties":{"en":"Chatham","fr":"Chatham"},"geometry":{"type":"Point","coordinates":[-71.011111111111,44.163611111111]}},{"type":"Feature","properties":{"en":"Litchfield","fr":"Litchfield"},"geometry":{"type":"Point","coordinates":[-71.479722222222,42.844166666667]}},{"type":"Feature","properties":{"en":"Newbury","fr":"Newbury"},"geometry":{"type":"Point","coordinates":[-72.1195495,44.1094176]}},{"type":"Feature","properties":{"en":"Gill","fr":"Gill"},"geometry":{"type":"Point","coordinates":[-72.5,42.640277777778]}},{"type":"Feature","properties":{"en":"Wales","fr":"Wales"},"geometry":{"type":"Point","coordinates":[-72.222777777778,42.069444444444]}},{"type":"Feature","properties":{"en":"Dalton","fr":"Dalton"},"geometry":{"type":"Point","coordinates":[-73.166666666667,42.473611111111]}},{"type":"Feature","properties":{"en":"Tunbridge","fr":"Tunbridge"},"geometry":{"type":"Point","coordinates":[-72.4852284,43.9019414]}},{"type":"Feature","properties":{"en":"Chesterfield","fr":"Chesterfield"},"geometry":{"type":"Point","coordinates":[-72.840277777778,42.391666666667]}},{"type":"Feature","properties":{"en":"Hatfield","fr":"Hatfield"},"geometry":{"type":"Point","coordinates":[-72.598611111111,42.370833333333]}},{"type":"Feature","properties":{"en":"Belchertown","fr":"Belchertown"},"geometry":{"type":"Point","coordinates":[-72.401388888889,42.276944444444]}},{"type":"Feature","properties":{"en":"Ware","fr":"Ware"},"geometry":{"type":"Point","coordinates":[-72.240277777778,42.259722222222]}},{"type":"Feature","properties":{"en":"Williamsburg","fr":"Williamsburg"},"geometry":{"type":"Point","coordinates":[-72.730555555556,42.393055555556]}},{"type":"Feature","properties":{"en":"Montgomery","fr":"Montgomery"},"geometry":{"type":"Point","coordinates":[-72.8,42.2]}},{"type":"Feature","properties":{"en":"Granville","fr":"Granville"},"geometry":{"type":"Point","coordinates":[-72.861944444444,42.066666666667]}},{"type":"Feature","properties":{"en":"Monson","fr":"Monson"},"geometry":{"type":"Point","coordinates":[-72.319444444444,42.104166666667]}},{"type":"Feature","properties":{"en":"Whately","fr":"Whately"},"geometry":{"type":"Point","coordinates":[-72.633333333333,42.433333333333]}},{"type":"Feature","properties":{"en":"Tolland","fr":"Tolland"},"geometry":{"type":"Point","coordinates":[-73.0125,42.081111111111]}},{"type":"Feature","properties":{"en":"Russell","fr":"Russell"},"geometry":{"type":"Point","coordinates":[-72.859722222222,42.189722222222]}},{"type":"Feature","properties":{"en":"Holland","fr":"Holland"},"geometry":{"type":"Point","coordinates":[-72.157777777778,42.063888888889]}},{"type":"Feature","properties":{"en":"Granby","fr":"Granby"},"geometry":{"type":"Point","coordinates":[-72.516666666667,42.256388888889]}},{"type":"Feature","properties":{"en":"Leyden","fr":"Leyden"},"geometry":{"type":"Point","coordinates":[-72.63,42.7]}},{"type":"Feature","properties":{"en":"Wendell","fr":"Wendell"},"geometry":{"type":"Point","coordinates":[-72.397222222222,42.548055555556]}},{"type":"Feature","properties":{"en":"New Salem","fr":"New Salem"},"geometry":{"type":"Point","coordinates":[-72.3325,42.504166666667]}},{"type":"Feature","properties":{"en":"Colrain","fr":"Colrain"},"geometry":{"type":"Point","coordinates":[-72.697222222222,42.673055555556]}},{"type":"Feature","properties":{"en":"Sunderland","fr":"Sunderland"},"geometry":{"type":"Point","coordinates":[-72.579166666667,42.466666666667]}},{"type":"Feature","properties":{"en":"Buckland","fr":"Buckland"},"geometry":{"type":"Point","coordinates":[-72.792222222222,42.592222222222]}},{"type":"Feature","properties":{"en":"Conway","fr":"Conway"},"geometry":{"type":"Point","coordinates":[-72.7,42.509722222222]}},{"type":"Feature","properties":{"en":"Orange","fr":"Orange"},"geometry":{"type":"Point","coordinates":[-72.310277777778,42.590277777778]}},{"type":"Feature","properties":{"en":"Shutesbury","fr":"Shutesbury"},"geometry":{"type":"Point","coordinates":[-72.410277777778,42.456388888889]}},{"type":"Feature","properties":{"en":"Rowe","fr":"Rowe"},"geometry":{"type":"Point","coordinates":[-72.9,42.693333333333]}},{"type":"Feature","properties":{"en":"Shelburne","fr":"Shelburne"},"geometry":{"type":"Point","coordinates":[-72.688888888889,42.589722222222]}},{"type":"Feature","properties":{"en":"Bernardston","fr":"Bernardston"},"geometry":{"type":"Point","coordinates":[-72.55,42.670833333333]}},{"type":"Feature","properties":{"en":"Petersham","fr":"Petersham"},"geometry":{"type":"Point","coordinates":[-72.1875,42.4875]}},{"type":"Feature","properties":{"en":"Wakefield","fr":"Wakefield"},"geometry":{"type":"Point","coordinates":[-71.073333333333,42.506388888889]}},{"type":"Feature","properties":{"en":"Lee","fr":"Lee"},"geometry":{"type":"Point","coordinates":[-73.248611111111,42.304166666667]}},{"type":"Feature","properties":{"en":"Oxford","fr":"Oxford"},"geometry":{"type":"Point","coordinates":[-71.86479,42.11676]}},{"type":"Feature","properties":{"en":"Becket","fr":"Becket"},"geometry":{"type":"Point","coordinates":[-73.083333333333,42.331944444444]}},{"type":"Feature","properties":{"en":"Pepperell","fr":"Pepperell"},"geometry":{"type":"Point","coordinates":[-71.5889,42.6658]}},{"type":"Feature","properties":{"en":"Leverett","fr":"Leverett"},"geometry":{"type":"Point","coordinates":[-72.501944444444,42.451944444444]}},{"type":"Feature","properties":{"en":"Charlemont","fr":"Charlemont"},"geometry":{"type":"Point","coordinates":[-72.870277777778,42.627777777778]}},{"type":"Feature","properties":{"en":"Ashfield","fr":"Ashfield"},"geometry":{"type":"Point","coordinates":[-72.788888888889,42.526388888889]}},{"type":"Feature","properties":{"en":"Westhampton","fr":"Westhampton"},"geometry":{"type":"Point","coordinates":[-72.775,42.302777777778]}},{"type":"Feature","properties":{"en":"Huntington","fr":"Huntington"},"geometry":{"type":"Point","coordinates":[-72.876388888889,42.236111111111]}},{"type":"Feature","properties":{"en":"Middlefield","fr":"Middlefield"},"geometry":{"type":"Point","coordinates":[-73.015555555556,42.348333333333]}},{"type":"Feature","properties":{"en":"Holderness","fr":"Holderness"},"geometry":{"type":"Point","coordinates":[-71.588333333333,43.731111111111]}},{"type":"Feature","properties":{"en":"Worthington","fr":"Worthington"},"geometry":{"type":"Point","coordinates":[-72.936111111111,42.397222222222]}},{"type":"Feature","properties":{"en":"Heath","fr":"Heath"},"geometry":{"type":"Point","coordinates":[-72.822222222222,42.673333333333]}},{"type":"Feature","properties":{"en":"Athol","fr":"Athol"},"geometry":{"type":"Point","coordinates":[-72.227222222222,42.595833333333]}},{"type":"Feature","properties":{"en":"Royalston","fr":"Royalston"},"geometry":{"type":"Point","coordinates":[-72.188333333333,42.6775]}},{"type":"Feature","properties":{"en":"Pomfret","fr":"Pomfret"},"geometry":{"type":"Point","coordinates":[-71.983333333333,41.866666666667]}},{"type":"Feature","properties":{"en":"Franklin","fr":"Franklin"},"geometry":{"type":"Point","coordinates":[-72.1425,41.619722222222]}},{"type":"Feature","properties":{"en":"Cabot","fr":"Cabot"},"geometry":{"type":"Point","coordinates":[-72.296124,44.4013105]}},{"type":"Feature","properties":{"en":"Benson","fr":"Benson"},"geometry":{"type":"Point","coordinates":[-73.294444444444,43.713611111111]}},{"type":"Feature","properties":{"en":"Chelsea","fr":"Chelsea"},"geometry":{"type":"Point","coordinates":[-69.717222222222,44.250277777778]}},{"type":"Feature","properties":{"en":"West Haven","fr":"West Haven"},"geometry":{"type":"Point","coordinates":[-73.346666666667,43.652777777778]}},{"type":"Feature","properties":{"en":"Blackstone","fr":"Blackstone"},"geometry":{"type":"Point","coordinates":[-71.541666666667,42.017777777778]}},{"type":"Feature","properties":{"en":"Groton","fr":"Groton"},"geometry":{"type":"Point","coordinates":[-71.575,42.611111111111]}},{"type":"Feature","properties":{"en":"Windsor","fr":"Windsor"},"geometry":{"type":"Point","coordinates":[-73.058333333333,42.511666666667]}}]}