{"type":"FeatureCollection","features":[{"type":"Feature","properties":{"en":"Kuta","fr":"Kuta"},"geometry":{"type":"Point","coordinates":[115.171275,-8.723486]}},{"type":"Feature","properties":{"en":"Purwakarta","fr":"Purwakarta"},"geometry":{"type":"Point","coordinates":[107.44,-6.54]}},{"type":"Feature","properties":{"en":"Bungo Dani","fr":"Bungo Dani"},"geometry":{"type":"Point","coordinates":[102.0977393,-1.4929125]}},{"type":"Feature","properties":{"en":"Martapura","fr":"Martapura"},"geometry":{"type":"Point","coordinates":[114.85,-3.4166666666667]}},{"type":"Feature","properties":{"en":"Danurejan","fr":"Danurejan"},"geometry":{"type":"Point","coordinates":[110.37300133375,-7.7942844752682]}},{"type":"Feature","properties":{"en":"Mengwi","fr":"Mengwi"},"geometry":{"type":"Point","coordinates":[115.16666667,-8.55]}},{"type":"Feature","properties":{"en":"Danau Kerinci","fr":"lac Kerinci"},"geometry":{"type":"Point","coordinates":[101.5215851,-2.1212515]}},{"type":"Feature","properties":{"en":"South Pontianak","fr":"Pontianak Selatan"},"geometry":{"type":"Point","coordinates":[109.315054189409,-0.0623522401274349]}},{"type":"Feature","properties":{"en":"East Pontianak","fr":"Pontianak Timur"},"geometry":{"type":"Point","coordinates":[109.36008333,-0.0315]}},{"type":"Feature","properties":{"en":"West Pontianak","fr":"Pontianak Barat"},"geometry":{"type":"Point","coordinates":[109.297,-0.00797222]}},{"type":"Feature","properties":{"en":"Pontianak Kota","fr":"Pontianak"},"geometry":{"type":"Point","coordinates":[109.322653876919,-0.0328049467538928]}},{"type":"Feature","properties":{"en":"South East Pontianak","fr":"Pontianak Tenggara"},"geometry":{"type":"Point","coordinates":[109.349300905614,-0.0796192477075929]}},{"type":"Feature","properties":{"en":"Tanjungkarang Pusat","fr":"Tanjung Karang Pusat"},"geometry":{"type":"Point","coordinates":[105.247121809935,-5.41846953734047]}},{"type":"Feature","properties":{"en":"South Teluk Betung","fr":"Teluk Betung Selatan"},"geometry":{"type":"Point","coordinates":[105.2595864,-5.4523924]}},{"type":"Feature","properties":{"en":"East Tanjungkarang","fr":"Tanjung Karang Timur"},"geometry":{"type":"Point","coordinates":[105.29805555556,-5.4133333333333]}},{"type":"Feature","properties":{"en":"Kemiling","fr":"Kemiling"},"geometry":{"type":"Point","coordinates":[105.209047644721,-5.39970449046815]}},{"type":"Feature","properties":{"en":"Rajabasa","fr":"Rajabasa"},"geometry":{"type":"Point","coordinates":[105.230803419105,-5.37101177310416]}},{"type":"Feature","properties":{"en":"Panjang","fr":"Panjang"},"geometry":{"type":"Point","coordinates":[105.31833333333,-5.4558333333333]}},{"type":"Feature","properties":{"en":"Tanjung Senang","fr":"Tanjung Senang"},"geometry":{"type":"Point","coordinates":[105.273212764938,-5.36005409893387]}},{"type":"Feature","properties":{"en":"Sukabumi","fr":"Sukabumi"},"geometry":{"type":"Point","coordinates":[105.305896154191,-5.39973696580873]}},{"type":"Feature","properties":{"en":"West Telukbetung","fr":"Teluk Betung Barat"},"geometry":{"type":"Point","coordinates":[105.23888888889,-5.4563888888889]}},{"type":"Feature","properties":{"en":"West Tanjungkarang","fr":"Tanjung Karang Barat"},"geometry":{"type":"Point","coordinates":[105.22111111111,-5.4011111111111]}},{"type":"Feature","properties":{"en":"North Telukbetung","fr":"Teluk Betung Utara"},"geometry":{"type":"Point","coordinates":[105.262449669727,-5.43923514942315]}},{"type":"Feature","properties":{"en":"Sukarame","fr":""},"geometry":{"type":"Point","coordinates":[105.29,-5.3927777777778]}},{"type":"Feature","properties":{"en":"Kedaton","fr":"Kedaton"},"geometry":{"type":"Point","coordinates":[105.254145438889,-5.39052168055556]}},{"type":"Feature","properties":{"en":"Teluk Mayalibit","fr":""},"geometry":{"type":"Point","coordinates":[130.82450867,-0.2664175]}},{"type":"Feature","properties":{"en":"Landasan Ulin","fr":"Landasan Ulin"},"geometry":{"type":"Point","coordinates":[114.763808491383,-3.45531443537475]}},{"type":"Feature","properties":{"en":"Bati Bati","fr":"Bati-Bati"},"geometry":{"type":"Point","coordinates":[114.704341172405,-3.59807042648544]}},{"type":"Feature","properties":{"en":"Cempaka","fr":""},"geometry":{"type":"Point","coordinates":[114.838622220386,-3.5017326890988]}},{"type":"Feature","properties":{"en":"Jogorogo","fr":"Jogorogo"},"geometry":{"type":"Point","coordinates":[111.250833333333,-7.52222222222222]}},{"type":"Feature","properties":{"en":"South Kuta","fr":"Kuta Selatan"},"geometry":{"type":"Point","coordinates":[115.177985,-8.783153]}},{"type":"Feature","properties":{"en":"Gerih","fr":"Gerih"},"geometry":{"type":"Point","coordinates":[111.373349308301,-7.5206269864945]}},{"type":"Feature","properties":{"en":"North Kuta","fr":"Kuta Utara"},"geometry":{"type":"Point","coordinates":[115.162295,-8.645222]}},{"type":"Feature","properties":{"en":"Karang Intan","fr":"Karang Intan"},"geometry":{"type":"Point","coordinates":[114.925295390935,-3.43516655013776]}},{"type":"Feature","properties":{"en":"Muara Bulian","fr":"Muara Bulian"},"geometry":{"type":"Point","coordinates":[103.2615095,-1.7130643]}},{"type":"Feature","properties":{"en":"Margomulyo","fr":"Margomulyo"},"geometry":{"type":"Point","coordinates":[111.4872,-7.3211]}},{"type":"Feature","properties":{"en":"Tanah Sepenggal","fr":"Tanah Sepenggal"},"geometry":{"type":"Point","coordinates":[101.950133366631,-1.40785300366484]}},{"type":"Feature","properties":{"en":"Serai Serumpun","fr":"Serai Serumpun"},"geometry":{"type":"Point","coordinates":[102.3338645,-1.2482818]}},{"type":"Feature","properties":{"en":"Tebo Ulu","fr":"Tebo Ulu"},"geometry":{"type":"Point","coordinates":[102.2374132,-1.2385133]}},{"type":"Feature","properties":{"en":"Pelepat Ilir","fr":"Pelepat Ilir"},"geometry":{"type":"Point","coordinates":[102.2948156,-1.5950243]}},{"type":"Feature","properties":{"en":"VII Koto","fr":"VII Koto"},"geometry":{"type":"Point","coordinates":[102.0105404,-1.1649469]}},{"type":"Feature","properties":{"en":"Rimbo Ulu","fr":"Rimbo Ulu"},"geometry":{"type":"Point","coordinates":[102.0298989,-1.301728]}},{"type":"Feature","properties":{"en":"Bathin III","fr":"Bathin III"},"geometry":{"type":"Point","coordinates":[102.1337037,-1.4679848]}},{"type":"Feature","properties":{"en":"Pelepat","fr":"Pelepat"},"geometry":{"type":"Point","coordinates":[102.1880523,-1.7187107]}},{"type":"Feature","properties":{"en":"Rimbo Bujang","fr":"Rimbo Bujang"},"geometry":{"type":"Point","coordinates":[102.101827,-1.3160617]}},{"type":"Feature","properties":{"en":"Tanah Sepenggal Lintas","fr":"Tanah Sepenggal Lintas"},"geometry":{"type":"Point","coordinates":[102.020399079188,-1.40709714867079]}},{"type":"Feature","properties":{"en":"Tebo Tengah","fr":"Tebo Tengah"},"geometry":{"type":"Point","coordinates":[102.4663401,-1.4551034]}},{"type":"Feature","properties":{"en":"Muara Tabir","fr":"Muara Tabir"},"geometry":{"type":"Point","coordinates":[102.5584942,-1.6466898]}},{"type":"Feature","properties":{"en":"Sumay","fr":"Sumay"},"geometry":{"type":"Point","coordinates":[102.4168182,-1.3781555]}},{"type":"Feature","properties":{"en":"Rimbo Tengah","fr":"Rimbo Tengah"},"geometry":{"type":"Point","coordinates":[102.121347,-1.5160004]}},{"type":"Feature","properties":{"en":"Rantau Rasau","fr":"Rantau Rasau"},"geometry":{"type":"Point","coordinates":[104.0709793,-1.1899168]}},{"type":"Feature","properties":{"en":"West Muara Sabak","fr":"Muara Sabak Barat"},"geometry":{"type":"Point","coordinates":[103.8080967,-1.1886816]}},{"type":"Feature","properties":{"en":"Dendang","fr":"Dendang"},"geometry":{"type":"Point","coordinates":[103.9204266,-1.1990021]}},{"type":"Feature","properties":{"en":"Tebo Ilir","fr":"Tebo Ilir"},"geometry":{"type":"Point","coordinates":[102.7234986,-1.5473233]}},{"type":"Feature","properties":{"en":"Air Hangat","fr":"Air Hangat"},"geometry":{"type":"Point","coordinates":[101.3765942,-2.0039186]}},{"type":"Feature","properties":{"en":"Mestong","fr":"Mestong"},"geometry":{"type":"Point","coordinates":[103.5584345,-1.7628785]}},{"type":"Feature","properties":{"en":"Batang Merangin","fr":"Batang Merangin"},"geometry":{"type":"Point","coordinates":[101.637838763126,-2.18115817457793]}},{"type":"Feature","properties":{"en":"Mendahara","fr":"Mendahara"},"geometry":{"type":"Point","coordinates":[103.6799089,-0.9554692]}},{"type":"Feature","properties":{"en":"Nipah Panjang","fr":"Nipah Panjang"},"geometry":{"type":"Point","coordinates":[104.1722677,-1.0760012]}},{"type":"Feature","properties":{"en":"Sungai Bahar","fr":"Sungai Bahar"},"geometry":{"type":"Point","coordinates":[103.4433684,-1.9983045]}},{"type":"Feature","properties":{"en":"East Muara Sabak","fr":"Muara Sabak Timur"},"geometry":{"type":"Point","coordinates":[103.8608831,-1.1295053]}},{"type":"Feature","properties":{"en":"Berbak","fr":"Berbak"},"geometry":{"type":"Point","coordinates":[104.0874445,-1.2832761]}},{"type":"Feature","properties":{"en":"Geragai","fr":"Geragai"},"geometry":{"type":"Point","coordinates":[103.7323086,-1.171478]}},{"type":"Feature","properties":{"en":"Mendahara Ulu","fr":"Mendahara Ulu"},"geometry":{"type":"Point","coordinates":[103.53414780936,-1.25881061636833]}},{"type":"Feature","properties":{"en":"East Tabir","fr":"Tabir Timur"},"geometry":{"type":"Point","coordinates":[102.5006202,-1.7154481]}},{"type":"Feature","properties":{"en":"Renah Pembarap","fr":"Renah Pembarap"},"geometry":{"type":"Point","coordinates":[102.0604463,-2.1462654]}},{"type":"Feature","properties":{"en":"Jangkat","fr":"Jangkat"},"geometry":{"type":"Point","coordinates":[101.8879983,-2.6367424]}},{"type":"Feature","properties":{"en":"Limun","fr":"Limun"},"geometry":{"type":"Point","coordinates":[102.49027777778,-2.4783333333333]}},{"type":"Feature","properties":{"en":"Muara Siau","fr":"Muara Siau"},"geometry":{"type":"Point","coordinates":[102.0950621,-2.2816187]}},{"type":"Feature","properties":{"en":"West Bangko","fr":"Bangko Barat"},"geometry":{"type":"Point","coordinates":[102.2296472,-2.1195673]}},{"type":"Feature","properties":{"en":"Batang Masumai","fr":"Batang Masumai"},"geometry":{"type":"Point","coordinates":[102.222298283923,-2.06623088540776]}},{"type":"Feature","properties":{"en":"Mandiangin","fr":"Mandiangin"},"geometry":{"type":"Point","coordinates":[102.9610133,-2.0420938]}},{"type":"Feature","properties":{"en":"East Air Hangat","fr":"Air Hangat Timur"},"geometry":{"type":"Point","coordinates":[101.423925478955,-2.01965720118314]}},{"type":"Feature","properties":{"en":"Gunung Kerinci","fr":"Gunung Kerinci"},"geometry":{"type":"Point","coordinates":[101.3034337,-1.9094457]}},{"type":"Feature","properties":{"en":"Lembah Masurai","fr":"Lembah Masurai"},"geometry":{"type":"Point","coordinates":[101.9969551,-2.3779475]}},{"type":"Feature","properties":{"en":"Bathin VIII","fr":"Bathin VIII"},"geometry":{"type":"Point","coordinates":[102.5247566,-2.2516577]}},{"type":"Feature","properties":{"en":"Kayu Aro","fr":"Kayu Aro"},"geometry":{"type":"Point","coordinates":[101.29902643712,-1.76486570604611]}},{"type":"Feature","properties":{"en":"Gunung Tujuh","fr":"Gunung Tujuh"},"geometry":{"type":"Point","coordinates":[101.341587374459,-1.71486938294895]}},{"type":"Feature","properties":{"en":"Bangko","fr":"Bangko"},"geometry":{"type":"Point","coordinates":[102.2547325,-2.0879514]}},{"type":"Feature","properties":{"en":"East Jangkat","fr":"Jangkat Timur"},"geometry":{"type":"Point","coordinates":[101.969403890732,-2.56928820682973]}},{"type":"Feature","properties":{"en":"Keliling Danau","fr":"Keliling Danau"},"geometry":{"type":"Point","coordinates":[101.497618917824,-2.1809405849228]}},{"type":"Feature","properties":{"en":"Air Hitam","fr":"Air Hitam"},"geometry":{"type":"Point","coordinates":[102.697151,-1.9972449]}},{"type":"Feature","properties":{"en":"Tabir Ilir","fr":"Tabir Ilir"},"geometry":{"type":"Point","coordinates":[102.418315230633,-1.743349850629]}},{"type":"Feature","properties":{"en":"Nalo Tantan","fr":"Nalo Tantan"},"geometry":{"type":"Point","coordinates":[102.2416097,-2.0061043]}},{"type":"Feature","properties":{"en":"Sarolangun","fr":"Sarolangun"},"geometry":{"type":"Point","coordinates":[102.715273,-2.3052039]}},{"type":"Feature","properties":{"en":"Pangkalan Jambu","fr":"Pangkalan Jambu"},"geometry":{"type":"Point","coordinates":[101.9241865,-2.1373489]}},{"type":"Feature","properties":{"en":"Tabir","fr":"Tabir"},"geometry":{"type":"Point","coordinates":[102.2992066,-1.8402587]}},{"type":"Feature","properties":{"en":"Sungai Manau","fr":"Sungai Manau"},"geometry":{"type":"Point","coordinates":[102.0000684,-2.1151558]}},{"type":"Feature","properties":{"en":"Gunung Raya","fr":"Gunung Raya"},"geometry":{"type":"Point","coordinates":[101.5312313,-2.2474066]}},{"type":"Feature","properties":{"en":"Sitinjau Laut","fr":"Sitinjau Laut"},"geometry":{"type":"Point","coordinates":[101.46349,-2.08427]}},{"type":"Feature","properties":{"en":"West Pamenang","fr":"Pamenang Barat"},"geometry":{"type":"Point","coordinates":[102.4158801,-2.0716347]}},{"type":"Feature","properties":{"en":"Pauh","fr":"Pauh"},"geometry":{"type":"Point","coordinates":[102.8320329,-2.1291751]}},{"type":"Feature","properties":{"en":"Bajubang","fr":"Bajubang"},"geometry":{"type":"Point","coordinates":[103.3457547,-1.7871074]}},{"type":"Feature","properties":{"en":"Pemayung","fr":"Pemayung"},"geometry":{"type":"Point","coordinates":[103.3756694,-1.6008988]}},{"type":"Feature","properties":{"en":"Muara Tembesi","fr":"Muara Tembesi"},"geometry":{"type":"Point","coordinates":[103.1315901,-1.721328]}},{"type":"Feature","properties":{"en":"Maro Sebo Ilir","fr":"Maro Sebo Ilir"},"geometry":{"type":"Point","coordinates":[103.1684617,-1.67219]}},{"type":"Feature","properties":{"en":"Geneng","fr":"Geneng"},"geometry":{"type":"Point","coordinates":[111.42946685008,-7.49109816387595]}},{"type":"Feature","properties":{"en":"Kasreman","fr":"Kasreman"},"geometry":{"type":"Point","coordinates":[111.513558190553,-7.40713192422631]}},{"type":"Feature","properties":{"en":"Kwadungan","fr":"Kwadungan"},"geometry":{"type":"Point","coordinates":[111.5075,-7.51]}},{"type":"Feature","properties":{"en":"Ngawi","fr":"Ngawi"},"geometry":{"type":"Point","coordinates":[111.45777777778,-7.4105555555556]}},{"type":"Feature","properties":{"en":"Padas","fr":"Padas"},"geometry":{"type":"Point","coordinates":[111.52083333333,-7.4191666666667]}},{"type":"Feature","properties":{"en":"Paron","fr":"Paron"},"geometry":{"type":"Point","coordinates":[111.37027777778,-7.4708333333333]}},{"type":"Feature","properties":{"en":"Pitu","fr":"Pitu"},"geometry":{"type":"Point","coordinates":[111.35777777778,-7.3594444444444]}},{"type":"Feature","properties":{"en":"Gambut","fr":"Gambut"},"geometry":{"type":"Point","coordinates":[114.672582859411,-3.40949743717416]}},{"type":"Feature","properties":{"en":"Ayau Islands","fr":""},"geometry":{"type":"Point","coordinates":[131.138280555556,0.397074722222222]}},{"type":"Feature","properties":{"en":"Balikpapan Kota","fr":"Balikpapan Kota"},"geometry":{"type":"Point","coordinates":[116.825394665227,-1.27903891830185]}},{"type":"Feature","properties":{"en":"Balikpapan Tengah","fr":"Balikpapan Tengah"},"geometry":{"type":"Point","coordinates":[116.8312,-1.2592]}},{"type":"Feature","properties":{"en":"North Banjarbaru","fr":"Banjarbaru Utara"},"geometry":{"type":"Point","coordinates":[114.832992126097,-3.44024471572191]}},{"type":"Feature","properties":{"en":"South Banjarbaru","fr":"Banjarbaru Selatan"},"geometry":{"type":"Point","coordinates":[114.818352502724,-3.45376612100495]}},{"type":"Feature","properties":{"en":"Batang Asai","fr":"Batang Asai"},"geometry":{"type":"Point","coordinates":[102.2781407,-2.4898691]}},{"type":"Feature","properties":{"en":"Bathin II Babeko","fr":"Bathin II Babeko"},"geometry":{"type":"Point","coordinates":[102.194714251732,-1.47932830730141]}},{"type":"Feature","properties":{"en":"Batin XXIV","fr":"Batin XXIV"},"geometry":{"type":"Point","coordinates":[103.0168442,-1.8499121]}},{"type":"Feature","properties":{"en":"Bumi Waras","fr":"Bumi Waras"},"geometry":{"type":"Point","coordinates":[105.286449400133,-5.44478385539518]}},{"type":"Feature","properties":{"en":"West Denpasar","fr":"Denpasar Barat"},"geometry":{"type":"Point","coordinates":[115.195006,-8.651647]}},{"type":"Feature","properties":{"en":"South Denpasar","fr":"Denpasar Selatan"},"geometry":{"type":"Point","coordinates":[115.226,-8.6991]}},{"type":"Feature","properties":{"en":"Depati Tujuh","fr":"Depati Tujuh"},"geometry":{"type":"Point","coordinates":[101.3846902,-2.0182496]}},{"type":"Feature","properties":{"en":"Enggal","fr":"Enggal"},"geometry":{"type":"Point","coordinates":[105.264271219301,-5.42138891589395]}},{"type":"Feature","properties":{"en":"Hamparan Rawang","fr":"Hamparan Rawang"},"geometry":{"type":"Point","coordinates":[101.407004825594,-2.04187895422922]}},{"type":"Feature","properties":{"en":"Kedamaian","fr":"Kedamaian"},"geometry":{"type":"Point","coordinates":[105.289837899062,-5.41824956901343]}},{"type":"Feature","properties":{"en":"Kuala Jambi","fr":"Kuala Jambi"},"geometry":{"type":"Point","coordinates":[103.785888888889,-1.03225]}},{"type":"Feature","properties":{"en":"Langkapura","fr":"Langkapura"},"geometry":{"type":"Point","coordinates":[105.229116496112,-5.4020204859129]}},{"type":"Feature","properties":{"en":"Liang Anggang","fr":"Liang Anggang"},"geometry":{"type":"Point","coordinates":[114.692609367017,-3.44181444728719]}},{"type":"Feature","properties":{"en":"Meos Mansar","fr":""},"geometry":{"type":"Point","coordinates":[130.600343322737,-0.443477066089121]}},{"type":"Feature","properties":{"en":"Muko-Muko Bathin VII","fr":"Muko-Muko Bathin VII"},"geometry":{"type":"Point","coordinates":[102.053538486127,-1.52651783832504]}},{"type":"Feature","properties":{"en":"Pamenang","fr":"Pamenang"},"geometry":{"type":"Point","coordinates":[102.5136757,-2.1247557]}},{"type":"Feature","properties":{"en":"Rimbo Ilir","fr":"Rimbo Ilir"},"geometry":{"type":"Point","coordinates":[102.2442949,-1.4409044]}},{"type":"Feature","properties":{"en":"Sadu","fr":"Sadu"},"geometry":{"type":"Point","coordinates":[104.3304794,-1.0566168]}},{"type":"Feature","properties":{"en":"Salawati Tengah","fr":""},"geometry":{"type":"Point","coordinates":[131.058667985036,-1.05199729013196]}},{"type":"Feature","properties":{"en":"Singkut","fr":"Singkut"},"geometry":{"type":"Point","coordinates":[102.7144828,-2.4915759]}},{"type":"Feature","properties":{"en":"Siulak","fr":"Siulak"},"geometry":{"type":"Point","coordinates":[101.349739903688,-1.96216715572712]}},{"type":"Feature","properties":{"en":"Sorong Kepulauan","fr":""},"geometry":{"type":"Point","coordinates":[131.239966499905,-0.886531591172696]}},{"type":"Feature","properties":{"en":"Sungai Penuh","fr":"Sungai Penuh"},"geometry":{"type":"Point","coordinates":[101.34111111111,-2.0780555555556]}},{"type":"Feature","properties":{"en":"Supnin","fr":""},"geometry":{"type":"Point","coordinates":[130.741241194444,-0.0591563611111111]}},{"type":"Feature","properties":{"en":"Tabir Ulu","fr":"Tabir Ulu"},"geometry":{"type":"Point","coordinates":[102.1827838,-1.947689]}},{"type":"Feature","properties":{"en":"South Tabir","fr":"Tabir Selatan"},"geometry":{"type":"Point","coordinates":[102.422241,-1.9400856]}},{"type":"Feature","properties":{"en":"Tanah Kampung","fr":"Tanah Kampung"},"geometry":{"type":"Point","coordinates":[101.432482015993,-2.07653871073501]}},{"type":"Feature","properties":{"en":"East Telukbetung","fr":"Teluk Betung Timur"},"geometry":{"type":"Point","coordinates":[105.245423050593,-5.46944093230992]}},{"type":"Feature","properties":{"en":"Tiplol Mayalibit","fr":""},"geometry":{"type":"Point","coordinates":[130.664832364261,-0.0782554561935006]}},{"type":"Feature","properties":{"en":"VII Koto Ilir","fr":"VII Koto Ilir"},"geometry":{"type":"Point","coordinates":[102.1320007,-1.1515476]}},{"type":"Feature","properties":{"en":"Waisai","fr":"Waisai"},"geometry":{"type":"Point","coordinates":[130.81666666667,-0.41666666666667]}},{"type":"Feature","properties":{"en":"Warwarbomi","fr":""},"geometry":{"type":"Point","coordinates":[131.174640194444,-0.102013694444444]}},{"type":"Feature","properties":{"en":"Way Halim","fr":"Way Halim"},"geometry":{"type":"Point","coordinates":[105.276523286629,-5.38779292888176]}},{"type":"Feature","properties":{"en":"Cermin Nan Gedang","fr":"Cermin Nan Gadang"},"geometry":{"type":"Point","coordinates":[102.6345016,-2.3767081]}},{"type":"Feature","properties":{"en":"Pasar Muara Bungo","fr":"Muara Bungo"},"geometry":{"type":"Point","coordinates":[102.118311110958,-1.48134094517189]}},{"type":"Feature","properties":{"en":"Pesisir Bukit","fr":"Pesisir Bukit"},"geometry":{"type":"Point","coordinates":[101.388365229767,-2.05529472980446]}},{"type":"Feature","properties":{"en":"Tengah Ilir","fr":"Tengah Ilir"},"geometry":{"type":"Point","coordinates":[102.658782,-1.4679304]}},{"type":"Feature","properties":{"en":"Kumun Debai","fr":"Kumun Debai"},"geometry":{"type":"Point","coordinates":[101.414759660513,-2.10411009458266]}},{"type":"Feature","properties":{"en":"Sungai Ambawang","fr":"Sungai Ambawang"},"geometry":{"type":"Point","coordinates":[109.410355871012,-0.0389160422539379]}},{"type":"Feature","properties":{"en":"Koto Baru","fr":""},"geometry":{"type":"Point","coordinates":[101.394110524487,-2.03243403490922]}},{"type":"Feature","properties":{"en":"Pondok Tinggi","fr":""},"geometry":{"type":"Point","coordinates":[101.397698037061,-2.07228705679539]}},{"type":"Feature","properties":{"en":"Bukit Kerman","fr":""},"geometry":{"type":"Point","coordinates":[101.573266716478,-2.1854852618238]}},{"type":"Feature","properties":{"en":"West Kayu Aro","fr":""},"geometry":{"type":"Point","coordinates":[101.241148157573,-1.79903853334645]}},{"type":"Feature","properties":{"en":"North Batanta","fr":""},"geometry":{"type":"Point","coordinates":[130.679985629759,-0.805588500707342]}},{"type":"Feature","properties":{"en":"West Air Hangat","fr":""},"geometry":{"type":"Point","coordinates":[101.3509392,-1.992567]}},{"type":"Feature","properties":{"en":"Labuhan Ratu","fr":""},"geometry":{"type":"Point","coordinates":[105.254010361906,-5.35987334266722]}},{"type":"Feature","properties":{"en":"Siulak Mukai","fr":""},"geometry":{"type":"Point","coordinates":[101.361240409017,-1.95278769012298]}},{"type":"Feature","properties":{"en":"North Salawati","fr":"Salawati Utara"},"geometry":{"type":"Point","coordinates":[131.124566285108,-0.923315865887448]}},{"type":"Feature","properties":{"en":"South Batanta","fr":""},"geometry":{"type":"Point","coordinates":[130.893163096402,-0.838674545408333]}},{"type":"Feature","properties":{"en":"Muara Bungo","fr":""},"geometry":{"type":"Point","coordinates":[102.11927915317,-1.51635601045021]}},{"type":"Feature","properties":{"en":"West Danau Kerinci","fr":""},"geometry":{"type":"Point","coordinates":[101.430068376209,-2.12037471626885]}},{"type":"Feature","properties":{"en":"Tanah Cogok","fr":""},"geometry":{"type":"Point","coordinates":[101.461459655189,-2.12115304870932]}},{"type":"Feature","properties":{"en":"East Mandiangin","fr":""},"geometry":{"type":"Point","coordinates":[103.1199727,-2.0326731]}}]}