{"type":"FeatureCollection","features":[{"type":"Feature","properties":{"en":"Ouro Sogui","fr":"Ourossogui"},"geometry":{"type":"Point","coordinates":[-13.3204,15.6015]}},{"type":"Feature","properties":{"en":"Gossas","fr":"Gossas"},"geometry":{"type":"Point","coordinates":[-16.0675,14.4915]}},{"type":"Feature","properties":{"en":"Karang Poste","fr":"Karang Poste"},"geometry":{"type":"Point","coordinates":[-16.4256388888889,13.6086388888889]}},{"type":"Feature","properties":{"en":"Rosso","fr":"Rosso"},"geometry":{"type":"Point","coordinates":[-15.8167,16.5]}},{"type":"Feature","properties":{"en":"Baba Garage","fr":"Baba Garage"},"geometry":{"type":"Point","coordinates":[-16.4893611111111,14.9428611111111]}},{"type":"Feature","properties":{"en":"Diaoulé","fr":"Diaoulé"},"geometry":{"type":"Point","coordinates":[-16.2216111111111,14.3781944444444]}},{"type":"Feature","properties":{"en":"Keur Samba Guèye","fr":"Keur Samba Guèye"},"geometry":{"type":"Point","coordinates":[-16.3613333333333,13.6498611111111]}},{"type":"Feature","properties":{"en":"Keur Samba Kane","fr":"Keur Samba Kane"},"geometry":{"type":"Point","coordinates":[-16.5979171687369,14.8968213860506]}},{"type":"Feature","properties":{"en":"Koul","fr":"Koul"},"geometry":{"type":"Point","coordinates":[-16.6289722222222,15.0694444444444]}},{"type":"Feature","properties":{"en":"Mérina Dakhar","fr":"Mérina Dakhar"},"geometry":{"type":"Point","coordinates":[-16.5478888888889,15.1048055555556]}},{"type":"Feature","properties":{"en":"Ndiob","fr":"Ndiob"},"geometry":{"type":"Point","coordinates":[-16.2525,14.5491666666667]}},{"type":"Feature","properties":{"en":"Ndiène Lagane","fr":"Ndiène Lagane"},"geometry":{"type":"Point","coordinates":[-15.921,14.5143055555556]}},{"type":"Feature","properties":{"en":"Ngoye","fr":"Ngoye"},"geometry":{"type":"Point","coordinates":[-16.4333333333333,14.6416666666667]}},{"type":"Feature","properties":{"en":"Nguélou","fr":"Nguélou"},"geometry":{"type":"Point","coordinates":[-15.952686,14.373769]}},{"type":"Feature","properties":{"en":"Ouadiour","fr":"Ouadiour"},"geometry":{"type":"Point","coordinates":[-16.0565277777778,14.4385833333333]}},{"type":"Feature","properties":{"en":"Patar Lia","fr":"Patar Lia"},"geometry":{"type":"Point","coordinates":[-16.1570555555556,14.4908055555556]}},{"type":"Feature","properties":{"en":"Tocky Gare","fr":"Tocky Gare"},"geometry":{"type":"Point","coordinates":[-16.1483333333333,14.5941666666667]}},{"type":"Feature","properties":{"en":"","fr":"Toure Mbonde"},"geometry":{"type":"Point","coordinates":[-16.2211111111111,14.7261111111111]}},{"type":"Feature","properties":{"en":"","fr":"Nabadji Civol"},"geometry":{"type":"Point","coordinates":[-13.3883333333333,15.7402777777778]}},{"type":"Feature","properties":{"en":"Ngohe","fr":"Ngohe"},"geometry":{"type":"Point","coordinates":[-16.2880555555556,14.6222222222222]}},{"type":"Feature","properties":{"en":"Ourour","fr":"Ourour"},"geometry":{"type":"Point","coordinates":[-16.03213,14.325766]}},{"type":"Feature","properties":{"en":"","fr":"Thiakhar"},"geometry":{"type":"Point","coordinates":[-16.3608333333333,14.6969444444444]}},{"type":"Feature","properties":{"en":"Touba Mboul","fr":"Touba Mboul"},"geometry":{"type":"Point","coordinates":[-15.9511111111111,14.5733333333333]}},{"type":"Feature","properties":{"en":"","fr":"Ndioumane"},"geometry":{"type":"Point","coordinates":[-15.9983333333333,14.6302777777778]}}]}