{"type":"FeatureCollection","features":[{"type":"Feature","properties":{"en":"Beni Ansar","fr":"Beni Ensar"},"geometry":{"type":"Point","coordinates":[-2.933644,35.259687]}},{"type":"Feature","properties":{"en":"Ihddaden","fr":"Ihaddaden"},"geometry":{"type":"Point","coordinates":[-2.9660295,35.1626522]}},{"type":"Feature","properties":{"en":"Bouznika","fr":"Bouznika"},"geometry":{"type":"Point","coordinates":[-7.15968,33.78942]}},{"type":"Feature","properties":{"en":"Tangier","fr":"Beni Chiker"},"geometry":{"type":"Point","coordinates":[-3.013687,35.277213]}},{"type":"Feature","properties":{"en":"Berkane","fr":"Berkane"},"geometry":{"type":"Point","coordinates":[-2.3166666666667,34.916666666667]}},{"type":"Feature","properties":{"en":"Nador","fr":"Nador"},"geometry":{"type":"Point","coordinates":[-2.9281198,35.1739922]}},{"type":"Feature","properties":{"en":"Bouarg","fr":"Taouima"},"geometry":{"type":"Point","coordinates":[-2.929409,35.130338]}},{"type":"Feature","properties":{"en":"Tan-Tan","fr":"Tan-Tan"},"geometry":{"type":"Point","coordinates":[-11.1,28.433333333333]}},{"type":"Feature","properties":{"en":"Driouch","fr":"Driouch"},"geometry":{"type":"Point","coordinates":[-3.391005,34.97694]}},{"type":"Feature","properties":{"en":"El Hagounia","fr":""},"geometry":{"type":"Point","coordinates":[-12.3919,27.4264]}},{"type":"Feature","properties":{"en":"Guelta Zemmur","fr":"Gueltat Zemmour"},"geometry":{"type":"Point","coordinates":[-12.366666666667,25.15]}},{"type":"Feature","properties":{"en":"Haouza","fr":"Haouza"},"geometry":{"type":"Point","coordinates":[-10.9711,27.1109]}},{"type":"Feature","properties":{"en":"Benslimane","fr":"Benslimane"},"geometry":{"type":"Point","coordinates":[-7.12111111,33.61222222]}},{"type":"Feature","properties":{"en":"Tah","fr":"Tah"},"geometry":{"type":"Point","coordinates":[-12.9553,27.6704]}},{"type":"Feature","properties":{"en":"Ahfir","fr":"Ahfir"},"geometry":{"type":"Point","coordinates":[-2.1025,34.95138889]}},{"type":"Feature","properties":{"en":"Ain Cheggag","fr":"Aïn Cheggag"},"geometry":{"type":"Point","coordinates":[-5.03333333,33.88333333]}},{"type":"Feature","properties":{"en":"El Ouatia","fr":"El Ouatia"},"geometry":{"type":"Point","coordinates":[-11.33268,28.496241]}},{"type":"Feature","properties":{"en":"Ouled Tayeb","fr":"Ouled Tayeb"},"geometry":{"type":"Point","coordinates":[-4.9954,33.9598]}},{"type":"Feature","properties":{"en":"Tinghir Province","fr":"Tinghir"},"geometry":{"type":"Point","coordinates":[-5.53278,31.5147]}},{"type":"Feature","properties":{"en":"Abteh","fr":"Abteh"},"geometry":{"type":"Point","coordinates":[-11.4494,27.9015]}},{"type":"Feature","properties":{"en":"Ben Khlil","fr":"Ben Khlil"},"geometry":{"type":"Point","coordinates":[-11.48554,28.176205]}},{"type":"Feature","properties":{"en":"Chbika","fr":"Chbika"},"geometry":{"type":"Point","coordinates":[-11.34777778,28.47888889]}},{"type":"Feature","properties":{"en":"El Mansouria","fr":"El Mansouria"},"geometry":{"type":"Point","coordinates":[-7.3,33.75]}},{"type":"Feature","properties":{"en":"Laqsir","fr":"Laqsir"},"geometry":{"type":"Point","coordinates":[-5.2038888888889,33.892777777778]}},{"type":"Feature","properties":{"en":"Msied","fr":""},"geometry":{"type":"Point","coordinates":[-10.81666667,28.01666667]}},{"type":"Feature","properties":{"en":"Oulad Yahya Louta","fr":"Oulad Yahya Louta"},"geometry":{"type":"Point","coordinates":[-7.1966666666667,33.535833333333]}},{"type":"Feature","properties":{"en":"Tilemzoun","fr":"Tilemzoun"},"geometry":{"type":"Point","coordinates":[-11.0496,28.2523]}},{"type":"Feature","properties":{"en":"Ziaida","fr":"Ziaida"},"geometry":{"type":"Point","coordinates":[-7.1,33.4833]}},{"type":"Feature","properties":{"en":"Cherrat","fr":"Charrate"},"geometry":{"type":"Point","coordinates":[-7.0844444444444,33.776388888889]}},{"type":"Feature","properties":{"en":"Sebaa Rouadi","fr":"Sebaa Rouadi"},"geometry":{"type":"Point","coordinates":[-5.1372222222222,34.037777777778]}},{"type":"Feature","properties":{"en":"Ain Tizgha","fr":""},"geometry":{"type":"Point","coordinates":[-7.0713888888889,33.666111111111]}},{"type":"Feature","properties":{"en":"Ain Chkef","fr":"Ain Chkef"},"geometry":{"type":"Point","coordinates":[-5.0280555555556,33.963611111111]}},{"type":"Feature","properties":{"en":"Akhfenir","fr":"Akhfennir"},"geometry":{"type":"Point","coordinates":[-12.048333333333,28.095277777778]}},{"type":"Feature","properties":{"en":"Belyounech","fr":"Belyounech"},"geometry":{"type":"Point","coordinates":[-5.3921994,35.9062644]}},{"type":"Feature","properties":{"en":"Sidi Ahmed Laaroussi","fr":"Sidi Ahmed Laaroussi"},"geometry":{"type":"Point","coordinates":[-11.773333333333,26.822777777778]}}]}