{"type":"FeatureCollection","features":[{"type":"Feature","properties":{"en":"Chūō-ku","fr":"arrondissement de Chūō"},"geometry":{"type":"Point","coordinates":[130.708056,32.803333]}},{"type":"Feature","properties":{"en":"Nishi-ku","fr":"Nishi-ku"},"geometry":{"type":"Point","coordinates":[135.48611111111,34.676388888889]}},{"type":"Feature","properties":{"en":"Abeno-ku","fr":"arrondissement d'Abeno"},"geometry":{"type":"Point","coordinates":[135.51849166667,34.638972222222]}},{"type":"Feature","properties":{"en":"Jōtō-ku","fr":"Jōtō-ku"},"geometry":{"type":"Point","coordinates":[135.54611111111,34.701944444444]}},{"type":"Feature","properties":{"en":"Higashiyodogawa-ku","fr":"Higashiyodogawa-ku"},"geometry":{"type":"Point","coordinates":[135.52944444444,34.741111111111]}},{"type":"Feature","properties":{"en":"Ikuno-ku","fr":"Ikuno-ku"},"geometry":{"type":"Point","coordinates":[135.53944444444,34.652777777778]}},{"type":"Feature","properties":{"en":"Tsurumi-ku","fr":"Tsurumi-ku"},"geometry":{"type":"Point","coordinates":[135.57416666667,34.704166666667]}},{"type":"Feature","properties":{"en":"Miyakojima Ward","fr":"arrondissement de Miyakojima"},"geometry":{"type":"Point","coordinates":[135.52808888889,34.701277777778]}},{"type":"Feature","properties":{"en":"Tennōji-ku","fr":"arrondissement de Tennōji"},"geometry":{"type":"Point","coordinates":[135.51944444444,34.657777777778]}},{"type":"Feature","properties":{"en":"Yodogawa-ku","fr":"Yodogawa-ku"},"geometry":{"type":"Point","coordinates":[135.48666666667,34.721111111111]}},{"type":"Feature","properties":{"en":"Taishō-ku","fr":"Taishō-ku"},"geometry":{"type":"Point","coordinates":[135.4727,34.650402777778]}},{"type":"Feature","properties":{"en":"Ukyō Ward","fr":"arrondissement d'Ukyō"},"geometry":{"type":"Point","coordinates":[135.716034,35.010172]}},{"type":"Feature","properties":{"en":"Shiroishi-ku","fr":"arrondissement de Shiroishi-ku, Sapporo"},"geometry":{"type":"Point","coordinates":[141.405,43.047777777778]}},{"type":"Feature","properties":{"en":"Chūō-ku","fr":"arrondissement de Chūō"},"geometry":{"type":"Point","coordinates":[135.19583333333,34.690555555556]}},{"type":"Feature","properties":{"en":"Hirano-ku","fr":"Hirano-ku"},"geometry":{"type":"Point","coordinates":[135.54611111111,34.621111111111]}},{"type":"Feature","properties":{"en":"Higashisumiyoshi-ku","fr":"Higashisumiyoshi-ku"},"geometry":{"type":"Point","coordinates":[135.52661388889,34.622119444444]}},{"type":"Feature","properties":{"en":"Asahi Ward","fr":"arrondissement d'Asahi"},"geometry":{"type":"Point","coordinates":[135.54416666667,34.721388888889]}},{"type":"Feature","properties":{"en":"Naniwa-ku","fr":"arrondissement de Naniwa"},"geometry":{"type":"Point","coordinates":[135.49963055556,34.659444444444]}},{"type":"Feature","properties":{"en":"Higashi-ku","fr":"Higashi-ku"},"geometry":{"type":"Point","coordinates":[130.76805556,32.78055556]}},{"type":"Feature","properties":{"en":"Chūō-ku","fr":"arrondissement Chūō"},"geometry":{"type":"Point","coordinates":[135.50972222222,34.681111111111]}},{"type":"Feature","properties":{"en":"Kita-ku","fr":"Kita-ku"},"geometry":{"type":"Point","coordinates":[130.69444444,32.90361111]}},{"type":"Feature","properties":{"en":"Minami-ku","fr":"Minami-ku"},"geometry":{"type":"Point","coordinates":[130.6788889,32.71527778]}},{"type":"Feature","properties":{"en":"Nishi-ku","fr":"Nishi-ku"},"geometry":{"type":"Point","coordinates":[130.6475,32.77638889]}},{"type":"Feature","properties":{"en":"Jōnan-ku","fr":"arrondissement de Jōnan"},"geometry":{"type":"Point","coordinates":[130.37,33.575833333333]}},{"type":"Feature","properties":{"en":"Konohana-ku","fr":"Konohana-ku"},"geometry":{"type":"Point","coordinates":[135.45222222222,34.683055555556]}},{"type":"Feature","properties":{"en":"Nishinari-ku","fr":"Nishinari-ku"},"geometry":{"type":"Point","coordinates":[135.49444444444,34.635]}},{"type":"Feature","properties":{"en":"Higashinari-ku","fr":"Higashinari-ku"},"geometry":{"type":"Point","coordinates":[135.54111111111,34.67]}},{"type":"Feature","properties":{"en":"Sumiyoshi-ku","fr":"Sumiyoshi"},"geometry":{"type":"Point","coordinates":[135.50062777778,34.603675]}},{"type":"Feature","properties":{"en":"Suminoe-ku","fr":"Suminoe-ku"},"geometry":{"type":"Point","coordinates":[135.48277777778,34.609444444444]}},{"type":"Feature","properties":{"en":"Fukushima-ku","fr":"Fukushima-ku"},"geometry":{"type":"Point","coordinates":[135.47223055556,34.692355555556]}},{"type":"Feature","properties":{"en":"Nishiyodogawa-ku","fr":"Nishiyodogawa-ku"},"geometry":{"type":"Point","coordinates":[135.45638888889,34.716944444444]}},{"type":"Feature","properties":{"en":"Asao-ku","fr":"arrondissement d'Asao"},"geometry":{"type":"Point","coordinates":[139.50583333333,35.603888888889]}},{"type":"Feature","properties":{"en":"Sawara-ku","fr":"arrondissement de Sawara"},"geometry":{"type":"Point","coordinates":[130.34833333333,33.581944444444]}},{"type":"Feature","properties":{"en":"Nakagyō Ward","fr":"arrondissement de Nakagyō"},"geometry":{"type":"Point","coordinates":[135.75138888889,35.01]}},{"type":"Feature","properties":{"en":"Yamashina-ku","fr":"arrondissement de Yamashina"},"geometry":{"type":"Point","coordinates":[135.81361111111,34.9725]}},{"type":"Feature","properties":{"en":"Shimogyō-ku","fr":"arrondissement de Shimogyō"},"geometry":{"type":"Point","coordinates":[135.75555555556,34.9875]}},{"type":"Feature","properties":{"en":"Hyōgo-ku","fr":"arrondissement de Hyōgo"},"geometry":{"type":"Point","coordinates":[135.16666666667,34.675833333333]}},{"type":"Feature","properties":{"en":"Chūō-ku","fr":"Chūō-ku"},"geometry":{"type":"Point","coordinates":[141.34111111111,43.055277777778]}},{"type":"Feature","properties":{"en":"Tenryū-ku","fr":"Tenryū-ku"},"geometry":{"type":"Point","coordinates":[137.79694444444,35.095555555556]}},{"type":"Feature","properties":{"en":"Nishi-ku","fr":"arrondissement Ouest"},"geometry":{"type":"Point","coordinates":[130.32305555556,33.582777777778]}},{"type":"Feature","properties":{"en":"Higashi-ku","fr":"Higashi-ku"},"geometry":{"type":"Point","coordinates":[141.36361111111,43.076111111111]}},{"type":"Feature","properties":{"en":"Kita-ku","fr":"Kita-ku"},"geometry":{"type":"Point","coordinates":[141.34083333333,43.090833333333]}},{"type":"Feature","properties":{"en":"Kiyota-ku","fr":"Kiyota-ku"},"geometry":{"type":"Point","coordinates":[141.44388888889,42.999444444444]}},{"type":"Feature","properties":{"en":"Toyohira-ku","fr":"Toyohira-ku"},"geometry":{"type":"Point","coordinates":[141.39111111111,43.013333333333]}},{"type":"Feature","properties":{"en":"Teine-ku","fr":"Teine-ku"},"geometry":{"type":"Point","coordinates":[141.24555555556,43.121944444444]}},{"type":"Feature","properties":{"en":"Nishi-ku","fr":"Nishi-ku"},"geometry":{"type":"Point","coordinates":[141.30083333333,43.074444444444]}},{"type":"Feature","properties":{"en":"Nada-ku","fr":"arrondissement de Nada"},"geometry":{"type":"Point","coordinates":[135.23972222222,34.7125]}},{"type":"Feature","properties":{"en":"Nishikyō Ward","fr":"arrondissement de Nishikyō"},"geometry":{"type":"Point","coordinates":[135.693278,34.985041]}},{"type":"Feature","properties":{"en":"Minami-ku","fr":"arrondissement Sud"},"geometry":{"type":"Point","coordinates":[135.74666666667,34.976666666667]}},{"type":"Feature","properties":{"en":"Kita-ku","fr":"arrondissement Nord"},"geometry":{"type":"Point","coordinates":[135.75416666667,35.041111111111]}},{"type":"Feature","properties":{"en":"Nakagawa-ku","fr":"Nakagawa-ku"},"geometry":{"type":"Point","coordinates":[136.855,35.141666666667]}},{"type":"Feature","properties":{"en":"Shōwa-ku","fr":"Shōwa-ku"},"geometry":{"type":"Point","coordinates":[136.93416666667,35.150277777778]}},{"type":"Feature","properties":{"en":"Minami-ku","fr":"Minami-ku"},"geometry":{"type":"Point","coordinates":[136.93111111111,35.095]}},{"type":"Feature","properties":{"en":"Chūō-ku","fr":"arrondissement de Chūō"},"geometry":{"type":"Point","coordinates":[130.38625,33.58375]}},{"type":"Feature","properties":{"en":"Fushimi-ku","fr":"arrondissement de Fushimi"},"geometry":{"type":"Point","coordinates":[135.76138888889,34.935555555556]}},{"type":"Feature","properties":{"en":"Higashiyama-ku","fr":"arrondissement de Higashiyama"},"geometry":{"type":"Point","coordinates":[135.77638888889,34.996944444444]}},{"type":"Feature","properties":{"en":"Higashi-ku","fr":"arrondissement Est"},"geometry":{"type":"Point","coordinates":[130.4225,33.616388888889]}},{"type":"Feature","properties":{"en":"Kita-ku","fr":"arrondissement Nord"},"geometry":{"type":"Point","coordinates":[135.51,34.705555555556]}},{"type":"Feature","properties":{"en":"Naka-ku","fr":"Naka-ku"},"geometry":{"type":"Point","coordinates":[136.91027777778,35.168611111111]}},{"type":"Feature","properties":{"en":"Mizuho-ku","fr":"Mizuho-ku"},"geometry":{"type":"Point","coordinates":[136.935,35.131666666667]}},{"type":"Feature","properties":{"en":"Minato-ku","fr":"Minato-ku"},"geometry":{"type":"Point","coordinates":[136.88555555556,35.107777777778]}},{"type":"Feature","properties":{"en":"Kamigyō-ku","fr":"arrondissement de Kamigyō"},"geometry":{"type":"Point","coordinates":[135.75666666667,35.029722222222]}},{"type":"Feature","properties":{"en":"Sakyō-ku","fr":"arrondissement de Sakyō"},"geometry":{"type":"Point","coordinates":[135.778333333333,35.0483333333333]}},{"type":"Feature","properties":{"en":"Atsuta-ku","fr":"Atsuta-ku"},"geometry":{"type":"Point","coordinates":[136.91111111111,35.128055555556]}},{"type":"Feature","properties":{"en":"Minato-ku","fr":"Minato-ku"},"geometry":{"type":"Point","coordinates":[135.46083333333,34.663888888889]}},{"type":"Feature","properties":{"en":"Hamana-ku","fr":"Hamana-ku"},"geometry":{"type":"Point","coordinates":[137.7832575,34.7916503]}},{"type":"Feature","properties":{"en":"Chūō Ward","fr":"arrondissement Chūō"},"geometry":{"type":"Point","coordinates":[137.7262391,34.7108169]}}]}