{"type":"FeatureCollection","features":[{"type":"Feature","properties":{"en":"Hamm","fr":"Hamm"},"geometry":{"type":"Point","coordinates":[6.169,49.607]}},{"type":"Feature","properties":{"en":"Clausen","fr":"Clausen"},"geometry":{"type":"Point","coordinates":[6.1424,49.6139]}},{"type":"Feature","properties":{"en":"Kirchberg","fr":"Kirchberg"},"geometry":{"type":"Point","coordinates":[6.1455555555556,49.6275]}},{"type":"Feature","properties":{"en":"Limpertsberg","fr":"Limpertsberg"},"geometry":{"type":"Point","coordinates":[6.121667,49.620833]}},{"type":"Feature","properties":{"en":"Weimerskirch","fr":"Weimerskirch"},"geometry":{"type":"Point","coordinates":[6.135,49.628]}},{"type":"Feature","properties":{"en":"Grund","fr":"Grund"},"geometry":{"type":"Point","coordinates":[6.136,49.611]}},{"type":"Feature","properties":{"en":"Pfaffenthal","fr":"Pfaffenthal"},"geometry":{"type":"Point","coordinates":[6.1319444444444,49.615833333333]}},{"type":"Feature","properties":{"en":"Neudorf-Weimershof","fr":"Neudorf / Weimershof"},"geometry":{"type":"Point","coordinates":[6.1625,49.620461111111]}},{"type":"Feature","properties":{"en":"Cents","fr":"Cents"},"geometry":{"type":"Point","coordinates":[6.1593305555556,49.61575]}},{"type":"Feature","properties":{"en":"Ville Haute","fr":"Ville-Haute"},"geometry":{"type":"Point","coordinates":[6.129,49.612]}},{"type":"Feature","properties":{"en":"Pulvermuhl","fr":"Pulvermühl"},"geometry":{"type":"Point","coordinates":[6.1516305555556,49.608880555556]}},{"type":"Feature","properties":{"en":"Dommeldange","fr":"Dommeldange"},"geometry":{"type":"Point","coordinates":[6.1377388888889,49.635061111111]}},{"type":"Feature","properties":{"en":"Gasperich","fr":"Gasperich"},"geometry":{"type":"Point","coordinates":[6.123,49.591]}},{"type":"Feature","properties":{"en":"North Bonnevoie-Verlorenkost","fr":"Bonnevoie-Nord / Verlorenkost"},"geometry":{"type":"Point","coordinates":[6.1480111111111,49.59735]}},{"type":"Feature","properties":{"en":"South Bonnevoie","fr":"Bonnevoie-Sud"},"geometry":{"type":"Point","coordinates":[6.14,49.597]}},{"type":"Feature","properties":{"en":"Muhlenbach","fr":"Mühlenbach"},"geometry":{"type":"Point","coordinates":[6.11917,49.63167]}},{"type":"Feature","properties":{"en":"Gare","fr":"Gare"},"geometry":{"type":"Point","coordinates":[6.1316,49.6016]}},{"type":"Feature","properties":{"en":"Eich","fr":"Eich"},"geometry":{"type":"Point","coordinates":[6.132,49.629]}}]}