{"type":"FeatureCollection","features":[{"type":"Feature","properties":{"en":"Saint-Louis","fr":"Saint-Louis"},"geometry":{"type":"Point","coordinates":[-16.5020809031398,16.0256974569328]}},{"type":"Feature","properties":{"en":"Pikine Department","fr":"département de Pikine"},"geometry":{"type":"Point","coordinates":[-17.399722222222,14.750277777778]}},{"type":"Feature","properties":{"en":"Sédhiou","fr":"Sédhiou"},"geometry":{"type":"Point","coordinates":[-15.5562690549688,12.7045794084409]}},{"type":"Feature","properties":{"en":"Louga","fr":"Louga"},"geometry":{"type":"Point","coordinates":[-16.2286519554979,15.6141683687426]}},{"type":"Feature","properties":{"en":"Kolda","fr":"Kolda"},"geometry":{"type":"Point","coordinates":[-14.9424720366633,12.9002085032465]}},{"type":"Feature","properties":{"en":"Ziguinchor Region","fr":"Ziguinchor"},"geometry":{"type":"Point","coordinates":[-16.2632529763486,12.5641490255234]}},{"type":"Feature","properties":{"en":"Kaolack","fr":"Kaolack"},"geometry":{"type":"Point","coordinates":[-16.076147165379,14.1651866699069]}},{"type":"Feature","properties":{"en":"Thiès Region","fr":"Thiès"},"geometry":{"type":"Point","coordinates":[-16.9359218184296,14.7910998716623]}},{"type":"Feature","properties":{"en":"Tambacounda Region","fr":"Tambacounda"},"geometry":{"type":"Point","coordinates":[-13.6711414347638,13.772557353447]}},{"type":"Feature","properties":{"en":"Diourbel Region","fr":"Diourbel"},"geometry":{"type":"Point","coordinates":[-16.0637327179006,14.7422319903066]}},{"type":"Feature","properties":{"en":"Dakar","fr":"Dakar"},"geometry":{"type":"Point","coordinates":[-17.4702941275634,14.7156587410228]}},{"type":"Feature","properties":{"en":"Matam","fr":"Matam"},"geometry":{"type":"Point","coordinates":[-13.257606797845,15.659973971382]}},{"type":"Feature","properties":{"en":"Fatick","fr":"Fatick"},"geometry":{"type":"Point","coordinates":[-16.4141666666667,14.3411111111111]}},{"type":"Feature","properties":{"en":"Guédiawaye Department","fr":"département de Guédiawaye"},"geometry":{"type":"Point","coordinates":[-17.3866111111111,14.7712222222222]}},{"type":"Feature","properties":{"en":"Kedougou Region","fr":"Région de Kédougou"},"geometry":{"type":"Point","coordinates":[-12.1744800142011,12.5594849486053]}},{"type":"Feature","properties":{"en":"Kaffrine","fr":"Kaffrine"},"geometry":{"type":"Point","coordinates":[-15.54986244238,14.1044423006127]}},{"type":"Feature","properties":{"en":"Louga Department","fr":"Louga"},"geometry":{"type":"Point","coordinates":[-16.2287693947908,15.6143203299288]}},{"type":"Feature","properties":{"en":"Podor Department","fr":"département de Podor"},"geometry":{"type":"Point","coordinates":[-14.9590036111184,16.6586397836412]}},{"type":"Feature","properties":{"en":"Saint-Louis Department","fr":"département de Saint-Louis"},"geometry":{"type":"Point","coordinates":[-16.4918789562264,16.0257800789496]}},{"type":"Feature","properties":{"en":"Bounkiling Department","fr":"Département de Bounkiling"},"geometry":{"type":"Point","coordinates":[-15.6935833333333,13.0406944444444]}},{"type":"Feature","properties":{"en":"Goudomp Department","fr":"Département de Goudomp"},"geometry":{"type":"Point","coordinates":[-15.8801666666667,12.5676666666667]}},{"type":"Feature","properties":{"en":"Sédhiou Department","fr":"Département de Sédhiou"},"geometry":{"type":"Point","coordinates":[-15.5573055555556,12.7118055555556]}},{"type":"Feature","properties":{"en":"Dakar Department","fr":"département de Dakar"},"geometry":{"type":"Point","coordinates":[-17.45,14.7]}},{"type":"Feature","properties":{"en":"Rufisque Department","fr":"département de Rufisque"},"geometry":{"type":"Point","coordinates":[-17.2713888888889,14.7133333333333]}},{"type":"Feature","properties":{"en":"Médina Yoro Foulah Department","fr":"département de Médina Yoro Foulah"},"geometry":{"type":"Point","coordinates":[-14.7142645413538,13.2905795610082]}},{"type":"Feature","properties":{"en":"Kolda Department","fr":"département de Kolda"},"geometry":{"type":"Point","coordinates":[-14.95,12.883]}},{"type":"Feature","properties":{"en":"Vélingara Department","fr":"département de Vélingara"},"geometry":{"type":"Point","coordinates":[-14.1,13.125]}},{"type":"Feature","properties":{"en":"Linguère","fr":"Linguère"},"geometry":{"type":"Point","coordinates":[-15.119166666667,15.395277777778]}},{"type":"Feature","properties":{"en":"Matam","fr":"Matam"},"geometry":{"type":"Point","coordinates":[-13.330277777778,15.6175]}},{"type":"Feature","properties":{"en":"Kanel Department","fr":"Kanel"},"geometry":{"type":"Point","coordinates":[-13.176388888889,15.491666666667]}},{"type":"Feature","properties":{"en":"Ranérou Ferlo Department","fr":"Ranérou-Ferlo"},"geometry":{"type":"Point","coordinates":[-13.9559570212778,15.295679260522]}},{"type":"Feature","properties":{"en":"Kébémer","fr":"Kébémer"},"geometry":{"type":"Point","coordinates":[-16.45,15.37]}},{"type":"Feature","properties":{"en":"Ziguinchor Department","fr":"Département de Ziguinchor"},"geometry":{"type":"Point","coordinates":[-16.2751111111111,12.5849444444444]}},{"type":"Feature","properties":{"en":"Oussouye Department","fr":"Département d'Oussouye"},"geometry":{"type":"Point","coordinates":[-16.5446666666667,12.4873888888889]}},{"type":"Feature","properties":{"en":"Bignona Department","fr":"Département de Bignona"},"geometry":{"type":"Point","coordinates":[-16.2297222222222,12.8116666666667]}},{"type":"Feature","properties":{"en":"Ouro Sogui","fr":"Ourossogui"},"geometry":{"type":"Point","coordinates":[-13.3204,15.6015]}},{"type":"Feature","properties":{"en":"Dagana Department","fr":"département de Dagana"},"geometry":{"type":"Point","coordinates":[-15.6,16.47666667]}},{"type":"Feature","properties":{"en":"Gossas","fr":"Gossas"},"geometry":{"type":"Point","coordinates":[-16.0675,14.4915]}},{"type":"Feature","properties":{"en":"Karang Poste","fr":"Karang Poste"},"geometry":{"type":"Point","coordinates":[-16.4256388888889,13.6086388888889]}},{"type":"Feature","properties":{"en":"Keur Massar Department","fr":"département de Keur Massar"},"geometry":{"type":"Point","coordinates":[-17.3139,14.7785]}},{"type":"Feature","properties":{"en":"Rosso","fr":"Rosso"},"geometry":{"type":"Point","coordinates":[-15.8167,16.5]}},{"type":"Feature","properties":{"en":"Baba Garage","fr":"Baba Garage"},"geometry":{"type":"Point","coordinates":[-16.4893611111111,14.9428611111111]}},{"type":"Feature","properties":{"en":"Diaoulé","fr":"Diaoulé"},"geometry":{"type":"Point","coordinates":[-16.2216111111111,14.3781944444444]}},{"type":"Feature","properties":{"en":"Keur Samba Guèye","fr":"Keur Samba Guèye"},"geometry":{"type":"Point","coordinates":[-16.3613333333333,13.6498611111111]}},{"type":"Feature","properties":{"en":"Keur Samba Kane","fr":"Keur Samba Kane"},"geometry":{"type":"Point","coordinates":[-16.5979171687369,14.8968213860506]}},{"type":"Feature","properties":{"en":"Koul","fr":"Koul"},"geometry":{"type":"Point","coordinates":[-16.6289722222222,15.0694444444444]}},{"type":"Feature","properties":{"en":"Mérina Dakhar","fr":"Mérina Dakhar"},"geometry":{"type":"Point","coordinates":[-16.5478888888889,15.1048055555556]}},{"type":"Feature","properties":{"en":"Ndiob","fr":"Ndiob"},"geometry":{"type":"Point","coordinates":[-16.2525,14.5491666666667]}},{"type":"Feature","properties":{"en":"Ndiène Lagane","fr":"Ndiène Lagane"},"geometry":{"type":"Point","coordinates":[-15.921,14.5143055555556]}},{"type":"Feature","properties":{"en":"Ngoye","fr":"Ngoye"},"geometry":{"type":"Point","coordinates":[-16.4333333333333,14.6416666666667]}},{"type":"Feature","properties":{"en":"Nguélou","fr":"Nguélou"},"geometry":{"type":"Point","coordinates":[-15.952686,14.373769]}},{"type":"Feature","properties":{"en":"Ouadiour","fr":"Ouadiour"},"geometry":{"type":"Point","coordinates":[-16.0565277777778,14.4385833333333]}},{"type":"Feature","properties":{"en":"Patar Lia","fr":"Patar Lia"},"geometry":{"type":"Point","coordinates":[-16.1570555555556,14.4908055555556]}},{"type":"Feature","properties":{"en":"Tocky Gare","fr":"Tocky Gare"},"geometry":{"type":"Point","coordinates":[-16.1483333333333,14.5941666666667]}},{"type":"Feature","properties":{"en":"","fr":"Toure Mbonde"},"geometry":{"type":"Point","coordinates":[-16.2211111111111,14.7261111111111]}},{"type":"Feature","properties":{"en":"","fr":"Nabadji Civol"},"geometry":{"type":"Point","coordinates":[-13.3883333333333,15.7402777777778]}},{"type":"Feature","properties":{"en":"Ngohe","fr":"Ngohe"},"geometry":{"type":"Point","coordinates":[-16.2880555555556,14.6222222222222]}},{"type":"Feature","properties":{"en":"Ourour","fr":"Ourour"},"geometry":{"type":"Point","coordinates":[-16.03213,14.325766]}},{"type":"Feature","properties":{"en":"","fr":"Thiakhar"},"geometry":{"type":"Point","coordinates":[-16.3608333333333,14.6969444444444]}},{"type":"Feature","properties":{"en":"Touba Mboul","fr":"Touba Mboul"},"geometry":{"type":"Point","coordinates":[-15.9511111111111,14.5733333333333]}},{"type":"Feature","properties":{"en":"","fr":"Ndioumane"},"geometry":{"type":"Point","coordinates":[-15.9983333333333,14.6302777777778]}}]}