{"type":"FeatureCollection","features":[{"type":"Feature","properties":{"en":"Burgundy","fr":"Bourgogne"},"geometry":{"type":"Point","coordinates":[4.5,47.0]}},{"type":"Feature","properties":{"en":"French Guiana","fr":"Guyane"},"geometry":{"type":"Point","coordinates":[-53.0,4.0]}},{"type":"Feature","properties":{"en":"Brittany","fr":"Bretagne"},"geometry":{"type":"Point","coordinates":[-3.0,48.0]}},{"type":"Feature","properties":{"en":"Île-de-France","fr":"Île-de-France"},"geometry":{"type":"Point","coordinates":[2.31666666666667,48.85]}},{"type":"Feature","properties":{"en":"Centre-Val de Loire","fr":"Centre-Val de Loire"},"geometry":{"type":"Point","coordinates":[1.75,47.5]}},{"type":"Feature","properties":{"en":"Picardy","fr":"Picardie"},"geometry":{"type":"Point","coordinates":[2.8333333333333,49.5]}},{"type":"Feature","properties":{"en":"Provence-Alpes-Côte d'Azur","fr":"Provence-Alpes-Côte d'Azur"},"geometry":{"type":"Point","coordinates":[6.0,44.0]}},{"type":"Feature","properties":{"en":"Franche-Comté","fr":"Franche-Comté"},"geometry":{"type":"Point","coordinates":[6.0,47.0]}},{"type":"Feature","properties":{"en":"Pays de la Loire","fr":"Pays de la Loire"},"geometry":{"type":"Point","coordinates":[-0.85,47.4166666666667]}},{"type":"Feature","properties":{"en":"Languedoc-Roussillon","fr":"Languedoc-Roussillon"},"geometry":{"type":"Point","coordinates":[3.1666666666667,43.666666666667]}},{"type":"Feature","properties":{"en":"Mayotte","fr":"Mayotte"},"geometry":{"type":"Point","coordinates":[45.138333333333,-12.843055555556]}},{"type":"Feature","properties":{"en":"Réunion","fr":"La Réunion"},"geometry":{"type":"Point","coordinates":[55.5325,-21.114444444444]}},{"type":"Feature","properties":{"en":"Auvergne-Rhône-Alpes","fr":"Auvergne-Rhône-Alpes"},"geometry":{"type":"Point","coordinates":[4.8,45.7]}},{"type":"Feature","properties":{"en":"Bourgogne-Franche-Comté","fr":"Bourgogne-Franche-Comté"},"geometry":{"type":"Point","coordinates":[6.0305,47.2345277777778]}},{"type":"Feature","properties":{"en":"Hauts-de-France","fr":"Hauts-de-France"},"geometry":{"type":"Point","coordinates":[2.7,49.9166666666667]}},{"type":"Feature","properties":{"en":"Normandy","fr":"Normandie"},"geometry":{"type":"Point","coordinates":[-0.35,49.1833333333333]}},{"type":"Feature","properties":{"en":"Grand Est","fr":"Grand Est"},"geometry":{"type":"Point","coordinates":[7.75,48.5833333333333]}},{"type":"Feature","properties":{"en":"Nouvelle-Aquitaine","fr":"Nouvelle-Aquitaine"},"geometry":{"type":"Point","coordinates":[-0.583333333333333,44.8333333333333]}},{"type":"Feature","properties":{"en":"Occitania","fr":"Occitanie"},"geometry":{"type":"Point","coordinates":[2.1375,43.7075]}}]}