{"type":"FeatureCollection","features":[{"type":"Feature","properties":{"en":"Kuta","fr":"Kuta"},"geometry":{"type":"Point","coordinates":[115.171275,-8.723486]}},{"type":"Feature","properties":{"en":"Purwakarta","fr":"Purwakarta"},"geometry":{"type":"Point","coordinates":[107.44,-6.54]}},{"type":"Feature","properties":{"en":"Martapura","fr":"Martapura"},"geometry":{"type":"Point","coordinates":[114.85,-3.4166666666667]}},{"type":"Feature","properties":{"en":"Danurejan","fr":"Danurejan"},"geometry":{"type":"Point","coordinates":[110.37300133375,-7.7942844752682]}},{"type":"Feature","properties":{"en":"Mengwi","fr":"Mengwi"},"geometry":{"type":"Point","coordinates":[115.16666667,-8.55]}},{"type":"Feature","properties":{"en":"South Pontianak","fr":"Pontianak Selatan"},"geometry":{"type":"Point","coordinates":[109.315054189409,-0.0623522401274349]}},{"type":"Feature","properties":{"en":"East Pontianak","fr":"Pontianak Timur"},"geometry":{"type":"Point","coordinates":[109.36008333,-0.0315]}},{"type":"Feature","properties":{"en":"West Pontianak","fr":"Pontianak Barat"},"geometry":{"type":"Point","coordinates":[109.297,-0.00797222]}},{"type":"Feature","properties":{"en":"Pontianak Kota","fr":"Pontianak"},"geometry":{"type":"Point","coordinates":[109.322653876919,-0.0328049467538928]}},{"type":"Feature","properties":{"en":"South East Pontianak","fr":"Pontianak Tenggara"},"geometry":{"type":"Point","coordinates":[109.349300905614,-0.0796192477075929]}},{"type":"Feature","properties":{"en":"Tanjungkarang Pusat","fr":"Tanjung Karang Pusat"},"geometry":{"type":"Point","coordinates":[105.247121809935,-5.41846953734047]}},{"type":"Feature","properties":{"en":"South Teluk Betung","fr":"Teluk Betung Selatan"},"geometry":{"type":"Point","coordinates":[105.2595864,-5.4523924]}},{"type":"Feature","properties":{"en":"East Tanjungkarang","fr":"Tanjung Karang Timur"},"geometry":{"type":"Point","coordinates":[105.29805555556,-5.4133333333333]}},{"type":"Feature","properties":{"en":"Kemiling","fr":"Kemiling"},"geometry":{"type":"Point","coordinates":[105.209047644721,-5.39970449046815]}},{"type":"Feature","properties":{"en":"Rajabasa","fr":"Rajabasa"},"geometry":{"type":"Point","coordinates":[105.230803419105,-5.37101177310416]}},{"type":"Feature","properties":{"en":"Panjang","fr":"Panjang"},"geometry":{"type":"Point","coordinates":[105.31833333333,-5.4558333333333]}},{"type":"Feature","properties":{"en":"Tanjung Senang","fr":"Tanjung Senang"},"geometry":{"type":"Point","coordinates":[105.273212764938,-5.36005409893387]}},{"type":"Feature","properties":{"en":"Sukabumi","fr":"Sukabumi"},"geometry":{"type":"Point","coordinates":[105.305896154191,-5.39973696580873]}},{"type":"Feature","properties":{"en":"West Telukbetung","fr":"Teluk Betung Barat"},"geometry":{"type":"Point","coordinates":[105.23888888889,-5.4563888888889]}},{"type":"Feature","properties":{"en":"West Tanjungkarang","fr":"Tanjung Karang Barat"},"geometry":{"type":"Point","coordinates":[105.22111111111,-5.4011111111111]}},{"type":"Feature","properties":{"en":"North Telukbetung","fr":"Teluk Betung Utara"},"geometry":{"type":"Point","coordinates":[105.262449669727,-5.43923514942315]}},{"type":"Feature","properties":{"en":"Sukarame","fr":""},"geometry":{"type":"Point","coordinates":[105.29,-5.3927777777778]}},{"type":"Feature","properties":{"en":"Kedaton","fr":"Kedaton"},"geometry":{"type":"Point","coordinates":[105.254145438889,-5.39052168055556]}},{"type":"Feature","properties":{"en":"Landasan Ulin","fr":"Landasan Ulin"},"geometry":{"type":"Point","coordinates":[114.763808491383,-3.45531443537475]}},{"type":"Feature","properties":{"en":"Bati Bati","fr":"Bati-Bati"},"geometry":{"type":"Point","coordinates":[114.704341172405,-3.59807042648544]}},{"type":"Feature","properties":{"en":"Cempaka","fr":""},"geometry":{"type":"Point","coordinates":[114.838622220386,-3.5017326890988]}},{"type":"Feature","properties":{"en":"Jogorogo","fr":"Jogorogo"},"geometry":{"type":"Point","coordinates":[111.250833333333,-7.52222222222222]}},{"type":"Feature","properties":{"en":"South Kuta","fr":"Kuta Selatan"},"geometry":{"type":"Point","coordinates":[115.177985,-8.783153]}},{"type":"Feature","properties":{"en":"Gerih","fr":"Gerih"},"geometry":{"type":"Point","coordinates":[111.373349308301,-7.5206269864945]}},{"type":"Feature","properties":{"en":"North Kuta","fr":"Kuta Utara"},"geometry":{"type":"Point","coordinates":[115.162295,-8.645222]}},{"type":"Feature","properties":{"en":"Karang Intan","fr":"Karang Intan"},"geometry":{"type":"Point","coordinates":[114.925295390935,-3.43516655013776]}},{"type":"Feature","properties":{"en":"Margomulyo","fr":"Margomulyo"},"geometry":{"type":"Point","coordinates":[111.4872,-7.3211]}},{"type":"Feature","properties":{"en":"Geneng","fr":"Geneng"},"geometry":{"type":"Point","coordinates":[111.42946685008,-7.49109816387595]}},{"type":"Feature","properties":{"en":"Kasreman","fr":"Kasreman"},"geometry":{"type":"Point","coordinates":[111.513558190553,-7.40713192422631]}},{"type":"Feature","properties":{"en":"Kwadungan","fr":"Kwadungan"},"geometry":{"type":"Point","coordinates":[111.5075,-7.51]}},{"type":"Feature","properties":{"en":"Ngawi","fr":"Ngawi"},"geometry":{"type":"Point","coordinates":[111.45777777778,-7.4105555555556]}},{"type":"Feature","properties":{"en":"Padas","fr":"Padas"},"geometry":{"type":"Point","coordinates":[111.52083333333,-7.4191666666667]}},{"type":"Feature","properties":{"en":"Paron","fr":"Paron"},"geometry":{"type":"Point","coordinates":[111.37027777778,-7.4708333333333]}},{"type":"Feature","properties":{"en":"Pitu","fr":"Pitu"},"geometry":{"type":"Point","coordinates":[111.35777777778,-7.3594444444444]}},{"type":"Feature","properties":{"en":"Gambut","fr":"Gambut"},"geometry":{"type":"Point","coordinates":[114.672582859411,-3.40949743717416]}},{"type":"Feature","properties":{"en":"Balikpapan Kota","fr":"Balikpapan Kota"},"geometry":{"type":"Point","coordinates":[116.825394665227,-1.27903891830185]}},{"type":"Feature","properties":{"en":"Balikpapan Tengah","fr":"Balikpapan Tengah"},"geometry":{"type":"Point","coordinates":[116.8312,-1.2592]}},{"type":"Feature","properties":{"en":"North Banjarbaru","fr":"Banjarbaru Utara"},"geometry":{"type":"Point","coordinates":[114.832992126097,-3.44024471572191]}},{"type":"Feature","properties":{"en":"South Banjarbaru","fr":"Banjarbaru Selatan"},"geometry":{"type":"Point","coordinates":[114.818352502724,-3.45376612100495]}},{"type":"Feature","properties":{"en":"Bumi Waras","fr":"Bumi Waras"},"geometry":{"type":"Point","coordinates":[105.286449400133,-5.44478385539518]}},{"type":"Feature","properties":{"en":"West Denpasar","fr":"Denpasar Barat"},"geometry":{"type":"Point","coordinates":[115.195006,-8.651647]}},{"type":"Feature","properties":{"en":"South Denpasar","fr":"Denpasar Selatan"},"geometry":{"type":"Point","coordinates":[115.226,-8.6991]}},{"type":"Feature","properties":{"en":"Enggal","fr":"Enggal"},"geometry":{"type":"Point","coordinates":[105.264271219301,-5.42138891589395]}},{"type":"Feature","properties":{"en":"Kedamaian","fr":"Kedamaian"},"geometry":{"type":"Point","coordinates":[105.289837899062,-5.41824956901343]}},{"type":"Feature","properties":{"en":"Langkapura","fr":"Langkapura"},"geometry":{"type":"Point","coordinates":[105.229116496112,-5.4020204859129]}},{"type":"Feature","properties":{"en":"Liang Anggang","fr":"Liang Anggang"},"geometry":{"type":"Point","coordinates":[114.692609367017,-3.44181444728719]}},{"type":"Feature","properties":{"en":"East Telukbetung","fr":"Teluk Betung Timur"},"geometry":{"type":"Point","coordinates":[105.245423050593,-5.46944093230992]}},{"type":"Feature","properties":{"en":"Way Halim","fr":"Way Halim"},"geometry":{"type":"Point","coordinates":[105.276523286629,-5.38779292888176]}},{"type":"Feature","properties":{"en":"Sungai Ambawang","fr":"Sungai Ambawang"},"geometry":{"type":"Point","coordinates":[109.410355871012,-0.0389160422539379]}},{"type":"Feature","properties":{"en":"Labuhan Ratu","fr":""},"geometry":{"type":"Point","coordinates":[105.254010361906,-5.35987334266722]}}]}