{"type":"FeatureCollection","features":[{"type":"Feature","properties":{"en":"Seoul","fr":"Séoul"},"geometry":{"type":"Point","coordinates":[126.99,37.56]}},{"type":"Feature","properties":{"en":"Busan","fr":"Pusan"},"geometry":{"type":"Point","coordinates":[129.075,35.18]}},{"type":"Feature","properties":{"en":"Daejeon","fr":"Daejeon"},"geometry":{"type":"Point","coordinates":[127.385,36.35]}},{"type":"Feature","properties":{"en":"Daegu","fr":"Daegu"},"geometry":{"type":"Point","coordinates":[128.601666666667,35.8716666666667]}},{"type":"Feature","properties":{"en":"Sejong","fr":"Sejong"},"geometry":{"type":"Point","coordinates":[127.282234,36.487002]}},{"type":"Feature","properties":{"en":"Incheon","fr":"Incheon"},"geometry":{"type":"Point","coordinates":[126.64861111111,37.463888888889]}},{"type":"Feature","properties":{"en":"Gyeonggi Province","fr":"Gyeonggi"},"geometry":{"type":"Point","coordinates":[127.25,37.5]}},{"type":"Feature","properties":{"en":"North Chungcheong","fr":"Chungcheong du Nord"},"geometry":{"type":"Point","coordinates":[127.65685,36.82153]}},{"type":"Feature","properties":{"en":"South Chungcheong","fr":"Chungcheong du Sud"},"geometry":{"type":"Point","coordinates":[126.75,36.5]}},{"type":"Feature","properties":{"en":"Gangwon Province","fr":"Gangwon"},"geometry":{"type":"Point","coordinates":[128.25,37.5]}},{"type":"Feature","properties":{"en":"South Gyeongsang","fr":"Gyeongsang du Sud"},"geometry":{"type":"Point","coordinates":[128.691934,35.237838]}},{"type":"Feature","properties":{"en":"North Gyeongsang","fr":"Gyeongsang du Nord"},"geometry":{"type":"Point","coordinates":[128.75,36.25]}},{"type":"Feature","properties":{"en":"North Jeolla","fr":"Jeolla du Nord"},"geometry":{"type":"Point","coordinates":[127.10957,35.82013]}},{"type":"Feature","properties":{"en":"South Jeolla","fr":"Jeolla du Sud"},"geometry":{"type":"Point","coordinates":[126.462975,34.816252]}},{"type":"Feature","properties":{"en":"Ulsan","fr":"Ulsan"},"geometry":{"type":"Point","coordinates":[129.31666666667,35.55]}},{"type":"Feature","properties":{"en":"Gwangju","fr":"Gwangju"},"geometry":{"type":"Point","coordinates":[126.91666666667,35.166666666667]}},{"type":"Feature","properties":{"en":"Miryang","fr":"Miryang"},"geometry":{"type":"Point","coordinates":[128.74888888889,35.493333333333]}},{"type":"Feature","properties":{"en":"Iksan","fr":"Iksan"},"geometry":{"type":"Point","coordinates":[126.95444444444,35.943888888889]}},{"type":"Feature","properties":{"en":"Jeonju","fr":"Jeonju"},"geometry":{"type":"Point","coordinates":[127.14888888889,35.821944444444]}},{"type":"Feature","properties":{"en":"Hwaseong","fr":"Hwaseong"},"geometry":{"type":"Point","coordinates":[126.76666666667,37.2]}},{"type":"Feature","properties":{"en":"Goryeong County","fr":"district de Goryeong"},"geometry":{"type":"Point","coordinates":[128.26888888889,35.730277777778]}},{"type":"Feature","properties":{"en":"Seongju County","fr":"district de Seongju"},"geometry":{"type":"Point","coordinates":[128.28583333333,35.917777777778]}},{"type":"Feature","properties":{"en":"Yeongdong County","fr":"district de Yeongdong"},"geometry":{"type":"Point","coordinates":[127.77638888889,36.175]}},{"type":"Feature","properties":{"en":"Cheorwon County","fr":"district de Cheorwon"},"geometry":{"type":"Point","coordinates":[127.2175,38.209167]}},{"type":"Feature","properties":{"en":"Hapcheon County","fr":"district de Hapcheon"},"geometry":{"type":"Point","coordinates":[128.15944444444,35.565555555556]}},{"type":"Feature","properties":{"en":"Deokjin-gu","fr":""},"geometry":{"type":"Point","coordinates":[127.134363,35.829359]}},{"type":"Feature","properties":{"en":"Wansan-gu","fr":""},"geometry":{"type":"Point","coordinates":[127.12,35.8122]}},{"type":"Feature","properties":{"en":"Changwon","fr":"Changwon"},"geometry":{"type":"Point","coordinates":[128.68111111111,35.228055555556]}}]}