{"type":"FeatureCollection","features":[{"type":"Feature","properties":{"en":"Ōura-cho","fr":"Ōura"},"geometry":{"type":"Point","coordinates":[130.2258333,31.3775]}},{"type":"Feature","properties":{"en":"Kanmyo","fr":""},"geometry":{"type":"Point","coordinates":[130.28066667,31.720225]}},{"type":"Feature","properties":{"en":"Kamikoshiki-cho Nakakoshiki","fr":""},"geometry":{"type":"Point","coordinates":[129.865,31.834972]}},{"type":"Feature","properties":{"en":"Kamikoshiki-cho Nakano","fr":""},"geometry":{"type":"Point","coordinates":[129.879028,31.83725]}},{"type":"Feature","properties":{"en":"Kamikoshiki-cho Oshima","fr":""},"geometry":{"type":"Point","coordinates":[129.862222,31.855278]}},{"type":"Feature","properties":{"en":"Kamikoshiki-cho Taira","fr":""},"geometry":{"type":"Point","coordinates":[129.840639,31.800972]}},{"type":"Feature","properties":{"en":"Kamikoshiki-cho Kuwanoura","fr":""},"geometry":{"type":"Point","coordinates":[129.838083,31.864028]}},{"type":"Feature","properties":{"en":"Kamikoshiki-cho Eishi","fr":""},"geometry":{"type":"Point","coordinates":[129.870694,31.822694]}},{"type":"Feature","properties":{"en":"Kamikoshiki-cho Segami","fr":""},"geometry":{"type":"Point","coordinates":[129.862861,31.8605]}},{"type":"Feature","properties":{"en":"Shimo-Sakunobe","fr":""},"geometry":{"type":"Point","coordinates":[139.600352777778,35.6037583333333]}},{"type":"Feature","properties":{"en":"Shimotomi","fr":""},"geometry":{"type":"Point","coordinates":[139.465858,35.827139]}},{"type":"Feature","properties":{"en":"Shimokoshiki-chō Teuchi","fr":""},"geometry":{"type":"Point","coordinates":[129.701583,31.638111]}},{"type":"Feature","properties":{"en":"Shimokoshiki-Chō Sesenoura","fr":""},"geometry":{"type":"Point","coordinates":[129.6936325,31.6914007]}},{"type":"Feature","properties":{"en":"Shimokoshiki-cho Katanoura","fr":""},"geometry":{"type":"Point","coordinates":[129.691528,31.661306]}},{"type":"Feature","properties":{"en":"Shimokoshiki-chō Nagahama","fr":""},"geometry":{"type":"Point","coordinates":[129.736194,31.7]}},{"type":"Feature","properties":{"en":"Shimokoshiki-chō Aose","fr":""},"geometry":{"type":"Point","coordinates":[129.72575,31.673806]}},{"type":"Feature","properties":{"en":"Shimo-tsuruma","fr":""},"geometry":{"type":"Point","coordinates":[139.458138888889,35.489675]}},{"type":"Feature","properties":{"en":"Nakatomi","fr":""},"geometry":{"type":"Point","coordinates":[139.4873,35.82092]}},{"type":"Feature","properties":{"en":"Kururi","fr":""},"geometry":{"type":"Point","coordinates":[140.08,35.295278]}},{"type":"Feature","properties":{"en":"Kururi-Ichiba","fr":"Kururi-Ichiba"},"geometry":{"type":"Point","coordinates":[140.07694444,35.29527778]}},{"type":"Feature","properties":{"en":"","fr":""},"geometry":{"type":"Point","coordinates":[130.432917,31.674833]}},{"type":"Feature","properties":{"en":"Ijūin-chō Shimokōdono","fr":""},"geometry":{"type":"Point","coordinates":[130.414722,31.656083]}},{"type":"Feature","properties":{"en":"Ijūin-chō Shimotaniguchi","fr":""},"geometry":{"type":"Point","coordinates":[130.397389,31.626472]}},{"type":"Feature","properties":{"en":"","fr":""},"geometry":{"type":"Point","coordinates":[130.453556,31.647167]}},{"type":"Feature","properties":{"en":"","fr":""},"geometry":{"type":"Point","coordinates":[130.394139,31.599444]}},{"type":"Feature","properties":{"en":"Ijūin-chō Ōta","fr":""},"geometry":{"type":"Point","coordinates":[130.373583,31.631694]}},{"type":"Feature","properties":{"en":"","fr":""},"geometry":{"type":"Point","coordinates":[130.447583,31.640361]}},{"type":"Feature","properties":{"en":"Ijūin-chō Myōenji","fr":""},"geometry":{"type":"Point","coordinates":[130.395833,31.642639]}},{"type":"Feature","properties":{"en":"","fr":""},"geometry":{"type":"Point","coordinates":[130.37225,31.634889]}},{"type":"Feature","properties":{"en":"Ijūin-chō Tokushige","fr":""},"geometry":{"type":"Point","coordinates":[130.395833,31.629139]}},{"type":"Feature","properties":{"en":"","fr":""},"geometry":{"type":"Point","coordinates":[130.409389,31.600167]}},{"type":"Feature","properties":{"en":"","fr":""},"geometry":{"type":"Point","coordinates":[130.415389,31.625833]}},{"type":"Feature","properties":{"en":"","fr":""},"geometry":{"type":"Point","coordinates":[130.405167,31.627583]}},{"type":"Feature","properties":{"en":"","fr":""},"geometry":{"type":"Point","coordinates":[130.457806,31.633722]}},{"type":"Feature","properties":{"en":"Ijūin-chō Kōri","fr":""},"geometry":{"type":"Point","coordinates":[130.400333,31.634306]}},{"type":"Feature","properties":{"en":"","fr":""},"geometry":{"type":"Point","coordinates":[130.38425,31.650194]}},{"type":"Feature","properties":{"en":"","fr":""},"geometry":{"type":"Point","coordinates":[130.392056,31.605028]}},{"type":"Feature","properties":{"en":"","fr":""},"geometry":{"type":"Point","coordinates":[130.440278,31.652694]}},{"type":"Feature","properties":{"en":"Iriki-chō Soeda","fr":""},"geometry":{"type":"Point","coordinates":[130.436611,31.824278]}},{"type":"Feature","properties":{"en":"Iriki-chō Uranomyō","fr":""},"geometry":{"type":"Point","coordinates":[130.431833,31.8045]}},{"type":"Feature","properties":{"en":"Kita Iwaoka","fr":""},"geometry":{"type":"Point","coordinates":[139.44692777778,35.821016666667]}},{"type":"Feature","properties":{"en":"Minami-Ōya","fr":""},"geometry":{"type":"Point","coordinates":[139.4536111,35.55361111]}},{"type":"Feature","properties":{"en":"","fr":""},"geometry":{"type":"Point","coordinates":[130.41525,31.524694]}},{"type":"Feature","properties":{"en":"Fukiage-chō Nakahara","fr":""},"geometry":{"type":"Point","coordinates":[130.349417,31.508639]}},{"type":"Feature","properties":{"en":"","fr":""},"geometry":{"type":"Point","coordinates":[130.348917,31.504194]}},{"type":"Feature","properties":{"en":"","fr":""},"geometry":{"type":"Point","coordinates":[130.337889,31.509417]}},{"type":"Feature","properties":{"en":"","fr":""},"geometry":{"type":"Point","coordinates":[130.354389,31.482139]}},{"type":"Feature","properties":{"en":"Fukiage-chō Iriki","fr":""},"geometry":{"type":"Point","coordinates":[130.333389,31.495833]}},{"type":"Feature","properties":{"en":"","fr":""},"geometry":{"type":"Point","coordinates":[130.338278,31.537417]}},{"type":"Feature","properties":{"en":"Fukiage-chō Nagayoshi","fr":""},"geometry":{"type":"Point","coordinates":[130.355444,31.559944]}},{"type":"Feature","properties":{"en":"","fr":""},"geometry":{"type":"Point","coordinates":[130.36775,31.501889]}},{"type":"Feature","properties":{"en":"Fukiage-chō Tajiri","fr":""},"geometry":{"type":"Point","coordinates":[130.361472,31.529222]}},{"type":"Feature","properties":{"en":"","fr":""},"geometry":{"type":"Point","coordinates":[130.34025,31.527194]}},{"type":"Feature","properties":{"en":"Kokubu-Shikine","fr":""},"geometry":{"type":"Point","coordinates":[130.799222,31.701139]}},{"type":"Feature","properties":{"en":"Tōnosawa","fr":"Tōnosawa"},"geometry":{"type":"Point","coordinates":[139.093972222222,35.2344444444444]}},{"type":"Feature","properties":{"en":"Ōhiradai","fr":""},"geometry":{"type":"Point","coordinates":[139.073833333333,35.239]}},{"type":"Feature","properties":{"en":"Ōya","fr":""},"geometry":{"type":"Point","coordinates":[139.390788888889,35.4449527777778]}},{"type":"Feature","properties":{"en":"Osato","fr":""},"geometry":{"type":"Point","coordinates":[130.29875,31.68613889]}},{"type":"Feature","properties":{"en":"Komaki","fr":""},"geometry":{"type":"Point","coordinates":[130.57933333,31.29941667]}},{"type":"Feature","properties":{"en":"Shibushichoshibushi","fr":"ville de Shibushi"},"geometry":{"type":"Point","coordinates":[131.095694,31.473139]}},{"type":"Feature","properties":{"en":"Narigawa","fr":""},"geometry":{"type":"Point","coordinates":[140.03836111,35.12980556]}},{"type":"Feature","properties":{"en":"Hiyoshi-chō Yoshitoshi","fr":""},"geometry":{"type":"Point","coordinates":[130.341917,31.572417]}},{"type":"Feature","properties":{"en":"","fr":""},"geometry":{"type":"Point","coordinates":[130.3425,31.609861]}},{"type":"Feature","properties":{"en":"","fr":""},"geometry":{"type":"Point","coordinates":[130.335611,31.609472]}},{"type":"Feature","properties":{"en":"Hiyoshi-chō Hioki","fr":""},"geometry":{"type":"Point","coordinates":[130.347139,31.589444]}},{"type":"Feature","properties":{"en":"Hon-Machida","fr":""},"geometry":{"type":"Point","coordinates":[139.43972222222,35.570555555556]}},{"type":"Feature","properties":{"en":"Higashiichiki-chō Izakuda","fr":""},"geometry":{"type":"Point","coordinates":[130.323139,31.650806]}},{"type":"Feature","properties":{"en":"Higashiichiki-chō Minamikaminokawa","fr":""},"geometry":{"type":"Point","coordinates":[130.334806,31.622472]}},{"type":"Feature","properties":{"en":"Higashiichiki-chō Miyata","fr":""},"geometry":{"type":"Point","coordinates":[130.34675,31.62675]}},{"type":"Feature","properties":{"en":"Higashiichiki-chō Terawaki","fr":""},"geometry":{"type":"Point","coordinates":[130.365444,31.634472]}},{"type":"Feature","properties":{"en":"Higashiichiki-chō Yuda","fr":""},"geometry":{"type":"Point","coordinates":[130.335278,31.670944]}},{"type":"Feature","properties":{"en":"Higashiichiki-chō Kaminokawa","fr":""},"geometry":{"type":"Point","coordinates":[130.333361,31.624667]}},{"type":"Feature","properties":{"en":"Higashiichiki-chō Miyama","fr":""},"geometry":{"type":"Point","coordinates":[130.362611,31.641806]}},{"type":"Feature","properties":{"en":"Higashiichiki-chō Yōbo","fr":""},"geometry":{"type":"Point","coordinates":[130.392389,31.683417]}},{"type":"Feature","properties":{"en":"Higashiichiki-chō Nagasato","fr":""},"geometry":{"type":"Point","coordinates":[130.34575,31.657889]}},{"type":"Feature","properties":{"en":"Tōgō-chō Nōze","fr":""},"geometry":{"type":"Point","coordinates":[130.389917,31.858972]}},{"type":"Feature","properties":{"en":"Tōgō-chō Shishino","fr":""},"geometry":{"type":"Point","coordinates":[130.332333,31.894861]}},{"type":"Feature","properties":{"en":"Tōgō-chō Yamada","fr":""},"geometry":{"type":"Point","coordinates":[130.387722,31.892556]}},{"type":"Feature","properties":{"en":"Togo-cho Onobuchi","fr":""},"geometry":{"type":"Point","coordinates":[130.336417,31.863528]}},{"type":"Feature","properties":{"en":"Tōgō-chō Fujikawa","fr":""},"geometry":{"type":"Point","coordinates":[130.319972,31.92275]}},{"type":"Feature","properties":{"en":"Tōgō-chō Torimaru","fr":""},"geometry":{"type":"Point","coordinates":[130.335528,31.890944]}},{"type":"Feature","properties":{"en":"Morino","fr":""},"geometry":{"type":"Point","coordinates":[139.4363889,35.55222222]}},{"type":"Feature","properties":{"en":"Ōhiramachi Enomoto","fr":""},"geometry":{"type":"Point","coordinates":[139.73,36.3225]}},{"type":"Feature","properties":{"en":"Hiwaki-chō Kurano","fr":""},"geometry":{"type":"Point","coordinates":[130.402778,31.851056]}},{"type":"Feature","properties":{"en":"Hiwaki-chō Ichihino","fr":""},"geometry":{"type":"Point","coordinates":[130.404722,31.789694]}},{"type":"Feature","properties":{"en":"Hiwaki-chō Tōnohara","fr":""},"geometry":{"type":"Point","coordinates":[130.384833,31.820583]}},{"type":"Feature","properties":{"en":"Ikeda","fr":""},"geometry":{"type":"Point","coordinates":[130.56325,31.26294444]}},{"type":"Feature","properties":{"en":"","fr":""},"geometry":{"type":"Point","coordinates":[130.29263889,31.69158333]}},{"type":"Feature","properties":{"en":"Mizobe-chō Fumoto","fr":""},"geometry":{"type":"Point","coordinates":[130.707694,31.791083]}},{"type":"Feature","properties":{"en":"Kedōin-chō Kamide","fr":""},"geometry":{"type":"Point","coordinates":[130.513444,31.868111]}},{"type":"Feature","properties":{"en":"Kedōin-chō Shimode","fr":""},"geometry":{"type":"Point","coordinates":[130.493139,31.869528]}},{"type":"Feature","properties":{"en":"Kedōin-chō Imuta","fr":""},"geometry":{"type":"Point","coordinates":[130.480722,31.801472]}},{"type":"Feature","properties":{"en":"Kedōin-chō kuroki","fr":""},"geometry":{"type":"Point","coordinates":[130.526278,31.88575]}},{"type":"Feature","properties":{"en":"Kōnoshimasotoura","fr":"Kōnoshimasotoura"},"geometry":{"type":"Point","coordinates":[133.510763,34.451591]}},{"type":"Feature","properties":{"en":"Kamegane","fr":""},"geometry":{"type":"Point","coordinates":[139.46473611111,35.823111111111]}},{"type":"Feature","properties":{"en":"Endō","fr":""},"geometry":{"type":"Point","coordinates":[139.440041666667,35.3871777777778]}},{"type":"Feature","properties":{"en":"Sato-chō Sato","fr":""},"geometry":{"type":"Point","coordinates":[129.917556,31.844056]}},{"type":"Feature","properties":{"en":"","fr":""},"geometry":{"type":"Point","coordinates":[141.499872,40.508954]}},{"type":"Feature","properties":{"en":"Kashima-cho Imuta","fr":""},"geometry":{"type":"Point","coordinates":[129.792,31.776806]}},{"type":"Feature","properties":{"en":"Katsuse","fr":""},"geometry":{"type":"Point","coordinates":[139.398705555556,35.4460777777778]}},{"type":"Feature","properties":{"en":"Sugikubo","fr":""},"geometry":{"type":"Point","coordinates":[139.391647222222,35.4271083333333]}},{"type":"Feature","properties":{"en":"","fr":""},"geometry":{"type":"Point","coordinates":[130.392722,31.653667]}},{"type":"Feature","properties":{"en":"Imazato","fr":""},"geometry":{"type":"Point","coordinates":[139.386166666667,35.4289444444444]}},{"type":"Feature","properties":{"en":"Iwamoto","fr":""},"geometry":{"type":"Point","coordinates":[130.60333333,31.29027778]}},{"type":"Feature","properties":{"en":"Kawaraguchi","fr":"Kawaraguchi"},"geometry":{"type":"Point","coordinates":[139.374952777778,35.4485333333333]}},{"type":"Feature","properties":{"en":"Nishikata","fr":""},"geometry":{"type":"Point","coordinates":[130.61944444,31.27611111]}},{"type":"Feature","properties":{"en":"Shake","fr":""},"geometry":{"type":"Point","coordinates":[139.3839,35.4268555555556]}},{"type":"Feature","properties":{"en":"Shin-Nishikata","fr":""},"geometry":{"type":"Point","coordinates":[130.59305556,31.27694444]}},{"type":"Feature","properties":{"en":"Mōchi","fr":""},"geometry":{"type":"Point","coordinates":[139.405719444444,35.4549388888889]}},{"type":"Feature","properties":{"en":"Higashiichiki-chō Miyamamototerawaki","fr":""},"geometry":{"type":"Point","coordinates":[130.358056,31.638611]}},{"type":"Feature","properties":{"en":"Higashikata","fr":""},"geometry":{"type":"Point","coordinates":[130.60638889,31.25416667]}},{"type":"Feature","properties":{"en":"","fr":""},"geometry":{"type":"Point","coordinates":[130.642778,31.240556]}},{"type":"Feature","properties":{"en":"Kadosawabashi","fr":""},"geometry":{"type":"Point","coordinates":[139.3772,35.4087777777778]}},{"type":"Feature","properties":{"en":"Naka-gōchi","fr":""},"geometry":{"type":"Point","coordinates":[139.392188888889,35.4158694444444]}},{"type":"Feature","properties":{"en":"","fr":""},"geometry":{"type":"Point","coordinates":[130.650556,31.230556]}},{"type":"Feature","properties":{"en":"Kami-imaizumi","fr":""},"geometry":{"type":"Point","coordinates":[139.399583333333,35.4663833333333]}},{"type":"Feature","properties":{"en":"Nakashinden","fr":""},"geometry":{"type":"Point","coordinates":[139.381602777778,35.4372]}},{"type":"Feature","properties":{"en":"Kamigō","fr":""},"geometry":{"type":"Point","coordinates":[139.382911111111,35.4589611111111]}},{"type":"Feature","properties":{"en":"Kami-gōchi","fr":""},"geometry":{"type":"Point","coordinates":[139.391872222222,35.4213805555556]}},{"type":"Feature","properties":{"en":"","fr":""},"geometry":{"type":"Point","coordinates":[130.560833,31.213056]}},{"type":"Feature","properties":{"en":"Kaimon Jutchō","fr":""},"geometry":{"type":"Point","coordinates":[130.5375,31.203611]}},{"type":"Feature","properties":{"en":"Kaimon-Senta","fr":""},"geometry":{"type":"Point","coordinates":[130.545833,31.215833]}},{"type":"Feature","properties":{"en":"Kaimon-Kawashiri","fr":""},"geometry":{"type":"Point","coordinates":[130.558611,31.179444]}},{"type":"Feature","properties":{"en":"Shimo-imaizumi","fr":""},"geometry":{"type":"Point","coordinates":[139.384230555556,35.4608083333333]}},{"type":"Feature","properties":{"en":"Jūnichō","fr":""},"geometry":{"type":"Point","coordinates":[130.64391667,31.22775]}},{"type":"Feature","properties":{"en":"Jutchō","fr":""},"geometry":{"type":"Point","coordinates":[130.628611,31.254167]}},{"type":"Feature","properties":{"en":"Nakano","fr":""},"geometry":{"type":"Point","coordinates":[139.374322222222,35.4154388888889]}},{"type":"Feature","properties":{"en":"Shin Izumi","fr":""},"geometry":{"type":"Point","coordinates":[140.35797222,35.814]}},{"type":"Feature","properties":{"en":"","fr":""},"geometry":{"type":"Point","coordinates":[139.87811111,35.33833333]}},{"type":"Feature","properties":{"en":"","fr":""},"geometry":{"type":"Point","coordinates":[139.88,35.3325]}},{"type":"Feature","properties":{"en":"","fr":""},"geometry":{"type":"Point","coordinates":[139.87111111,35.33333333]}},{"type":"Feature","properties":{"en":"Hongo","fr":""},"geometry":{"type":"Point","coordinates":[139.396486111111,35.4077472222222]}},{"type":"Feature","properties":{"en":"Engyō","fr":""},"geometry":{"type":"Point","coordinates":[139.457830555556,35.3954527777778]}},{"type":"Feature","properties":{"en":"","fr":""},"geometry":{"type":"Point","coordinates":[139.90138889,35.33055556]}},{"type":"Feature","properties":{"en":"","fr":""},"geometry":{"type":"Point","coordinates":[139.90527778,35.32]}},{"type":"Feature","properties":{"en":"","fr":""},"geometry":{"type":"Point","coordinates":[139.82880556,35.31436111]}},{"type":"Feature","properties":{"en":"Kamiyue","fr":""},"geometry":{"type":"Point","coordinates":[139.89472222,35.31444444]}},{"type":"Feature","properties":{"en":"Kōri","fr":""},"geometry":{"type":"Point","coordinates":[139.91111111,35.30083333]}},{"type":"Feature","properties":{"en":"Shimoyue","fr":""},"geometry":{"type":"Point","coordinates":[139.88638889,35.31944444]}},{"type":"Feature","properties":{"en":"","fr":""},"geometry":{"type":"Point","coordinates":[139.92416667,35.30805556]}},{"type":"Feature","properties":{"en":"Nakano","fr":""},"geometry":{"type":"Point","coordinates":[139.89111111,35.33222222]}},{"type":"Feature","properties":{"en":"Yawata","fr":""},"geometry":{"type":"Point","coordinates":[139.91194444,35.31777778]}},{"type":"Feature","properties":{"en":"Tsuchidana","fr":""},"geometry":{"type":"Point","coordinates":[139.451394444444,35.4004361111111]}},{"type":"Feature","properties":{"en":"Hayakawa","fr":""},"geometry":{"type":"Point","coordinates":[139.414988888889,35.4395888888889]}},{"type":"Feature","properties":{"en":"Yamagiwa","fr":""},"geometry":{"type":"Point","coordinates":[139.358052777778,35.5027527777778]}},{"type":"Feature","properties":{"en":"Kitakoyasu","fr":""},"geometry":{"type":"Point","coordinates":[139.91722222,35.33472222]}},{"type":"Feature","properties":{"en":"","fr":""},"geometry":{"type":"Point","coordinates":[139.92305556,35.32777778]}},{"type":"Feature","properties":{"en":"","fr":""},"geometry":{"type":"Point","coordinates":[139.91055556,35.30833333]}},{"type":"Feature","properties":{"en":"Sekiguchi","fr":""},"geometry":{"type":"Point","coordinates":[139.366258333333,35.4874527777778]}},{"type":"Feature","properties":{"en":"","fr":""},"geometry":{"type":"Point","coordinates":[139.90416667,35.30805556]}},{"type":"Feature","properties":{"en":"Shōkō","fr":""},"geometry":{"type":"Point","coordinates":[139.90083333,35.30305556]}},{"type":"Feature","properties":{"en":"","fr":""},"geometry":{"type":"Point","coordinates":[139.93222222,35.32333333]}},{"type":"Feature","properties":{"en":"","fr":""},"geometry":{"type":"Point","coordinates":[139.92388889,35.31666667]}},{"type":"Feature","properties":{"en":"","fr":""},"geometry":{"type":"Point","coordinates":[140.18647222,35.49491667]}},{"type":"Feature","properties":{"en":"Yōda","fr":""},"geometry":{"type":"Point","coordinates":[139.416936111111,35.4070111111111]}},{"type":"Feature","properties":{"en":"Hōgisaku","fr":""},"geometry":{"type":"Point","coordinates":[139.92861111,35.31888889]}},{"type":"Feature","properties":{"en":"","fr":""},"geometry":{"type":"Point","coordinates":[140.01,35.30277778]}},{"type":"Feature","properties":{"en":"","fr":""},"geometry":{"type":"Point","coordinates":[139.94222222,35.32]}},{"type":"Feature","properties":{"en":"Okugome","fr":""},"geometry":{"type":"Point","coordinates":[140.044444444444,35.2019444444444]}},{"type":"Feature","properties":{"en":"Kokubu-Kōrida","fr":""},"geometry":{"type":"Point","coordinates":[130.793661,31.76465]}},{"type":"Feature","properties":{"en":"Toyofusa","fr":""},"geometry":{"type":"Point","coordinates":[140.01194444,35.17777778]}},{"type":"Feature","properties":{"en":"Sanda","fr":""},"geometry":{"type":"Point","coordinates":[139.352555555556,35.4801472222222]}},{"type":"Feature","properties":{"en":"Yamagawa-Toshinaga","fr":""},"geometry":{"type":"Point","coordinates":[130.574997,31.207214]}},{"type":"Feature","properties":{"en":"Yamagawa-Ōyama","fr":""},"geometry":{"type":"Point","coordinates":[130.5969,31.200528]}},{"type":"Feature","properties":{"en":"Kokubu-Shigehisa","fr":""},"geometry":{"type":"Point","coordinates":[130.778228,31.768033]}},{"type":"Feature","properties":{"en":"Aikō","fr":""},"geometry":{"type":"Point","coordinates":[139.341930555556,35.4226444444444]}},{"type":"Feature","properties":{"en":"","fr":""},"geometry":{"type":"Point","coordinates":[140.145805555556,35.2835]}},{"type":"Feature","properties":{"en":"","fr":""},"geometry":{"type":"Point","coordinates":[140.11242,35.52762]}},{"type":"Feature","properties":{"en":"Yamagawa Okachogamizu","fr":""},"geometry":{"type":"Point","coordinates":[130.58885277778,31.176405555556]}},{"type":"Feature","properties":{"en":"","fr":""},"geometry":{"type":"Point","coordinates":[130.604447868409,31.199073795137]}},{"type":"Feature","properties":{"en":"Hayato-cho Kareigawa","fr":""},"geometry":{"type":"Point","coordinates":[130.722264,31.825767]}},{"type":"Feature","properties":{"en":"","fr":""},"geometry":{"type":"Point","coordinates":[140.122222222222,35.23]}},{"type":"Feature","properties":{"en":"","fr":""},"geometry":{"type":"Point","coordinates":[139.928611111111,35.2986111111111]}},{"type":"Feature","properties":{"en":"","fr":""},"geometry":{"type":"Point","coordinates":[139.921666666667,35.3019444444444]}},{"type":"Feature","properties":{"en":"","fr":""},"geometry":{"type":"Point","coordinates":[139.958055555556,35.3033333333333]}},{"type":"Feature","properties":{"en":"Izumi","fr":""},"geometry":{"type":"Point","coordinates":[139.945833333333,35.3005555555556]}},{"type":"Feature","properties":{"en":"Naraihara","fr":""},"geometry":{"type":"Point","coordinates":[139.999919444444,35.1379083333333]}},{"type":"Feature","properties":{"en":"","fr":""},"geometry":{"type":"Point","coordinates":[139.954444444444,35.3088888888889]}},{"type":"Feature","properties":{"en":"Sakada","fr":""},"geometry":{"type":"Point","coordinates":[139.886111111111,35.3430555555556]}},{"type":"Feature","properties":{"en":"","fr":""},"geometry":{"type":"Point","coordinates":[139.926944444444,35.285]}},{"type":"Feature","properties":{"en":"Yotsuya","fr":""},"geometry":{"type":"Point","coordinates":[139.385827777778,35.473625]}},{"type":"Feature","properties":{"en":"Shindenjuku","fr":""},"geometry":{"type":"Point","coordinates":[139.381397222222,35.4809277777778]}},{"type":"Feature","properties":{"en":"","fr":""},"geometry":{"type":"Point","coordinates":[140.05575,35.3487777777778]}},{"type":"Feature","properties":{"en":"","fr":""},"geometry":{"type":"Point","coordinates":[140.056361111111,35.3176111111111]}},{"type":"Feature","properties":{"en":"Bonotsu-cho Akime","fr":""},"geometry":{"type":"Point","coordinates":[130.199138888889,31.3610277777778]}},{"type":"Feature","properties":{"en":"","fr":""},"geometry":{"type":"Point","coordinates":[139.915277777778,35.2905555555556]}},{"type":"Feature","properties":{"en":"Futtsu","fr":""},"geometry":{"type":"Point","coordinates":[139.811277777778,35.3103611111111]}},{"type":"Feature","properties":{"en":"Ōhori","fr":""},"geometry":{"type":"Point","coordinates":[139.857138888889,35.3336111111111]}},{"type":"Feature","properties":{"en":"Aoki","fr":""},"geometry":{"type":"Point","coordinates":[139.846388888889,35.3243055555556]}},{"type":"Feature","properties":{"en":"Nishikawa","fr":""},"geometry":{"type":"Point","coordinates":[139.839444444444,35.3166666666667]}},{"type":"Feature","properties":{"en":"Futamazuka","fr":""},"geometry":{"type":"Point","coordinates":[139.866666666667,35.3243055555556]}},{"type":"Feature","properties":{"en":"Kozono","fr":""},"geometry":{"type":"Point","coordinates":[139.412002777778,35.4515138888889]}},{"type":"Feature","properties":{"en":"","fr":""},"geometry":{"type":"Point","coordinates":[139.920277777778,35.2797222222222]}},{"type":"Feature","properties":{"en":"Kushi, Minamisatsuma, Kagoshima","fr":""},"geometry":{"type":"Point","coordinates":[130.226083333333,31.3114444444444]}},{"type":"Feature","properties":{"en":"Bou, Minamisatsuma, Kagoshima","fr":""},"geometry":{"type":"Point","coordinates":[130.226944444444,31.2711166666667]}},{"type":"Feature","properties":{"en":"Tomari, Minamisatsuma, Kagoshima","fr":""},"geometry":{"type":"Point","coordinates":[130.230833333333,31.2836388888889]}},{"type":"Feature","properties":{"en":"Hachijō","fr":""},"geometry":{"type":"Point","coordinates":[139.835833333333,35.85]}},{"type":"Feature","properties":{"en":"","fr":""},"geometry":{"type":"Point","coordinates":[139.922333333333,35.2731111111111]}},{"type":"Feature","properties":{"en":"Kami-sakunobe","fr":""},"geometry":{"type":"Point","coordinates":[139.592936111111,35.5993194444444]}},{"type":"Feature","properties":{"en":"Tsurugasone","fr":""},"geometry":{"type":"Point","coordinates":[139.839097222222,35.8297416666667]}},{"type":"Feature","properties":{"en":"","fr":""},"geometry":{"type":"Point","coordinates":[139.935277777778,35.2897222222222]}},{"type":"Feature","properties":{"en":"","fr":""},"geometry":{"type":"Point","coordinates":[138.713833333333,35.1615555555556]}},{"type":"Feature","properties":{"en":"Harada","fr":""},"geometry":{"type":"Point","coordinates":[138.708066666667,35.1693972222222]}},{"type":"Feature","properties":{"en":"","fr":""},"geometry":{"type":"Point","coordinates":[139.944444444444,35.285]}},{"type":"Feature","properties":{"en":"","fr":""},"geometry":{"type":"Point","coordinates":[140.546472222222,41.2138888888889]}},{"type":"Feature","properties":{"en":"","fr":""},"geometry":{"type":"Point","coordinates":[140.570913888889,41.1963194444444]}},{"type":"Feature","properties":{"en":"","fr":""},"geometry":{"type":"Point","coordinates":[139.952777777778,35.2805555555556]}},{"type":"Feature","properties":{"en":"Manobori","fr":""},"geometry":{"type":"Point","coordinates":[139.942222222222,35.2722222222222]}},{"type":"Feature","properties":{"en":"Neriki","fr":""},"geometry":{"type":"Point","coordinates":[139.953333333333,35.3222222222222]}},{"type":"Feature","properties":{"en":"Kanmuridake","fr":""},"geometry":{"type":"Point","coordinates":[130.349722,31.738889]}},{"type":"Feature","properties":{"en":"YamagawaHamachogamizu","fr":""},"geometry":{"type":"Point","coordinates":[130.600092730186,31.1850319030623]}},{"type":"Feature","properties":{"en":"Shimo-yakiri","fr":""},"geometry":{"type":"Point","coordinates":[139.888275,35.757339]}},{"type":"Feature","properties":{"en":"Katakasu","fr":"Katakasu"},"geometry":{"type":"Point","coordinates":[130.426888888889,33.5972777777778]}},{"type":"Feature","properties":{"en":"Chiran-chō Kōri","fr":""},"geometry":{"type":"Point","coordinates":[130.477083333333,31.3872222222222]}},{"type":"Feature","properties":{"en":"Shibushi-cho Anraku","fr":""},"geometry":{"type":"Point","coordinates":[131.074663904501,31.481269718962]}},{"type":"Feature","properties":{"en":"Shibushi-cho cho","fr":""},"geometry":{"type":"Point","coordinates":[131.135103,31.495635]}},{"type":"Feature","properties":{"en":"Shibushi-cho Uchinokura","fr":""},"geometry":{"type":"Point","coordinates":[131.170319,31.533999]}},{"type":"Feature","properties":{"en":"Kasasa-cho Akogi","fr":""},"geometry":{"type":"Point","coordinates":[130.190277777778,31.3861111111111]}},{"type":"Feature","properties":{"en":"Kasasa-chō Kataura","fr":""},"geometry":{"type":"Point","coordinates":[130.160277777778,31.4130555555556]}},{"type":"Feature","properties":{"en":"Yamagawa Narikawa","fr":""},"geometry":{"type":"Point","coordinates":[130.627222219444,31.2108333305556]}},{"type":"Feature","properties":{"en":"YamagawaFukumoto","fr":""},"geometry":{"type":"Point","coordinates":[130.62836389772,31.1927106463218]}},{"type":"Feature","properties":{"en":"Kawakami","fr":""},"geometry":{"type":"Point","coordinates":[130.352,31.7146]}},{"type":"Feature","properties":{"en":"Hōjō","fr":""},"geometry":{"type":"Point","coordinates":[139.8675,34.9958333333333]}},{"type":"Feature","properties":{"en":"Aina","fr":""},"geometry":{"type":"Point","coordinates":[139.323611111111,35.4419444444444]}},{"type":"Feature","properties":{"en":"Kuriyama","fr":""},"geometry":{"type":"Point","coordinates":[139.895527777778,35.7554444444444]}},{"type":"Feature","properties":{"en":"Yawata","fr":""},"geometry":{"type":"Point","coordinates":[139.863888888889,35.0044444444444]}},{"type":"Feature","properties":{"en":"","fr":""},"geometry":{"type":"Point","coordinates":[140.11744,35.52555]}},{"type":"Feature","properties":{"en":"","fr":""},"geometry":{"type":"Point","coordinates":[139.86625,35.0100833333333]}},{"type":"Feature","properties":{"en":"Isobe","fr":""},"geometry":{"type":"Point","coordinates":[139.387969444444,35.5088444444444]}},{"type":"Feature","properties":{"en":"Shindo","fr":""},"geometry":{"type":"Point","coordinates":[139.389608333333,35.4971527777778]}},{"type":"Feature","properties":{"en":"Kami-ogino","fr":""},"geometry":{"type":"Point","coordinates":[139.306972222222,35.5027333333333]}},{"type":"Feature","properties":{"en":"Naka-ogino","fr":""},"geometry":{"type":"Point","coordinates":[139.322388888889,35.4852111111111]}},{"type":"Feature","properties":{"en":"Iiyama","fr":""},"geometry":{"type":"Point","coordinates":[139.312052777778,35.468125]}},{"type":"Feature","properties":{"en":"Nagasuka","fr":""},"geometry":{"type":"Point","coordinates":[139.866277777778,34.9846111111111]}},{"type":"Feature","properties":{"en":"","fr":""},"geometry":{"type":"Point","coordinates":[139.85825,34.99275]}},{"type":"Feature","properties":{"en":"Tateyama","fr":""},"geometry":{"type":"Point","coordinates":[139.857222222222,34.9866666666667]}},{"type":"Feature","properties":{"en":"Uenohara","fr":""},"geometry":{"type":"Point","coordinates":[139.878055555556,34.9972222222222]}},{"type":"Feature","properties":{"en":"Zama","fr":""},"geometry":{"type":"Point","coordinates":[139.389444444444,35.4892611111111]}},{"type":"Feature","properties":{"en":"Hashima","fr":""},"geometry":{"type":"Point","coordinates":[130.206778,31.760833]}},{"type":"Feature","properties":{"en":"Koyurugi","fr":""},"geometry":{"type":"Point","coordinates":[139.396797222222,35.3869638888889]}},{"type":"Feature","properties":{"en":"Ōwashi","fr":""},"geometry":{"type":"Point","coordinates":[139.963888888889,35.3175]}},{"type":"Feature","properties":{"en":"Ōi","fr":""},"geometry":{"type":"Point","coordinates":[139.971111111111,35.3127777777778]}},{"type":"Feature","properties":{"en":"Zama-Iriya","fr":""},"geometry":{"type":"Point","coordinates":[139.375,35.4875]}},{"type":"Feature","properties":{"en":"Kurami","fr":""},"geometry":{"type":"Point","coordinates":[139.383333333333,35.3961111111111]}},{"type":"Feature","properties":{"en":"Nemoto","fr":""},"geometry":{"type":"Point","coordinates":[139.991666666667,35.305]}},{"type":"Feature","properties":{"en":"Nukata","fr":""},"geometry":{"type":"Point","coordinates":[139.97,35.3]}},{"type":"Feature","properties":{"en":"Juhachinichimachi","fr":""},"geometry":{"type":"Point","coordinates":[141.494339,40.511662]}},{"type":"Feature","properties":{"en":"Shimokawairi","fr":""},"geometry":{"type":"Point","coordinates":[139.352777777778,35.4938888888889]}},{"type":"Feature","properties":{"en":"Koito-Ōyatsu","fr":""},"geometry":{"type":"Point","coordinates":[139.986666666667,35.3122222222222]}},{"type":"Feature","properties":{"en":"Oigawa","fr":""},"geometry":{"type":"Point","coordinates":[139.343611111111,35.4686111111111]}},{"type":"Feature","properties":{"en":"Nagashi","fr":""},"geometry":{"type":"Point","coordinates":[140.004722222222,35.3125]}},{"type":"Feature","properties":{"en":"Onna","fr":""},"geometry":{"type":"Point","coordinates":[139.348888888889,35.4430555555556]}},{"type":"Feature","properties":{"en":"Kamiechi","fr":""},"geometry":{"type":"Point","coordinates":[139.359722222222,35.5175]}},{"type":"Feature","properties":{"en":"Nurumizu","fr":""},"geometry":{"type":"Point","coordinates":[139.343611111111,35.4388888888889]}},{"type":"Feature","properties":{"en":"Funako","fr":""},"geometry":{"type":"Point","coordinates":[139.351388888889,35.4280555555556]}},{"type":"Feature","properties":{"en":"Shirokoma","fr":""},"geometry":{"type":"Point","coordinates":[139.954722222222,35.2891666666667]}},{"type":"Feature","properties":{"en":"Atsugi","fr":""},"geometry":{"type":"Point","coordinates":[139.367222222222,35.4497222222222]}},{"type":"Feature","properties":{"en":"Kaneda","fr":""},"geometry":{"type":"Point","coordinates":[139.370277777778,35.4619444444444]}},{"type":"Feature","properties":{"en":"Aoyagi","fr":""},"geometry":{"type":"Point","coordinates":[140.068888888889,35.3033333333333]}},{"type":"Feature","properties":{"en":"Okata","fr":""},"geometry":{"type":"Point","coordinates":[139.364166666667,35.4244444444444]}},{"type":"Feature","properties":{"en":"Sakai","fr":""},"geometry":{"type":"Point","coordinates":[139.361944444444,35.4138888888889]}},{"type":"Feature","properties":{"en":"Shimotsukoku","fr":""},"geometry":{"type":"Point","coordinates":[139.355833333333,35.4083333333333]}},{"type":"Feature","properties":{"en":"Toda","fr":""},"geometry":{"type":"Point","coordinates":[139.362777777778,35.4016666666667]}},{"type":"Feature","properties":{"en":"Nanasawa","fr":""},"geometry":{"type":"Point","coordinates":[139.293055555556,35.4480555555556]}},{"type":"Feature","properties":{"en":"Kamiochiai","fr":""},"geometry":{"type":"Point","coordinates":[139.350833333333,35.4088888888889]}},{"type":"Feature","properties":{"en":"Naganuma","fr":""},"geometry":{"type":"Point","coordinates":[139.354166666667,35.4]}},{"type":"Feature","properties":{"en":"Hase","fr":""},"geometry":{"type":"Point","coordinates":[139.336111111111,35.4322222222222]}},{"type":"Feature","properties":{"en":"Ono","fr":""},"geometry":{"type":"Point","coordinates":[139.315833333333,35.4341666666667]}},{"type":"Feature","properties":{"en":"Okatsukoku","fr":""},"geometry":{"type":"Point","coordinates":[139.313333333333,35.4286111111111]}},{"type":"Feature","properties":{"en":"Yawata","fr":""},"geometry":{"type":"Point","coordinates":[139.868888888889,35.2513888888889]}},{"type":"Feature","properties":{"en":"","fr":""},"geometry":{"type":"Point","coordinates":[139.983333333333,35.3022222222222]}},{"type":"Feature","properties":{"en":"Shimo-Ogino","fr":""},"geometry":{"type":"Point","coordinates":[139.335277777778,35.4805555555556]}},{"type":"Feature","properties":{"en":"Ishida","fr":""},"geometry":{"type":"Point","coordinates":[139.341111111111,35.4147222222222]}},{"type":"Feature","properties":{"en":"Kamifurusawa","fr":""},"geometry":{"type":"Point","coordinates":[139.306111111111,35.4597222222222]}},{"type":"Feature","properties":{"en":"Shimofurusawa","fr":""},"geometry":{"type":"Point","coordinates":[139.320833333333,35.4530555555556]}},{"type":"Feature","properties":{"en":"Tsukahara","fr":""},"geometry":{"type":"Point","coordinates":[139.976666666667,35.2972222222222]}},{"type":"Feature","properties":{"en":"Shimoechi","fr":""},"geometry":{"type":"Point","coordinates":[139.374166666667,35.4716666666667]}},{"type":"Feature","properties":{"en":"Nakaechi","fr":""},"geometry":{"type":"Point","coordinates":[139.369166666667,35.4786111111111]}},{"type":"Feature","properties":{"en":"Tsumada","fr":""},"geometry":{"type":"Point","coordinates":[139.364166666667,35.4625]}},{"type":"Feature","properties":{"en":"Sarugashima","fr":""},"geometry":{"type":"Point","coordinates":[139.372777777778,35.5066666666667]}},{"type":"Feature","properties":{"en":"Tanazawa","fr":""},"geometry":{"type":"Point","coordinates":[139.333333333333,35.5]}},{"type":"Feature","properties":{"en":"Ogisaku","fr":""},"geometry":{"type":"Point","coordinates":[139.966111111111,35.2855555555556]}},{"type":"Feature","properties":{"en":"Jūichinichimachi","fr":""},"geometry":{"type":"Point","coordinates":[141.494722222222,40.5105555555556]}},{"type":"Feature","properties":{"en":"Tozaki","fr":""},"geometry":{"type":"Point","coordinates":[140.034166666667,35.3088888888889]}},{"type":"Feature","properties":{"en":"Iwade","fr":""},"geometry":{"type":"Point","coordinates":[140.045833333333,35.31]}},{"type":"Feature","properties":{"en":"Yoshioka","fr":""},"geometry":{"type":"Point","coordinates":[139.413333333333,35.4222222222222]}},{"type":"Feature","properties":{"en":"Ōgami","fr":""},"geometry":{"type":"Point","coordinates":[139.430555555556,35.4619444444444]}},{"type":"Feature","properties":{"en":"Tabina","fr":""},"geometry":{"type":"Point","coordinates":[140.025277777778,35.2002777777778]}},{"type":"Feature","properties":{"en":"Kagihara","fr":""},"geometry":{"type":"Point","coordinates":[140.052222222222,35.1702777777778]}},{"type":"Feature","properties":{"en":"Tatekawa","fr":""},"geometry":{"type":"Point","coordinates":[139.439166666667,35.4644444444444]}},{"type":"Feature","properties":{"en":"Hon-Tatekawa","fr":""},"geometry":{"type":"Point","coordinates":[139.447777777778,35.4397222222222]}},{"type":"Feature","properties":{"en":"Miyabara","fr":""},"geometry":{"type":"Point","coordinates":[139.403333333333,35.3952777777778]}},{"type":"Feature","properties":{"en":"Sueyoshi","fr":""},"geometry":{"type":"Point","coordinates":[140.063888888889,35.3263888888889]}},{"type":"Feature","properties":{"en":"Terazawa","fr":""},"geometry":{"type":"Point","coordinates":[140.052777777778,35.3030555555556]}},{"type":"Feature","properties":{"en":"Kuzuhara","fr":""},"geometry":{"type":"Point","coordinates":[139.431388888889,35.4105555555556]}},{"type":"Feature","properties":{"en":"Shōbusawa","fr":""},"geometry":{"type":"Point","coordinates":[139.437777777778,35.4008333333333]}},{"type":"Feature","properties":{"en":"Uchimodori","fr":""},"geometry":{"type":"Point","coordinates":[139.418611111111,35.3922222222222]}},{"type":"Feature","properties":{"en":"Osogō","fr":""},"geometry":{"type":"Point","coordinates":[139.407222222222,35.3888888888889]}},{"type":"Feature","properties":{"en":"Tomida","fr":""},"geometry":{"type":"Point","coordinates":[140.058611111111,35.2966666666667]}},{"type":"Feature","properties":{"en":"Atago","fr":""},"geometry":{"type":"Point","coordinates":[140.053333333333,35.2922222222222]}},{"type":"Feature","properties":{"en":"Mukaigō","fr":""},"geometry":{"type":"Point","coordinates":[140.058611111111,35.2875]}},{"type":"Feature","properties":{"en":"Kururi-Ōwada","fr":""},"geometry":{"type":"Point","coordinates":[140.074444444444,35.2931944444444]}},{"type":"Feature","properties":{"en":"Kaefuchi","fr":""},"geometry":{"type":"Point","coordinates":[140.048055555556,35.3294444444444]}},{"type":"Feature","properties":{"en":"Nishibara","fr":""},"geometry":{"type":"Point","coordinates":[140.047777777778,35.3380555555556]}},{"type":"Feature","properties":{"en":"Sanda","fr":""},"geometry":{"type":"Point","coordinates":[140.071388888889,35.3341666666667]}},{"type":"Feature","properties":{"en":"Hasegawa","fr":""},"geometry":{"type":"Point","coordinates":[140.077777777778,35.3238888888889]}},{"type":"Feature","properties":{"en":"Obitsu-Dai","fr":""},"geometry":{"type":"Point","coordinates":[140.097222222222,35.3236111111111]}},{"type":"Feature","properties":{"en":"Yoshino","fr":""},"geometry":{"type":"Point","coordinates":[140.094444444444,35.3180555555556]}},{"type":"Feature","properties":{"en":"Minowa","fr":""},"geometry":{"type":"Point","coordinates":[140.077777777778,35.31]}},{"type":"Feature","properties":{"en":"Kaminitta","fr":""},"geometry":{"type":"Point","coordinates":[140.066666666667,35.3180555555556]}},{"type":"Feature","properties":{"en":"Kururi-Ōyatsu","fr":""},"geometry":{"type":"Point","coordinates":[140.098194444444,35.3089722222222]}},{"type":"Feature","properties":{"en":"Koichibu","fr":""},"geometry":{"type":"Point","coordinates":[140.084166666667,35.3022222222222]}},{"type":"Feature","properties":{"en":"Fukuoka","fr":""},"geometry":{"type":"Point","coordinates":[139.976666666667,35.2916666666667]}},{"type":"Feature","properties":{"en":"Itogawa","fr":""},"geometry":{"type":"Point","coordinates":[140.005833333333,35.2863888888889]}},{"type":"Feature","properties":{"en":"Ōido","fr":""},"geometry":{"type":"Point","coordinates":[139.990555555556,35.2941666666667]}},{"type":"Feature","properties":{"en":"Kuritsubo","fr":""},"geometry":{"type":"Point","coordinates":[140.064444444444,35.2833333333333]}},{"type":"Feature","properties":{"en":"Imokubo","fr":""},"geometry":{"type":"Point","coordinates":[140.058333333333,35.2808333333333]}},{"type":"Feature","properties":{"en":"Kamadaki","fr":""},"geometry":{"type":"Point","coordinates":[139.980555555556,35.2763888888889]}},{"type":"Feature","properties":{"en":"Ōnodai","fr":""},"geometry":{"type":"Point","coordinates":[140.010833333333,35.2744444444444]}},{"type":"Feature","properties":{"en":"Ichijuku","fr":""},"geometry":{"type":"Point","coordinates":[139.9875,35.2683333333333]}},{"type":"Feature","properties":{"en":"Kanōzan","fr":""},"geometry":{"type":"Point","coordinates":[139.9625,35.2527777777778]}},{"type":"Feature","properties":{"en":"Nittone","fr":""},"geometry":{"type":"Point","coordinates":[140.001944444444,35.2675]}},{"type":"Feature","properties":{"en":"Seiwa-Ichiba","fr":""},"geometry":{"type":"Point","coordinates":[139.993611111111,35.2611111111111]}},{"type":"Feature","properties":{"en":"Ōwashi-Shinden","fr":""},"geometry":{"type":"Point","coordinates":[139.968888888889,35.3230555555556]}},{"type":"Feature","properties":{"en":"Yamatakino","fr":""},"geometry":{"type":"Point","coordinates":[140.044444444444,35.2758333333333]}},{"type":"Feature","properties":{"en":"Kawayatsu","fr":""},"geometry":{"type":"Point","coordinates":[140.106111111111,35.2972222222222]}},{"type":"Feature","properties":{"en":"Shukubara","fr":""},"geometry":{"type":"Point","coordinates":[140.027222222222,35.2105555555556]}},{"type":"Feature","properties":{"en":"Urata","fr":""},"geometry":{"type":"Point","coordinates":[140.077777777778,35.2822222222222]}},{"type":"Feature","properties":{"en":"Aburi","fr":""},"geometry":{"type":"Point","coordinates":[139.881388888889,34.9883333333333]}},{"type":"Feature","properties":{"en":"Higashi-Inohara","fr":""},"geometry":{"type":"Point","coordinates":[140.016111111111,35.2580555555556]}},{"type":"Feature","properties":{"en":"Nishi-Inohara","fr":""},"geometry":{"type":"Point","coordinates":[140.0,35.2569444444444]}},{"type":"Feature","properties":{"en":"Higashi-Awagura","fr":""},"geometry":{"type":"Point","coordinates":[140.000833333333,35.2488888888889]}},{"type":"Feature","properties":{"en":"Nishi-Awagura","fr":""},"geometry":{"type":"Point","coordinates":[139.994722222222,35.2525]}},{"type":"Feature","properties":{"en":"Hirayama","fr":""},"geometry":{"type":"Point","coordinates":[140.0725,35.2711111111111]}},{"type":"Feature","properties":{"en":"Hiratta","fr":""},"geometry":{"type":"Point","coordinates":[139.983333333333,35.2333333333333]}},{"type":"Feature","properties":{"en":"Uehata","fr":""},"geometry":{"type":"Point","coordinates":[139.991666666667,35.2380555555556]}},{"type":"Feature","properties":{"en":"Futairi","fr":""},"geometry":{"type":"Point","coordinates":[140.011944444444,35.2291666666667]}},{"type":"Feature","properties":{"en":"Hirooka","fr":""},"geometry":{"type":"Point","coordinates":[140.0625,35.2577777777778]}},{"type":"Feature","properties":{"en":"Higashi-Hikasa","fr":""},"geometry":{"type":"Point","coordinates":[140.002222222222,35.235]}},{"type":"Feature","properties":{"en":"Nishi-Hikasa","fr":""},"geometry":{"type":"Point","coordinates":[139.995833333333,35.2222222222222]}},{"type":"Feature","properties":{"en":"Nuda","fr":""},"geometry":{"type":"Point","coordinates":[140.108055555556,35.2716666666667]}},{"type":"Feature","properties":{"en":"Nutazawa","fr":""},"geometry":{"type":"Point","coordinates":[140.0,35.2055555555556]}},{"type":"Feature","properties":{"en":"Tsujimori","fr":""},"geometry":{"type":"Point","coordinates":[140.016111111111,35.2255555555556]}},{"type":"Feature","properties":{"en":"Ōiwa","fr":""},"geometry":{"type":"Point","coordinates":[140.020777777778,35.2201388888889]}},{"type":"Feature","properties":{"en":"Osaka","fr":""},"geometry":{"type":"Point","coordinates":[140.035,35.2441666666667]}},{"type":"Feature","properties":{"en":"Masaki","fr":""},"geometry":{"type":"Point","coordinates":[140.031111111111,35.2166666666667]}},{"type":"Feature","properties":{"en":"Ōtomi","fr":""},"geometry":{"type":"Point","coordinates":[140.054722222222,35.2430555555556]}},{"type":"Feature","properties":{"en":"Ōtomi kyū Nadono","fr":""},"geometry":{"type":"Point","coordinates":[140.075,35.2461111111111]}},{"type":"Feature","properties":{"en":"Yanashiro","fr":""},"geometry":{"type":"Point","coordinates":[140.091111111111,35.2452777777778]}},{"type":"Feature","properties":{"en":"Tone","fr":""},"geometry":{"type":"Point","coordinates":[140.078611111111,35.2425]}},{"type":"Feature","properties":{"en":"Kanamori","fr":""},"geometry":{"type":"Point","coordinates":[140.069444444444,35.2433333333333]}},{"type":"Feature","properties":{"en":"Takamizu","fr":""},"geometry":{"type":"Point","coordinates":[140.084722222222,35.2377777777778]}},{"type":"Feature","properties":{"en":"Dainaka","fr":""},"geometry":{"type":"Point","coordinates":[140.075,35.2377777777778]}},{"type":"Feature","properties":{"en":"Fujibayashi","fr":""},"geometry":{"type":"Point","coordinates":[140.088611111111,35.2333333333333]}},{"type":"Feature","properties":{"en":"Sakahata","fr":""},"geometry":{"type":"Point","coordinates":[140.096111111111,35.2333333333333]}},{"type":"Feature","properties":{"en":"Kusagawara","fr":""},"geometry":{"type":"Point","coordinates":[140.093055555556,35.2188888888889]}},{"type":"Feature","properties":{"en":"Hongō","fr":""},"geometry":{"type":"Point","coordinates":[139.880555555556,35.31]}},{"type":"Feature","properties":{"en":"Maekubo","fr":""},"geometry":{"type":"Point","coordinates":[139.883333333333,35.3119444444444]}},{"type":"Feature","properties":{"en":"Orikisawa","fr":""},"geometry":{"type":"Point","coordinates":[140.106111111111,35.2277777777778]}},{"type":"Feature","properties":{"en":"Takihara","fr":""},"geometry":{"type":"Point","coordinates":[140.1125,35.2275]}},{"type":"Feature","properties":{"en":"Kawana","fr":""},"geometry":{"type":"Point","coordinates":[139.833333333333,35.3069444444444]}},{"type":"Feature","properties":{"en":"Shimo-Tsuchidana","fr":""},"geometry":{"type":"Point","coordinates":[139.458333333333,35.4072222222222]}},{"type":"Feature","properties":{"en":"Toyoda","fr":""},"geometry":{"type":"Point","coordinates":[140.081944444444,35.2311111111111]}},{"type":"Feature","properties":{"en":"Shinobe","fr":""},"geometry":{"type":"Point","coordinates":[139.841666666667,35.3]}},{"type":"Feature","properties":{"en":"Shimo-Iino","fr":""},"geometry":{"type":"Point","coordinates":[139.8575,35.3105555555556]}},{"type":"Feature","properties":{"en":"Kami-Iino","fr":""},"geometry":{"type":"Point","coordinates":[139.868888888889,35.3091666666667]}},{"type":"Feature","properties":{"en":"Ainoyatsu","fr":""},"geometry":{"type":"Point","coordinates":[139.881388888889,35.3005555555556]}},{"type":"Feature","properties":{"en":"Kawamata","fr":""},"geometry":{"type":"Point","coordinates":[140.086388888889,35.2280555555556]}},{"type":"Feature","properties":{"en":"Chigusa-Shinden","fr":""},"geometry":{"type":"Point","coordinates":[139.854166666667,35.2930555555556]}},{"type":"Feature","properties":{"en":"Sasa","fr":""},"geometry":{"type":"Point","coordinates":[140.070277777778,35.1966666666667]}},{"type":"Feature","properties":{"en":"Nishi-Ōwada","fr":""},"geometry":{"type":"Point","coordinates":[139.8675,35.2961111111111]}},{"type":"Feature","properties":{"en":"Shōjiyatsu","fr":""},"geometry":{"type":"Point","coordinates":[139.889444444444,35.2966666666667]}},{"type":"Feature","properties":{"en":"Isshiki","fr":""},"geometry":{"type":"Point","coordinates":[139.898888888889,35.2941666666667]}},{"type":"Feature","properties":{"en":"Kinu","fr":""},"geometry":{"type":"Point","coordinates":[139.876666666667,35.2905555555556]}},{"type":"Feature","properties":{"en":"Kami","fr":""},"geometry":{"type":"Point","coordinates":[139.898055555556,35.285]}},{"type":"Feature","properties":{"en":"Kondō","fr":""},"geometry":{"type":"Point","coordinates":[139.884166666667,35.2833333333333]}},{"type":"Feature","properties":{"en":"Kamō","fr":""},"geometry":{"type":"Point","coordinates":[140.115277777778,35.2263888888889]}},{"type":"Feature","properties":{"en":"Iwase","fr":""},"geometry":{"type":"Point","coordinates":[139.858611111111,35.2866666666667]}},{"type":"Feature","properties":{"en":"Yatanuma","fr":""},"geometry":{"type":"Point","coordinates":[139.879166666667,35.2811111111111]}},{"type":"Feature","properties":{"en":"Naka","fr":""},"geometry":{"type":"Point","coordinates":[139.871388888889,35.2805555555556]}},{"type":"Feature","properties":{"en":"Kokubo","fr":""},"geometry":{"type":"Point","coordinates":[139.8675,35.2683333333333]}},{"type":"Feature","properties":{"en":"Ishikichō, Nara","fr":""},"geometry":{"type":"Point","coordinates":[135.760392,34.665851]}},{"type":"Feature","properties":{"en":"Kameda","fr":""},"geometry":{"type":"Point","coordinates":[139.871388888889,35.2597222222222]}},{"type":"Feature","properties":{"en":"Sanuki","fr":""},"geometry":{"type":"Point","coordinates":[139.894444444444,35.2638888888889]}},{"type":"Feature","properties":{"en":"Kamezawa","fr":""},"geometry":{"type":"Point","coordinates":[139.903333333333,35.2736111111111]}},{"type":"Feature","properties":{"en":"Hōryūji","fr":""},"geometry":{"type":"Point","coordinates":[139.903333333333,35.2597222222222]}},{"type":"Feature","properties":{"en":"Hanagayatsu","fr":""},"geometry":{"type":"Point","coordinates":[139.891666666667,35.2583333333333]}},{"type":"Feature","properties":{"en":"Tsuruoka","fr":""},"geometry":{"type":"Point","coordinates":[139.888055555556,35.2488888888889]}},{"type":"Feature","properties":{"en":"Sasage","fr":""},"geometry":{"type":"Point","coordinates":[139.877777777778,35.2402777777778]}},{"type":"Feature","properties":{"en":"Minato","fr":""},"geometry":{"type":"Point","coordinates":[139.8725,35.2241666666667]}},{"type":"Feature","properties":{"en":"Iwasaka","fr":""},"geometry":{"type":"Point","coordinates":[139.884166666667,35.2252777777778]}},{"type":"Feature","properties":{"en":"Kazuma","fr":""},"geometry":{"type":"Point","coordinates":[139.881388888889,35.2197222222222]}},{"type":"Feature","properties":{"en":"Katō","fr":""},"geometry":{"type":"Point","coordinates":[139.897222222222,35.2327777777778]}},{"type":"Feature","properties":{"en":"Sarawa","fr":""},"geometry":{"type":"Point","coordinates":[139.901944444444,35.2277777777778]}},{"type":"Feature","properties":{"en":"Mochii","fr":""},"geometry":{"type":"Point","coordinates":[139.895277777778,35.2175]}},{"type":"Feature","properties":{"en":"Daibara","fr":""},"geometry":{"type":"Point","coordinates":[139.900277777778,35.2216666666667]}},{"type":"Feature","properties":{"en":"Sakurai","fr":""},"geometry":{"type":"Point","coordinates":[139.921388888889,35.2458333333333]}}]}