{"type":"FeatureCollection","features":[{"type":"Feature","properties":{"en":"Gorno-Badakhshan Autonomous Region","fr":"Haut-Badakhchan"},"geometry":{"type":"Point","coordinates":[73.0,38.0]}},{"type":"Feature","properties":{"en":"Sughd Province","fr":"Sughd"},"geometry":{"type":"Point","coordinates":[69.0,39.5]}},{"type":"Feature","properties":{"en":"Ishkoshim District","fr":"District d'Ishkashim"},"geometry":{"type":"Point","coordinates":[71.8833333333333,36.85]}},{"type":"Feature","properties":{"en":"Districts under Central Government Jurisdiction","fr":"Nohiyahoi tobei Jumhurii"},"geometry":{"type":"Point","coordinates":[70.0,39.0]}},{"type":"Feature","properties":{"en":"Khatlon Province","fr":"Khatlon"},"geometry":{"type":"Point","coordinates":[69.0,37.833333333333]}},{"type":"Feature","properties":{"en":"Nurobod District","fr":""},"geometry":{"type":"Point","coordinates":[69.94,38.8]}},{"type":"Feature","properties":{"en":"Baljuvon District","fr":"district de Baljuvon"},"geometry":{"type":"Point","coordinates":[69.6833,38.3]}},{"type":"Feature","properties":{"en":"Mastchoh District","fr":""},"geometry":{"type":"Point","coordinates":[69.330833333333,40.521666666667]}},{"type":"Feature","properties":{"en":"Devashtich District","fr":""},"geometry":{"type":"Point","coordinates":[69.1166666666667,39.75]}},{"type":"Feature","properties":{"en":"Hisar District","fr":""},"geometry":{"type":"Point","coordinates":[68.55,38.533333333333]}},{"type":"Feature","properties":{"en":"Ayni District","fr":""},"geometry":{"type":"Point","coordinates":[68.649853,39.274989]}},{"type":"Feature","properties":{"en":"Qubodiyon District","fr":"Kabodijon"},"geometry":{"type":"Point","coordinates":[68.1855555555556,37.4105555555556]}},{"type":"Feature","properties":{"en":"Vahdat District","fr":""},"geometry":{"type":"Point","coordinates":[69.33333,38.83333]}},{"type":"Feature","properties":{"en":"Rasht District","fr":""},"geometry":{"type":"Point","coordinates":[70.5,39.0833333333333]}},{"type":"Feature","properties":{"en":"Tursunzoda District","fr":""},"geometry":{"type":"Point","coordinates":[68.16667,38.58333]}},{"type":"Feature","properties":{"en":"Varzob District","fr":""},"geometry":{"type":"Point","coordinates":[68.75,38.75]}},{"type":"Feature","properties":{"en":"Rudaki District","fr":""},"geometry":{"type":"Point","coordinates":[68.833333333333,38.416666666667]}},{"type":"Feature","properties":{"en":"Faizobod District","fr":""},"geometry":{"type":"Point","coordinates":[69.3167,38.55]}},{"type":"Feature","properties":{"en":"Roghun District","fr":""},"geometry":{"type":"Point","coordinates":[69.77,38.75]}},{"type":"Feature","properties":{"en":"Yovon District","fr":""},"geometry":{"type":"Point","coordinates":[69.0,38.25]}},{"type":"Feature","properties":{"en":"Shahrinaw District","fr":""},"geometry":{"type":"Point","coordinates":[68.42,38.7]}},{"type":"Feature","properties":{"en":"Mujum","fr":""},"geometry":{"type":"Point","coordinates":[69.1799774,39.8841608]}}]}