{"type":"FeatureCollection","features":[{"type":"Feature","properties":{"en":"Bururi Province","fr":"Province de Bururi"},"geometry":{"type":"Point","coordinates":[29.577777777778,-3.8969444444444]}},{"type":"Feature","properties":{"en":"Bubanza Province","fr":"Province de Bubanza"},"geometry":{"type":"Point","coordinates":[29.374444444444,-3.1513888888889]}},{"type":"Feature","properties":{"en":"Cibitoke Province","fr":"Province de Cibitoke"},"geometry":{"type":"Point","coordinates":[29.172777777778,-2.8263888888889]}},{"type":"Feature","properties":{"en":"Kirundo Province","fr":"Province de Kirundo"},"geometry":{"type":"Point","coordinates":[30.094166666667,-2.5519444444444]}},{"type":"Feature","properties":{"en":"Cankuzo Province","fr":"Province de Cankuzo"},"geometry":{"type":"Point","coordinates":[30.610555555556,-3.2144444444444]}},{"type":"Feature","properties":{"en":"Bujumbura Rural Province","fr":"Province de Bujumbura rural"},"geometry":{"type":"Point","coordinates":[29.426666666667,-3.3788888888889]}},{"type":"Feature","properties":{"en":"Muramvya Province","fr":"province de Muramvya"},"geometry":{"type":"Point","coordinates":[29.628611111111,-3.2541666666667]}},{"type":"Feature","properties":{"en":"Gitega Province","fr":"Gitega"},"geometry":{"type":"Point","coordinates":[29.956944444444,-3.4694444444444]}},{"type":"Feature","properties":{"en":"Kayanza Province","fr":"Province de Kayanza"},"geometry":{"type":"Point","coordinates":[29.616666666667,-2.9166666666667]}},{"type":"Feature","properties":{"en":"Ngozi Province","fr":"Province de Ngozi"},"geometry":{"type":"Point","coordinates":[29.826527777778,-2.9083333333333]}},{"type":"Feature","properties":{"en":"Karuzi Province","fr":"Province de Karuzi"},"geometry":{"type":"Point","coordinates":[30.083055555556,-3.1294444444444]}},{"type":"Feature","properties":{"en":"Rutana Province","fr":"Province de Rutana"},"geometry":{"type":"Point","coordinates":[30.16,-3.8777777777778]}},{"type":"Feature","properties":{"en":"Muyinga Province","fr":"Province de Muyinga"},"geometry":{"type":"Point","coordinates":[30.323611111111,-2.8236111111111]}},{"type":"Feature","properties":{"en":"Ruyigi Province","fr":"Province de Ruyigi"},"geometry":{"type":"Point","coordinates":[30.291944444444,-3.5297222222222]}},{"type":"Feature","properties":{"en":"Makamba Province","fr":"Province de Makamba"},"geometry":{"type":"Point","coordinates":[29.816666666667,-4.2641666666667]}},{"type":"Feature","properties":{"en":"Mwaro Province","fr":"Province de Mwaro"},"geometry":{"type":"Point","coordinates":[29.699166666667,-3.5119444444444]}},{"type":"Feature","properties":{"en":"Rumonge Province","fr":"Province de Rumonge"},"geometry":{"type":"Point","coordinates":[29.43333333,-3.96666667]}}]}