{"type":"FeatureCollection","features":[{"type":"Feature","properties":{"en":"Antalya Province","fr":"province d'Antalya"},"geometry":{"type":"Point","coordinates":[30.933333333333,37.181666666667]}},{"type":"Feature","properties":{"en":"Adana Province","fr":"Adana"},"geometry":{"type":"Point","coordinates":[35.706111111111,37.368333333333]}},{"type":"Feature","properties":{"en":"Bursa Province","fr":"Bursa"},"geometry":{"type":"Point","coordinates":[29.020833333333,40.15]}},{"type":"Feature","properties":{"en":"Artvin Province","fr":"Artvin"},"geometry":{"type":"Point","coordinates":[41.85,41.133333333333]}},{"type":"Feature","properties":{"en":"Adıyaman Province","fr":"Adıyaman"},"geometry":{"type":"Point","coordinates":[38.2786111111111,37.76]}},{"type":"Feature","properties":{"en":"Afyonkarahisar Province","fr":"Afyonkarahisar"},"geometry":{"type":"Point","coordinates":[30.5397222222222,38.7566666666667]}},{"type":"Feature","properties":{"en":"Bilecik Province","fr":"Bilecik"},"geometry":{"type":"Point","coordinates":[30.16667,40.0]}},{"type":"Feature","properties":{"en":"Balıkesir Province","fr":"Balıkesir"},"geometry":{"type":"Point","coordinates":[27.819166666667,39.740833333333]}},{"type":"Feature","properties":{"en":"Çanakkale Province","fr":"Çanakkale"},"geometry":{"type":"Point","coordinates":[26.4111111111111,40.1505555555555]}},{"type":"Feature","properties":{"en":"Yozgat Province","fr":"Yozgat"},"geometry":{"type":"Point","coordinates":[35.269166666667,39.669444444444]}},{"type":"Feature","properties":{"en":"Bingöl Province","fr":"Bingöl"},"geometry":{"type":"Point","coordinates":[40.675833333333,39.041111111111]}},{"type":"Feature","properties":{"en":"Ardahan Province","fr":"Ardahan"},"geometry":{"type":"Point","coordinates":[42.820833333333,41.113055555556]}},{"type":"Feature","properties":{"en":"Aydın Province","fr":"Aydın"},"geometry":{"type":"Point","coordinates":[27.937222222222,37.728333333333]}},{"type":"Feature","properties":{"en":"Amasya Province","fr":"Amasya"},"geometry":{"type":"Point","coordinates":[35.8327777777778,40.6502777777778]}},{"type":"Feature","properties":{"en":"Ağrı Province","fr":"Ağrı"},"geometry":{"type":"Point","coordinates":[43.0522222222222,39.7186111111111]}},{"type":"Feature","properties":{"en":"Burdur Province","fr":"Burdur"},"geometry":{"type":"Point","coordinates":[30.084444444444,37.423888888889]}},{"type":"Feature","properties":{"en":"Batman Province","fr":"Batman"},"geometry":{"type":"Point","coordinates":[41.4072222222222,38.0819444444444]}},{"type":"Feature","properties":{"en":"Van Province","fr":"Van"},"geometry":{"type":"Point","coordinates":[43.3730555555556,38.5011111111111]}},{"type":"Feature","properties":{"en":"Konya Province","fr":"Konya"},"geometry":{"type":"Point","coordinates":[32.4919444444444,37.8725]}},{"type":"Feature","properties":{"en":"Bolu Province","fr":"Bolu"},"geometry":{"type":"Point","coordinates":[31.558333333333,40.679166666667]}},{"type":"Feature","properties":{"en":"Denizli Province","fr":"Denizli"},"geometry":{"type":"Point","coordinates":[29.06982,37.84016]}},{"type":"Feature","properties":{"en":"Sakarya Province","fr":"Sakarya"},"geometry":{"type":"Point","coordinates":[30.456666666667,40.697222222222]}},{"type":"Feature","properties":{"en":"Aksaray Province","fr":"Aksaray"},"geometry":{"type":"Point","coordinates":[33.862222222222,38.430833333333]}},{"type":"Feature","properties":{"en":"Kars Province","fr":"Province de Kars"},"geometry":{"type":"Point","coordinates":[43.060277777778,40.454722222222]}},{"type":"Feature","properties":{"en":"Diyarbakır Province","fr":"Diyarbakır"},"geometry":{"type":"Point","coordinates":[40.271111111111,38.142222222222]}},{"type":"Feature","properties":{"en":"Edirne Province","fr":"Edirne"},"geometry":{"type":"Point","coordinates":[26.520555555556,41.12]}},{"type":"Feature","properties":{"en":"Bitlis Province","fr":"Bitlis"},"geometry":{"type":"Point","coordinates":[42.387777777778,38.525833333333]}},{"type":"Feature","properties":{"en":"Hatay Province","fr":"Hatay"},"geometry":{"type":"Point","coordinates":[36.15,36.2]}},{"type":"Feature","properties":{"en":"Bartın Province","fr":"Bartın"},"geometry":{"type":"Point","coordinates":[32.51111111,41.60444444]}},{"type":"Feature","properties":{"en":"Kocaeli Province","fr":"Kocaeli"},"geometry":{"type":"Point","coordinates":[29.945,40.7644444444444]}},{"type":"Feature","properties":{"en":"Hakkâri Province","fr":"Hakkari"},"geometry":{"type":"Point","coordinates":[44.064444444444,37.466111111111]}},{"type":"Feature","properties":{"en":"Muğla Province","fr":"Muğla"},"geometry":{"type":"Point","coordinates":[28.506388888889,37.030277777778]}},{"type":"Feature","properties":{"en":"Iğdır Province","fr":"Iğdır"},"geometry":{"type":"Point","coordinates":[43.997777777778,39.893611111111]}},{"type":"Feature","properties":{"en":"Kütahya Province","fr":"Kütahya"},"geometry":{"type":"Point","coordinates":[29.59,39.304722222222]}},{"type":"Feature","properties":{"en":"Kilis Province","fr":"Kilis"},"geometry":{"type":"Point","coordinates":[37.123888888889,36.800833333333]}},{"type":"Feature","properties":{"en":"Tekirdağ Province","fr":"Tekirdağ"},"geometry":{"type":"Point","coordinates":[27.5183333333333,40.9777777777778]}},{"type":"Feature","properties":{"en":"Manisa Province","fr":"Manisa"},"geometry":{"type":"Point","coordinates":[28.122777777778,38.749444444444]}},{"type":"Feature","properties":{"en":"Mardin Province","fr":"Mardin"},"geometry":{"type":"Point","coordinates":[40.71533,37.31775]}},{"type":"Feature","properties":{"en":"Malatya Province","fr":"Malatya"},"geometry":{"type":"Point","coordinates":[38.3177777777778,38.3480555555556]}},{"type":"Feature","properties":{"en":"Muş Province","fr":"Muş"},"geometry":{"type":"Point","coordinates":[41.827222222222,39.000555555556]}},{"type":"Feature","properties":{"en":"Kırklareli Province","fr":"Kırklareli"},"geometry":{"type":"Point","coordinates":[27.471388888889,41.681111111111]}},{"type":"Feature","properties":{"en":"Mersin Province","fr":"Mersin"},"geometry":{"type":"Point","coordinates":[33.805277777778,36.678611111111]}},{"type":"Feature","properties":{"en":"Kırşehir Province","fr":"Kırşehir"},"geometry":{"type":"Point","coordinates":[34.129166666667,39.323888888889]}},{"type":"Feature","properties":{"en":"Sinop Province","fr":"Sinop"},"geometry":{"type":"Point","coordinates":[34.9019444444444,41.6091666666667]}},{"type":"Feature","properties":{"en":"Niğde Province","fr":"Niğde"},"geometry":{"type":"Point","coordinates":[34.693611111111,37.915833333333]}},{"type":"Feature","properties":{"en":"Zonguldak Province","fr":"Zonguldak"},"geometry":{"type":"Point","coordinates":[31.733611111111,41.320555555556]}},{"type":"Feature","properties":{"en":"Isparta Province","fr":"Isparta"},"geometry":{"type":"Point","coordinates":[30.960833333333,37.956666666667]}},{"type":"Feature","properties":{"en":"Çankırı Province","fr":"Çankırı"},"geometry":{"type":"Point","coordinates":[33.366111111111,40.735555555556]}},{"type":"Feature","properties":{"en":"Çorum Province","fr":"Çorum"},"geometry":{"type":"Point","coordinates":[34.9538888888889,40.5522222222222]}},{"type":"Feature","properties":{"en":"Osmaniye Province","fr":"Osmaniye"},"geometry":{"type":"Point","coordinates":[36.2125,37.228055555556]}},{"type":"Feature","properties":{"en":"İzmir Province","fr":"Izmir"},"geometry":{"type":"Point","coordinates":[27.129722222222,38.418888888889]}},{"type":"Feature","properties":{"en":"Erzurum Province","fr":"Erzurum"},"geometry":{"type":"Point","coordinates":[41.566944444444,40.063055555556]}},{"type":"Feature","properties":{"en":"Şanlıurfa Province","fr":"Şanlıurfa"},"geometry":{"type":"Point","coordinates":[39.0425,37.25416667]}},{"type":"Feature","properties":{"en":"Trabzon Province","fr":"Trabzon"},"geometry":{"type":"Point","coordinates":[39.812222222222,40.780555555556]}},{"type":"Feature","properties":{"en":"Nevşehir Province","fr":"Nevşehir"},"geometry":{"type":"Point","coordinates":[34.688055555556,38.781666666667]}},{"type":"Feature","properties":{"en":"Düzce Province","fr":"Düzce"},"geometry":{"type":"Point","coordinates":[31.238055555556,40.946944444444]}},{"type":"Feature","properties":{"en":"Giresun Province","fr":"Giresun"},"geometry":{"type":"Point","coordinates":[38.594444444444,40.579722222222]}},{"type":"Feature","properties":{"en":"Gümüşhane Province","fr":"Gümüşhane"},"geometry":{"type":"Point","coordinates":[39.418611111111,40.388055555556]}},{"type":"Feature","properties":{"en":"Siirt Province","fr":"Siirt"},"geometry":{"type":"Point","coordinates":[42.270277777778,37.93]}},{"type":"Feature","properties":{"en":"Kahramanmaraş Province","fr":"Kahramanmaraş"},"geometry":{"type":"Point","coordinates":[36.971111111111,37.898333333333]}},{"type":"Feature","properties":{"en":"Karaman Province","fr":"Karaman"},"geometry":{"type":"Point","coordinates":[33.083333333333,37.016666666667]}},{"type":"Feature","properties":{"en":"Samsun Province","fr":"Samsun"},"geometry":{"type":"Point","coordinates":[36.007222222222,41.204444444444]}},{"type":"Feature","properties":{"en":"Eskişehir Province","fr":"Eskişehir"},"geometry":{"type":"Point","coordinates":[31.0725,39.6825]}},{"type":"Feature","properties":{"en":"Bayburt Province","fr":"Bayburt"},"geometry":{"type":"Point","coordinates":[40.223611111111,40.236666666667]}},{"type":"Feature","properties":{"en":"Uşak Province","fr":"Uşak"},"geometry":{"type":"Point","coordinates":[29.341944444444,38.523888888889]}},{"type":"Feature","properties":{"en":"Yalova Province","fr":"Yalova"},"geometry":{"type":"Point","coordinates":[29.193611111111,40.644166666667]}},{"type":"Feature","properties":{"en":"Elazığ Province","fr":"Elâzığ"},"geometry":{"type":"Point","coordinates":[39.359722222222,38.6675]}},{"type":"Feature","properties":{"en":"Sivas Province","fr":"Sivas"},"geometry":{"type":"Point","coordinates":[37.0161111111111,39.7502777777778]}},{"type":"Feature","properties":{"en":"Gaziantep Province","fr":"Gaziantep"},"geometry":{"type":"Point","coordinates":[37.33333,37.08333]}},{"type":"Feature","properties":{"en":"Karabük Province","fr":"Karabük"},"geometry":{"type":"Point","coordinates":[32.640277777778,41.223611111111]}},{"type":"Feature","properties":{"en":"Erzincan Province","fr":"Erzincan"},"geometry":{"type":"Point","coordinates":[39.33,39.678333333333]}},{"type":"Feature","properties":{"en":"Ordu Province","fr":"Ordu"},"geometry":{"type":"Point","coordinates":[37.540555555556,40.811388888889]}},{"type":"Feature","properties":{"en":"Kastamonu Province","fr":"Kastamonu"},"geometry":{"type":"Point","coordinates":[33.689722222222,41.519444444444]}},{"type":"Feature","properties":{"en":"Tokat Province","fr":"Tokat"},"geometry":{"type":"Point","coordinates":[36.564444444444,40.352777777778]}},{"type":"Feature","properties":{"en":"Kayseri Province","fr":"Kayseri"},"geometry":{"type":"Point","coordinates":[35.49683,38.73695]}},{"type":"Feature","properties":{"en":"Rize Province","fr":"Rize"},"geometry":{"type":"Point","coordinates":[40.847777777778,40.931666666667]}},{"type":"Feature","properties":{"en":"Kırıkkale Province","fr":"Kırıkkale"},"geometry":{"type":"Point","coordinates":[33.716111111111,39.869722222222]}},{"type":"Feature","properties":{"en":"Istanbul Province","fr":"Istanbul"},"geometry":{"type":"Point","coordinates":[28.9761111111111,41.0122222222222]}},{"type":"Feature","properties":{"en":"Tunceli Province","fr":"Tunceli"},"geometry":{"type":"Point","coordinates":[39.471388888889,39.214722222222]}},{"type":"Feature","properties":{"en":"Şırnak Province","fr":"Şırnak"},"geometry":{"type":"Point","coordinates":[42.4541666666667,37.5191666666667]}},{"type":"Feature","properties":{"en":"Ankara Province","fr":"Ankara"},"geometry":{"type":"Point","coordinates":[32.8561111111111,39.9263888888889]}}]}