{"type":"FeatureCollection","features":[{"type":"Feature","properties":{"en":"Teruel Community","fr":"Communauté de Teruel"},"geometry":{"type":"Point","coordinates":[-1.1333,40.4667]}},{"type":"Feature","properties":{"en":"Hoya de Huesca","fr":"Hoya de Huesca"},"geometry":{"type":"Point","coordinates":[-0.15,42.1167]}},{"type":"Feature","properties":{"en":"Alto Gállego","fr":"Alto Gállego"},"geometry":{"type":"Point","coordinates":[-0.15,42.633333333333]}},{"type":"Feature","properties":{"en":"Andorra-Sierra de Arcos","fr":"Andorra-Sierra d’Arcos"},"geometry":{"type":"Point","coordinates":[-0.45,40.9833]}},{"type":"Feature","properties":{"en":"Jacetania","fr":"Jacétanie"},"geometry":{"type":"Point","coordinates":[-0.6,42.6]}},{"type":"Feature","properties":{"en":"Zaragoza Comarca","fr":"Saragosse"},"geometry":{"type":"Point","coordinates":[-0.9,41.5667]}},{"type":"Feature","properties":{"en":"Aranda","fr":"Aranda"},"geometry":{"type":"Point","coordinates":[-1.61666667,41.53333333]}},{"type":"Feature","properties":{"en":"Campo de Belchite","fr":"Campo de Belchite"},"geometry":{"type":"Point","coordinates":[-0.75416666666667,41.305555555556]}},{"type":"Feature","properties":{"en":"Maestrazgo","fr":"Maestrazgo"},"geometry":{"type":"Point","coordinates":[-0.35156388888889,40.519766666667]}},{"type":"Feature","properties":{"en":"Bajo Aragón-Caspe/Baix Aragó-Casp","fr":""},"geometry":{"type":"Point","coordinates":[0.03333333,41.23333333]}},{"type":"Feature","properties":{"en":"Bajo Aragon","fr":"Bajo Aragón"},"geometry":{"type":"Point","coordinates":[-0.11666666666667,41.033333333333]}},{"type":"Feature","properties":{"en":"Bajo Cinca/Baix Cinca","fr":""},"geometry":{"type":"Point","coordinates":[0.29491,41.56178]}},{"type":"Feature","properties":{"en":"Bajo Martín","fr":"Bajo Martín"},"geometry":{"type":"Point","coordinates":[-0.53086388888889,41.126255555556]}},{"type":"Feature","properties":{"en":"Campo de Borja","fr":"Campo de Borja"},"geometry":{"type":"Point","coordinates":[-1.5333,41.8167]}},{"type":"Feature","properties":{"en":"Campo de Cariñena","fr":"Campo de Cariñena"},"geometry":{"type":"Point","coordinates":[-1.2242,41.3382]}},{"type":"Feature","properties":{"en":"Campo de Daroca","fr":"Campo de Daroca"},"geometry":{"type":"Point","coordinates":[-1.41666667,41.11666667]}},{"type":"Feature","properties":{"en":"Cinca Medio","fr":"Cinca Medio"},"geometry":{"type":"Point","coordinates":[0.18333333,41.9]}},{"type":"Feature","properties":{"en":"Cinco Villas","fr":"Cinco Villas"},"geometry":{"type":"Point","coordinates":[-1.16666667,42.25]}},{"type":"Feature","properties":{"en":"Comunidad de Calatayud","fr":"Communauté de Calatayud"},"geometry":{"type":"Point","coordinates":[-1.6333333333333,41.35]}},{"type":"Feature","properties":{"en":"Cuencas Mineras","fr":"Cuencas Mineras"},"geometry":{"type":"Point","coordinates":[-0.8,40.83333333]}},{"type":"Feature","properties":{"en":"Monegros","fr":"Monegros"},"geometry":{"type":"Point","coordinates":[-0.16666666666667,41.783333333333]}},{"type":"Feature","properties":{"en":"Sobrarbe","fr":"Sobrarbe"},"geometry":{"type":"Point","coordinates":[-0.15,42.45]}},{"type":"Feature","properties":{"en":"Somontano de Barbastro","fr":"Somontano de Barbastro"},"geometry":{"type":"Point","coordinates":[-0.11666666666667,42.033333333333]}},{"type":"Feature","properties":{"en":"Ribera Alta del Ebro","fr":"Ribera Alta del Ebro"},"geometry":{"type":"Point","coordinates":[-1.1583333333333,41.783333333333]}},{"type":"Feature","properties":{"en":"Ribagorza","fr":"Ribagorce"},"geometry":{"type":"Point","coordinates":[0.53333333333333,42.45]}},{"type":"Feature","properties":{"en":"la Llitera","fr":""},"geometry":{"type":"Point","coordinates":[0.39283333333333,41.885833333333]}},{"type":"Feature","properties":{"en":"Matarranya","fr":""},"geometry":{"type":"Point","coordinates":[0.13333333333333,40.883333333333]}},{"type":"Feature","properties":{"en":"Gúdar-Javalambre","fr":"Gúdar-Javalambre"},"geometry":{"type":"Point","coordinates":[-0.7525,40.253055555556]}},{"type":"Feature","properties":{"en":"Tarazona y el Moncayo","fr":"Tarazona y el Moncayo"},"geometry":{"type":"Point","coordinates":[-1.72111111111111,41.9055555555556]}},{"type":"Feature","properties":{"en":"Ribera Baja del Ebro","fr":"Ribera Baja del Ebro"},"geometry":{"type":"Point","coordinates":[-0.5,41.416666666667]}},{"type":"Feature","properties":{"en":"Valdejalón","fr":"Valdejalón"},"geometry":{"type":"Point","coordinates":[-1.3,41.55]}}]}