{"type":"FeatureCollection","features":[{"type":"Feature","properties":{"en":"Ober-Olm","fr":"Ober-Olm"},"geometry":{"type":"Point","coordinates":[8.1888888888889,49.936944444444]}},{"type":"Feature","properties":{"en":"Rülzheim","fr":"Rülzheim"},"geometry":{"type":"Point","coordinates":[8.2936111111111,49.155555555556]}},{"type":"Feature","properties":{"en":"Bodenheim","fr":"Bodenheim"},"geometry":{"type":"Point","coordinates":[8.3133333333333,49.929722222222]}},{"type":"Feature","properties":{"en":"Burbach","fr":"Burbach"},"geometry":{"type":"Point","coordinates":[6.5177777777778,50.106666666667]}},{"type":"Feature","properties":{"en":"Lörzweiler","fr":"Lörzweiler"},"geometry":{"type":"Point","coordinates":[8.2944444444444,49.898055555556]}},{"type":"Feature","properties":{"en":"Ockenheim","fr":"Ockenheim"},"geometry":{"type":"Point","coordinates":[7.9666666666667,49.933055555556]}},{"type":"Feature","properties":{"en":"Weinolsheim","fr":"Weinolsheim"},"geometry":{"type":"Point","coordinates":[8.2727777777778,49.815555555556]}},{"type":"Feature","properties":{"en":"Rheinbreitbach","fr":"Rheinbreitbach"},"geometry":{"type":"Point","coordinates":[7.2308333333333,50.620277777778]}},{"type":"Feature","properties":{"en":"Essenheim","fr":"Essenheim"},"geometry":{"type":"Point","coordinates":[8.1555555555556,49.930555555556]}},{"type":"Feature","properties":{"en":"Appenheim","fr":"Appenheim"},"geometry":{"type":"Point","coordinates":[8.0330555555556,49.929722222222]}},{"type":"Feature","properties":{"en":"Waldalgesheim","fr":"Waldalgesheim"},"geometry":{"type":"Point","coordinates":[7.8363888888889,49.951111111111]}},{"type":"Feature","properties":{"en":"Harxheim","fr":"Harxheim"},"geometry":{"type":"Point","coordinates":[8.2641666666667,49.905277777778]}},{"type":"Feature","properties":{"en":"Dexheim","fr":"Dexheim"},"geometry":{"type":"Point","coordinates":[8.3166666666667,49.847222222222]}},{"type":"Feature","properties":{"en":"Klein-Winternheim","fr":"Klein-Winternheim"},"geometry":{"type":"Point","coordinates":[8.2116666666667,49.938055555556]}},{"type":"Feature","properties":{"en":"Kappel","fr":"Kappel"},"geometry":{"type":"Point","coordinates":[7.36,50.000555555556]}},{"type":"Feature","properties":{"en":"Dolgesheim","fr":"Dolgesheim"},"geometry":{"type":"Point","coordinates":[8.2566666666667,49.794166666667]}},{"type":"Feature","properties":{"en":"Dienheim","fr":"Dienheim"},"geometry":{"type":"Point","coordinates":[8.3505555555556,49.840277777778]}},{"type":"Feature","properties":{"en":"Schweigen-Rechtenbach","fr":"Schweigen-Rechtenbach"},"geometry":{"type":"Point","coordinates":[7.95614694444444,49.0529261111111]}},{"type":"Feature","properties":{"en":"Weiler bei Bingen","fr":"Weiler bei Bingen"},"geometry":{"type":"Point","coordinates":[7.8669444444444,49.957777777778]}},{"type":"Feature","properties":{"en":"Guntersblum","fr":"Guntersblum"},"geometry":{"type":"Point","coordinates":[8.3455555555556,49.797222222222]}},{"type":"Feature","properties":{"en":"Münster-Sarmsheim","fr":"Münster-Sarmsheim"},"geometry":{"type":"Point","coordinates":[7.8977777777778,49.944722222222]}},{"type":"Feature","properties":{"en":"Dalheim","fr":"Dalheim"},"geometry":{"type":"Point","coordinates":[8.2952777777778,49.826666666667]}},{"type":"Feature","properties":{"en":"Mommenheim","fr":"Mommenheim"},"geometry":{"type":"Point","coordinates":[8.2694444444444,49.883333333333]}},{"type":"Feature","properties":{"en":"Schwabenheim an der Selz","fr":"Schwabenheim an der Selz"},"geometry":{"type":"Point","coordinates":[8.0941666666667,49.932777777778]}},{"type":"Feature","properties":{"en":"Uelversheim","fr":"Uelversheim"},"geometry":{"type":"Point","coordinates":[8.2883333333333,49.81]}},{"type":"Feature","properties":{"en":"Stadecken-Elsheim","fr":"Stadecken-Elsheim"},"geometry":{"type":"Point","coordinates":[8.1252777777778,49.911944444444]}},{"type":"Feature","properties":{"en":"Nackenheim","fr":"Nackenheim"},"geometry":{"type":"Point","coordinates":[8.3388888888889,49.915277777778]}},{"type":"Feature","properties":{"en":"Eimsheim","fr":"Eimsheim"},"geometry":{"type":"Point","coordinates":[8.2891666666667,49.795555555556]}}]}