{"type":"FeatureCollection","features":[{"type":"Feature","properties":{"en":"1st arrondissement of Paris","fr":"1er arrondissement de Paris"},"geometry":{"type":"Point","coordinates":[2.342059,48.859947]}},{"type":"Feature","properties":{"en":"10ᵗʰ arrondissement of Paris","fr":"10ᵉ arrondissement de Paris"},"geometry":{"type":"Point","coordinates":[2.3578527777778,48.875508333333]}},{"type":"Feature","properties":{"en":"11th arrondissement of Paris","fr":"11e arrondissement de Paris"},"geometry":{"type":"Point","coordinates":[2.3793055555556,48.858677777778]}},{"type":"Feature","properties":{"en":"12th arrondissement of Paris","fr":"12e arrondissement de Paris"},"geometry":{"type":"Point","coordinates":[2.3881833333333,48.840808333333]}},{"type":"Feature","properties":{"en":"13th arrondissement of Paris","fr":"13e arrondissement de Paris"},"geometry":{"type":"Point","coordinates":[2.3555555555556,48.832222222222]}},{"type":"Feature","properties":{"en":"14th arrondissement of Paris","fr":"14e arrondissement de Paris"},"geometry":{"type":"Point","coordinates":[2.3268888888889,48.833022222222]}},{"type":"Feature","properties":{"en":"15th arrondissement of Paris","fr":"15e arrondissement de Paris"},"geometry":{"type":"Point","coordinates":[2.3002916666667,48.841327777778]}},{"type":"Feature","properties":{"en":"16th arrondissement of Paris","fr":"16e arrondissement de Paris"},"geometry":{"type":"Point","coordinates":[2.2764888888889,48.863611111111]}},{"type":"Feature","properties":{"en":"17th arrondissement of Paris","fr":"17e arrondissement de Paris"},"geometry":{"type":"Point","coordinates":[2.3078388888889,48.882244444444]}},{"type":"Feature","properties":{"en":"18th arrondissement of Paris","fr":"18e arrondissement de Paris"},"geometry":{"type":"Point","coordinates":[2.3444472222222,48.89215]}},{"type":"Feature","properties":{"en":"19th arrondissement of Paris","fr":"19e arrondissement de Paris"},"geometry":{"type":"Point","coordinates":[2.3818222222222,48.88235]}},{"type":"Feature","properties":{"en":"2nd arrondissement of Paris","fr":"2e arrondissement de Paris"},"geometry":{"type":"Point","coordinates":[2.34047,48.86688]}},{"type":"Feature","properties":{"en":"20th arrondissement of Paris","fr":"20e arrondissement de Paris"},"geometry":{"type":"Point","coordinates":[2.39905,48.865061111111]}},{"type":"Feature","properties":{"en":"3rd arrondissement of Paris","fr":"3e arrondissement de Paris"},"geometry":{"type":"Point","coordinates":[2.361531,48.864027]}},{"type":"Feature","properties":{"en":"4th arrondissement of Paris","fr":"4e arrondissement de Paris"},"geometry":{"type":"Point","coordinates":[2.3555555555556,48.855555555556]}},{"type":"Feature","properties":{"en":"5th arrondissement of Paris","fr":"5e arrondissement de Paris"},"geometry":{"type":"Point","coordinates":[2.3444444444444,48.847222222222]}},{"type":"Feature","properties":{"en":"6th arrondissement of Paris","fr":"6e arrondissement de Paris"},"geometry":{"type":"Point","coordinates":[2.3322333333333,48.850530555556]}},{"type":"Feature","properties":{"en":"7th arrondissement of Paris","fr":"7e arrondissement de Paris"},"geometry":{"type":"Point","coordinates":[2.3127777777778,48.859166666667]}},{"type":"Feature","properties":{"en":"8th arrondissement of Paris","fr":"8e arrondissement de Paris"},"geometry":{"type":"Point","coordinates":[2.3111111111111,48.874166666667]}},{"type":"Feature","properties":{"en":"9th arrondissement of Paris","fr":"9e arrondissement de Paris"},"geometry":{"type":"Point","coordinates":[2.3369666666667,48.878280555556]}},{"type":"Feature","properties":{"en":"former 11th arrondissement of Paris","fr":"ancien 11e arrondissement de Paris"},"geometry":{"type":"Point","coordinates":[2.332578,48.850555]}}]}