{"type":"FeatureCollection","features":[{"type":"Feature","properties":{"en":"Shuangjiang Town","fr":"bourg de Shuangjiang"},"geometry":{"type":"Point","coordinates":[117.31235,39.0419]}},{"type":"Feature","properties":{"en":"Gaoliying","fr":"Gaoliying zhen"},"geometry":{"type":"Point","coordinates":[116.49333333333,40.157777777778]}},{"type":"Feature","properties":{"en":"Daibu Town","fr":"bourg de Daibu"},"geometry":{"type":"Point","coordinates":[119.48709,31.31189]}},{"type":"Feature","properties":{"en":"Zhuze Town","fr":"bourg de Zhuze"},"geometry":{"type":"Point","coordinates":[119.32507,31.556]}},{"type":"Feature","properties":{"en":"Xiaotangshan","fr":""},"geometry":{"type":"Point","coordinates":[116.393611111111,40.1758333333333]}},{"type":"Feature","properties":{"en":"Wanliu","fr":""},"geometry":{"type":"Point","coordinates":[116.28968,39.98939]}},{"type":"Feature","properties":{"en":"Xinzhuang Town","fr":"bourg de Xinzhuang"},"geometry":{"type":"Point","coordinates":[121.36568,31.12309]}},{"type":"Feature","properties":{"en":"Zhongbei","fr":""},"geometry":{"type":"Point","coordinates":[117.07972222222,39.131388888889]}},{"type":"Feature","properties":{"en":"Shangxing Town","fr":"bourg de Shangxing"},"geometry":{"type":"Point","coordinates":[119.25043,31.52788]}},{"type":"Feature","properties":{"en":"Shangzhuang","fr":""},"geometry":{"type":"Point","coordinates":[116.20898,40.09442]}},{"type":"Feature","properties":{"en":"Shanhuang Town","fr":"bourg de Shanhuang"},"geometry":{"type":"Point","coordinates":[119.56471,31.54722]}},{"type":"Feature","properties":{"en":"Dongxianpo","fr":""},"geometry":{"type":"Point","coordinates":[115.9865,39.56096]}},{"type":"Feature","properties":{"en":"Dongsheng","fr":""},"geometry":{"type":"Point","coordinates":[116.3282,39.99283]}},{"type":"Feature","properties":{"en":"Dongxiaokou","fr":""},"geometry":{"type":"Point","coordinates":[116.40247,40.05675]}},{"type":"Feature","properties":{"en":"Yihezhuang Town","fr":"bourg de Yihezhuang"},"geometry":{"type":"Point","coordinates":[116.07436,39.13727]}},{"type":"Feature","properties":{"en":"Jiuzhou","fr":""},"geometry":{"type":"Point","coordinates":[116.56417,39.50542]}},{"type":"Feature","properties":{"en":"Jiuduhe","fr":"Jiuduhe"},"geometry":{"type":"Point","coordinates":[116.45377,40.35954]}},{"type":"Feature","properties":{"en":"Xingshou","fr":""},"geometry":{"type":"Point","coordinates":[116.40314,40.21306]}},{"type":"Feature","properties":{"en":"Junzhuang Town","fr":"bourg de Junzhuang"},"geometry":{"type":"Point","coordinates":[116.09695,40.0024]}},{"type":"Feature","properties":{"en":"Bieqiao Town","fr":"bourg de Bieqiao"},"geometry":{"type":"Point","coordinates":[119.46462,31.55796]}},{"type":"Feature","properties":{"en":"Beiqijia Town","fr":"bourg de Beiqijia"},"geometry":{"type":"Point","coordinates":[116.41787,40.1165]}},{"type":"Feature","properties":{"en":"Nankou","fr":"Nankou"},"geometry":{"type":"Point","coordinates":[116.12868,40.24527]}},{"type":"Feature","properties":{"en":"Sijiqing","fr":""},"geometry":{"type":"Point","coordinates":[116.26874,39.95282]}},{"type":"Feature","properties":{"en":"Sihai","fr":""},"geometry":{"type":"Point","coordinates":[116.40695,40.52999]}},{"type":"Feature","properties":{"en":"Tangkou Township","fr":""},"geometry":{"type":"Point","coordinates":[112.58234,22.36406]}},{"type":"Feature","properties":{"en":"Dasi Town","fr":"bourg de Dasi"},"geometry":{"type":"Point","coordinates":[117.234166666667,39.0186111111111]}},{"type":"Feature","properties":{"en":"Tianmuhu Town","fr":"bourg de Tianmuhu"},"geometry":{"type":"Point","coordinates":[119.43995,31.325]}},{"type":"Feature","properties":{"en":"Tianmu Town","fr":"bourg de Tianmu"},"geometry":{"type":"Point","coordinates":[117.14313,39.20027]}},{"type":"Feature","properties":{"en":"Miaofengshan Town","fr":"bourg de Miaofengshan"},"geometry":{"type":"Point","coordinates":[116.04403,39.97439]}},{"type":"Feature","properties":{"en":"Panggezhuang Town","fr":"bourg de Panggezhuang"},"geometry":{"type":"Point","coordinates":[116.31783,39.63364]}},{"type":"Feature","properties":{"en":"Kangzhuang Town","fr":"bourg de Kangzhuang"},"geometry":{"type":"Point","coordinates":[115.89407,40.38142]}},{"type":"Feature","properties":{"en":"Zhangjiawo Town","fr":"bourg de Zhangjiawo"},"geometry":{"type":"Point","coordinates":[117.03624,39.05675]}},{"type":"Feature","properties":{"en":"Zhaitang","fr":""},"geometry":{"type":"Point","coordinates":[115.69173,39.97226]}},{"type":"Feature","properties":{"en":"Meilong Town","fr":"bourg de Meilong"},"geometry":{"type":"Point","coordinates":[121.3977,31.13432]}},{"type":"Feature","properties":{"en":"Yufa","fr":""},"geometry":{"type":"Point","coordinates":[116.30938,39.50948]}},{"type":"Feature","properties":{"en":"Yongning","fr":""},"geometry":{"type":"Point","coordinates":[116.15748,40.52533]}},{"type":"Feature","properties":{"en":"Yongding","fr":""},"geometry":{"type":"Point","coordinates":[116.10412,39.90173]}},{"type":"Feature","properties":{"en":"Shahe","fr":""},"geometry":{"type":"Point","coordinates":[116.24657,40.15744]}},{"type":"Feature","properties":{"en":"Hukeng Town","fr":"bourg de Hukeng"},"geometry":{"type":"Point","coordinates":[114.3064,27.47057]}},{"type":"Feature","properties":{"en":"Longquan","fr":""},"geometry":{"type":"Point","coordinates":[116.08863,39.94315]}},{"type":"Feature","properties":{"en":"Beigong","fr":"Bourg de Changxindian"},"geometry":{"type":"Point","coordinates":[116.20334,39.83995]}},{"type":"Feature","properties":{"en":"Wangzuo Town","fr":"bourg de Wangzuo"},"geometry":{"type":"Point","coordinates":[116.1499,39.80014]}},{"type":"Feature","properties":{"en":"Wenquan","fr":""},"geometry":{"type":"Point","coordinates":[116.17456,40.04748]}},{"type":"Feature","properties":{"en":"Xibeiwang","fr":""},"geometry":{"type":"Point","coordinates":[116.2575,40.0469444444444]}},{"type":"Feature","properties":{"en":"Sujiatuo","fr":""},"geometry":{"type":"Point","coordinates":[116.11046,40.06504]}},{"type":"Feature","properties":{"en":"Wangping","fr":""},"geometry":{"type":"Point","coordinates":[115.9874,39.9683]}},{"type":"Feature","properties":{"en":"Tanzhesi","fr":""},"geometry":{"type":"Point","coordinates":[116.02386,39.87751]}},{"type":"Feature","properties":{"en":"Yanchi","fr":""},"geometry":{"type":"Point","coordinates":[115.83375,40.02126]}},{"type":"Feature","properties":{"en":"Qingshui","fr":""},"geometry":{"type":"Point","coordinates":[115.61978,39.94278]}},{"type":"Feature","properties":{"en":"Zhoukoudian","fr":""},"geometry":{"type":"Point","coordinates":[115.94603,39.67965]}},{"type":"Feature","properties":{"en":"Liulihe","fr":""},"geometry":{"type":"Point","coordinates":[116.02922,39.61101]}},{"type":"Feature","properties":{"en":"Yancun","fr":""},"geometry":{"type":"Point","coordinates":[116.08449,39.7147]}},{"type":"Feature","properties":{"en":"Changyang","fr":""},"geometry":{"type":"Point","coordinates":[116.21258,39.70729]}},{"type":"Feature","properties":{"en":"Qinglonghu","fr":""},"geometry":{"type":"Point","coordinates":[116.033333333333,39.775]}},{"type":"Feature","properties":{"en":"Hancunhe","fr":""},"geometry":{"type":"Point","coordinates":[115.96657,39.60096]}},{"type":"Feature","properties":{"en":"Zhaoquanying Town","fr":"bourg de Zhaoquanying"},"geometry":{"type":"Point","coordinates":[116.58435,40.21241]}},{"type":"Feature","properties":{"en":"Machikou","fr":""},"geometry":{"type":"Point","coordinates":[116.16056,40.18318]}},{"type":"Feature","properties":{"en":"Yangfang","fr":""},"geometry":{"type":"Point","coordinates":[116.13326,40.137]}},{"type":"Feature","properties":{"en":"Baishan","fr":""},"geometry":{"type":"Point","coordinates":[116.31447,40.16561]}},{"type":"Feature","properties":{"en":"Lixian","fr":""},"geometry":{"type":"Point","coordinates":[116.42921,39.55549]}},{"type":"Feature","properties":{"en":"Jingwu Town","fr":"bourg de Jingwu"},"geometry":{"type":"Point","coordinates":[117.110555555556,39.0438888888889]}},{"type":"Feature","properties":{"en":"Xinzhuang Town","fr":"bourg de Xinzhuang"},"geometry":{"type":"Point","coordinates":[117.34351,39.02567]}},{"type":"Feature","properties":{"en":"Qingguang Town","fr":"bourg de Qingguang"},"geometry":{"type":"Point","coordinates":[117.05475,39.19668]}},{"type":"Feature","properties":{"en":"Shezhu Town","fr":"bourg de Shezhu"},"geometry":{"type":"Point","coordinates":[119.27118,31.31942]}},{"type":"Feature","properties":{"en":"Matou Town","fr":"bourg de Matou"},"geometry":{"type":"Point","coordinates":[116.10634,39.55028]}},{"type":"Feature","properties":{"en":"Chikan","fr":""},"geometry":{"type":"Point","coordinates":[112.58156,22.3229]}},{"type":"Feature","properties":{"en":"Baihe Town","fr":"bourg de Baihe"},"geometry":{"type":"Point","coordinates":[112.5418,22.315]}},{"type":"Feature","properties":{"en":"Xiangang Town","fr":"bourg de Xiangang"},"geometry":{"type":"Point","coordinates":[112.5305,22.2726]}},{"type":"Feature","properties":{"en":"Daitou","fr":""},"geometry":{"type":"Point","coordinates":[119.51742,31.49573]}},{"type":"Feature","properties":{"en":"Liucun","fr":""},"geometry":{"type":"Point","coordinates":[116.058055555556,40.1813888888889]}},{"type":"Feature","properties":{"en":"Badaling","fr":""},"geometry":{"type":"Point","coordinates":[115.98511,40.36397]}},{"type":"Feature","properties":{"en":"Licheng town","fr":"bourg de Licheng"},"geometry":{"type":"Point","coordinates":[119.48361111111,31.428055555556]}},{"type":"Feature","properties":{"en":"Nandu Town, Liyang","fr":""},"geometry":{"type":"Point","coordinates":[119.32897,31.44156]}}]}