{"type":"FeatureCollection","features":[{"type":"Feature","properties":{"en":"Pikine Department","fr":"Département de Pikine"},"geometry":{"type":"Point","coordinates":[-17.399722222222,14.750277777778]}},{"type":"Feature","properties":{"en":"Guédiawaye Department","fr":"Département de Guédiawaye"},"geometry":{"type":"Point","coordinates":[-17.3866111111111,14.7712222222222]}},{"type":"Feature","properties":{"en":"Louga Department","fr":"Louga"},"geometry":{"type":"Point","coordinates":[-16.2287693947908,15.6143203299288]}},{"type":"Feature","properties":{"en":"Podor Department","fr":"Département de Podor"},"geometry":{"type":"Point","coordinates":[-14.9590036111184,16.6586397836412]}},{"type":"Feature","properties":{"en":"Saint-Louis Department","fr":"Département de Saint-Louis"},"geometry":{"type":"Point","coordinates":[-16.4918789562264,16.0257800789496]}},{"type":"Feature","properties":{"en":"Bounkiling Department","fr":"Bounkiling"},"geometry":{"type":"Point","coordinates":[-15.7,13.05]}},{"type":"Feature","properties":{"en":"Goudomp Department","fr":"Département de Goudomp"},"geometry":{"type":"Point","coordinates":[-15.872222222222,12.577777777778]}},{"type":"Feature","properties":{"en":"Sédhiou Department","fr":"Sédhiou"},"geometry":{"type":"Point","coordinates":[-15.55694444,12.70805556]}},{"type":"Feature","properties":{"en":"Dakar Department","fr":"Département de Dakar"},"geometry":{"type":"Point","coordinates":[-17.45,14.7]}},{"type":"Feature","properties":{"en":"Rufisque Department","fr":"Département de Rufisque"},"geometry":{"type":"Point","coordinates":[-17.2713888888889,14.7133333333333]}},{"type":"Feature","properties":{"en":"Médina Yoro Foulah Department","fr":"département de Médina Yoro Foulah"},"geometry":{"type":"Point","coordinates":[-14.7142645413538,13.2905795610082]}},{"type":"Feature","properties":{"en":"Kolda Department","fr":"Département de Kolda"},"geometry":{"type":"Point","coordinates":[-14.95,12.883]}},{"type":"Feature","properties":{"en":"Vélingara Department","fr":"département de Vélingara"},"geometry":{"type":"Point","coordinates":[-14.1,13.125]}},{"type":"Feature","properties":{"en":"Linguère","fr":"Linguère"},"geometry":{"type":"Point","coordinates":[-15.119166666667,15.395277777778]}},{"type":"Feature","properties":{"en":"Matam","fr":"Matam"},"geometry":{"type":"Point","coordinates":[-13.330277777778,15.6175]}},{"type":"Feature","properties":{"en":"Kanel Department","fr":"Kanel"},"geometry":{"type":"Point","coordinates":[-13.176388888889,15.491666666667]}},{"type":"Feature","properties":{"en":"Ranérou Ferlo Department","fr":"Ranérou-Ferlo"},"geometry":{"type":"Point","coordinates":[-13.9559570212778,15.295679260522]}},{"type":"Feature","properties":{"en":"Kébémer","fr":"Kébémer"},"geometry":{"type":"Point","coordinates":[-16.45,15.37]}},{"type":"Feature","properties":{"en":"Ziguinchor Department","fr":"département de Ziguinchor"},"geometry":{"type":"Point","coordinates":[-16.2753055555556,12.5848055555556]}},{"type":"Feature","properties":{"en":"Oussouye Department","fr":"département d'Oussouye"},"geometry":{"type":"Point","coordinates":[-16.546944444444,12.485]}},{"type":"Feature","properties":{"en":"Bignona Department","fr":"département de Bignona"},"geometry":{"type":"Point","coordinates":[-16.2297222222222,12.8116666666667]}},{"type":"Feature","properties":{"en":"Dagana Department","fr":"Département de Dagana"},"geometry":{"type":"Point","coordinates":[-15.6,16.47666667]}},{"type":"Feature","properties":{"en":"Keur Massar Department","fr":"Département de Keur Massar"},"geometry":{"type":"Point","coordinates":[-17.3139,14.7785]}}]}