{"type":"FeatureCollection","features":[{"type":"Feature","properties":{"en":"Granada Department","fr":"Granada"},"geometry":{"type":"Point","coordinates":[-85.9535916666667,11.93035]}},{"type":"Feature","properties":{"en":"Managua Department","fr":"département de Managua"},"geometry":{"type":"Point","coordinates":[-86.2729861111111,12.1563833333333]}},{"type":"Feature","properties":{"en":"Boaco Department","fr":"Boaco"},"geometry":{"type":"Point","coordinates":[-85.6598194444444,12.4717722222222]}},{"type":"Feature","properties":{"en":"Carazo Department","fr":"Carazo"},"geometry":{"type":"Point","coordinates":[-86.19925,11.8478166666667]}},{"type":"Feature","properties":{"en":"Chontales Department","fr":"Chontales"},"geometry":{"type":"Point","coordinates":[-85.3689416666667,12.1085666666667]}},{"type":"Feature","properties":{"en":"Masaya Department","fr":"département de Masaya"},"geometry":{"type":"Point","coordinates":[-86.0960583333333,11.9736166666667]}},{"type":"Feature","properties":{"en":"León Department","fr":"León"},"geometry":{"type":"Point","coordinates":[-86.8788333333333,12.434825]}},{"type":"Feature","properties":{"en":"Chinandega Department","fr":"Chinandega"},"geometry":{"type":"Point","coordinates":[-87.1347388888889,12.6310527777778]}},{"type":"Feature","properties":{"en":"Estelí Department","fr":"Estelí"},"geometry":{"type":"Point","coordinates":[-86.3554472222222,13.0930916666667]}},{"type":"Feature","properties":{"en":"Nueva Segovia Department","fr":"Nueva Segovia"},"geometry":{"type":"Point","coordinates":[-86.4763888888889,13.6332861111111]}},{"type":"Feature","properties":{"en":"Madriz Department","fr":"Madriz"},"geometry":{"type":"Point","coordinates":[-86.582625,13.4836805555556]}},{"type":"Feature","properties":{"en":"Matagalpa Department","fr":"Matagalpa"},"geometry":{"type":"Point","coordinates":[-85.9184472222222,12.9283611111111]}},{"type":"Feature","properties":{"en":"Jinotega Department","fr":"Jinotega"},"geometry":{"type":"Point","coordinates":[-86.0023611111111,13.0910083333333]}},{"type":"Feature","properties":{"en":"Rivas Department","fr":"Rivas"},"geometry":{"type":"Point","coordinates":[-85.8287416666667,11.4389083333333]}},{"type":"Feature","properties":{"en":"Río San Juan Department","fr":"Río San Juan"},"geometry":{"type":"Point","coordinates":[-84.7783444444444,11.1230388888889]}}]}