{"type":"FeatureCollection","features":[{"type":"Feature","properties":{"en":"Innsbruck","fr":"Innsbruck"},"geometry":{"type":"Point","coordinates":[11.393333333333,47.268333333333]}},{"type":"Feature","properties":{"en":"Vienna","fr":"Vienne"},"geometry":{"type":"Point","coordinates":[16.3725,48.2083333333333]}},{"type":"Feature","properties":{"en":"Graz","fr":"Graz"},"geometry":{"type":"Point","coordinates":[15.4386111111111,47.0708333333333]}},{"type":"Feature","properties":{"en":"Salzburg","fr":"Salzbourg"},"geometry":{"type":"Point","coordinates":[13.045,47.8]}},{"type":"Feature","properties":{"en":"Linz","fr":"Linz"},"geometry":{"type":"Point","coordinates":[14.2863888888889,48.3058333333333]}},{"type":"Feature","properties":{"en":"Klagenfurt am Wörthersee","fr":"Klagenfurt"},"geometry":{"type":"Point","coordinates":[14.3,46.616666666667]}},{"type":"Feature","properties":{"en":"Eferding District","fr":"district d'Eferding"},"geometry":{"type":"Point","coordinates":[14.006,48.317]}},{"type":"Feature","properties":{"en":"Schärding District","fr":"district de Schärding"},"geometry":{"type":"Point","coordinates":[13.578,48.44]}},{"type":"Feature","properties":{"en":"St. Pölten","fr":"Sankt Pölten"},"geometry":{"type":"Point","coordinates":[15.616666666667,48.2]}},{"type":"Feature","properties":{"en":"Eisenstadt","fr":"Eisenstadt"},"geometry":{"type":"Point","coordinates":[16.52327,47.845649]}},{"type":"Feature","properties":{"en":"Krems","fr":""},"geometry":{"type":"Point","coordinates":[15.616666666667,48.416666666667]}},{"type":"Feature","properties":{"en":"Wiener Neustadt","fr":"Wiener Neustadt"},"geometry":{"type":"Point","coordinates":[16.25,47.816666666667]}},{"type":"Feature","properties":{"en":"Horn District","fr":"district de Horn"},"geometry":{"type":"Point","coordinates":[15.6572,48.6639]}},{"type":"Feature","properties":{"en":"Wels","fr":"Wels"},"geometry":{"type":"Point","coordinates":[14.016666666667,48.15]}},{"type":"Feature","properties":{"en":"Lienz District","fr":"district de Lienz"},"geometry":{"type":"Point","coordinates":[12.5513888888889,46.8852777777778]}},{"type":"Feature","properties":{"en":"Rohrbach District","fr":"district de Rohrbach"},"geometry":{"type":"Point","coordinates":[13.973,48.544]}},{"type":"Feature","properties":{"en":"Scheibbs District","fr":"district de Scheibbs"},"geometry":{"type":"Point","coordinates":[15.089,48.011]}},{"type":"Feature","properties":{"en":"Gmunden District","fr":"district de Gmunden"},"geometry":{"type":"Point","coordinates":[13.794,47.901]}},{"type":"Feature","properties":{"en":"Urfahr-Umgebung District","fr":"district d'Urfahr-Umgebung"},"geometry":{"type":"Point","coordinates":[14.2780555555556,48.4069444444444]}},{"type":"Feature","properties":{"en":"Mödling District","fr":"district de Mödling"},"geometry":{"type":"Point","coordinates":[16.239,48.095]}},{"type":"Feature","properties":{"en":"Hallein District","fr":"district de Hallein"},"geometry":{"type":"Point","coordinates":[13.167,47.65]}},{"type":"Feature","properties":{"en":"Kufstein District","fr":"district de Kufstein"},"geometry":{"type":"Point","coordinates":[12.1,47.5]}},{"type":"Feature","properties":{"en":"Salzburg-Umgebung District","fr":"district de Salzbourg-Umgebung"},"geometry":{"type":"Point","coordinates":[13.083,47.867]}},{"type":"Feature","properties":{"en":"Braunau District","fr":"district de Braunau am Inn"},"geometry":{"type":"Point","coordinates":[13.109,48.131]}},{"type":"Feature","properties":{"en":"Liezen District","fr":"district de Liezen"},"geometry":{"type":"Point","coordinates":[14.116,47.527]}},{"type":"Feature","properties":{"en":"St. Johann im Pongau District","fr":"district de Sankt Johann im Pongau"},"geometry":{"type":"Point","coordinates":[13.233,47.35]}},{"type":"Feature","properties":{"en":"Freistadt District","fr":"district de Freistadt"},"geometry":{"type":"Point","coordinates":[14.564,48.444]}},{"type":"Feature","properties":{"en":"Mistelbach District","fr":"district de Mistelbach"},"geometry":{"type":"Point","coordinates":[16.502,48.644]}},{"type":"Feature","properties":{"en":"Zell am See District","fr":"district de Zell am See"},"geometry":{"type":"Point","coordinates":[12.7,47.35]}},{"type":"Feature","properties":{"en":"Rust","fr":"Rust"},"geometry":{"type":"Point","coordinates":[16.675833333333,47.800833333333]}},{"type":"Feature","properties":{"en":"Steyr","fr":"Steyr"},"geometry":{"type":"Point","coordinates":[14.416666666667,48.05]}},{"type":"Feature","properties":{"en":"Eisenstadt-Umgebung District","fr":"district d'Eisenstadt-Umgebung"},"geometry":{"type":"Point","coordinates":[16.54,47.838]}},{"type":"Feature","properties":{"en":"Melk District","fr":"district de Melk"},"geometry":{"type":"Point","coordinates":[15.204,48.2]}},{"type":"Feature","properties":{"en":"Ried District","fr":"district de Ried im Innkreis"},"geometry":{"type":"Point","coordinates":[13.435,48.241]}},{"type":"Feature","properties":{"en":"Linz-Land District","fr":"district de Linz-Land"},"geometry":{"type":"Point","coordinates":[14.24,48.208]}},{"type":"Feature","properties":{"en":"Kitzbühel District","fr":"district de Kitzbühel"},"geometry":{"type":"Point","coordinates":[12.4,47.5]}},{"type":"Feature","properties":{"en":"Schwaz District","fr":"district de Schwaz"},"geometry":{"type":"Point","coordinates":[11.8,47.4]}},{"type":"Feature","properties":{"en":"Vöcklabruck District","fr":"district de Vöcklabruck"},"geometry":{"type":"Point","coordinates":[13.575,48.009]}},{"type":"Feature","properties":{"en":"Tamsweg District","fr":"district de Tamsweg"},"geometry":{"type":"Point","coordinates":[13.8166666666667,47.1166666666667]}},{"type":"Feature","properties":{"en":"Baden District","fr":"district de Baden"},"geometry":{"type":"Point","coordinates":[16.231111111111,48.003333333333]}},{"type":"Feature","properties":{"en":"Feldkirch District","fr":"district de Feldkirch"},"geometry":{"type":"Point","coordinates":[9.664,47.279]}},{"type":"Feature","properties":{"en":"Murau District","fr":"district de Murau"},"geometry":{"type":"Point","coordinates":[14.283,47.117]}},{"type":"Feature","properties":{"en":"Waidhofen an der Ybbs","fr":"Waidhofen an der Ybbs"},"geometry":{"type":"Point","coordinates":[14.77453,47.95964]}},{"type":"Feature","properties":{"en":"Villach","fr":"Villach"},"geometry":{"type":"Point","coordinates":[13.833333333333,46.616666666667]}},{"type":"Feature","properties":{"en":"Murtal District","fr":"district de Murtal"},"geometry":{"type":"Point","coordinates":[14.66027778,47.1725]}},{"type":"Feature","properties":{"en":"Bruck an der Leitha District","fr":"district de Bruck an der Leitha"},"geometry":{"type":"Point","coordinates":[16.7788888888889,48.0291666666667]}},{"type":"Feature","properties":{"en":"Waidhofen an der Thaya District","fr":"district de Waidhofen an der Thaya"},"geometry":{"type":"Point","coordinates":[15.299,48.844]}},{"type":"Feature","properties":{"en":"Hermagor District","fr":"district de Hermagor"},"geometry":{"type":"Point","coordinates":[13.183,46.662]}},{"type":"Feature","properties":{"en":"Grieskirchen District","fr":"district de Grieskirchen"},"geometry":{"type":"Point","coordinates":[13.78,48.246]}},{"type":"Feature","properties":{"en":"Deutschlandsberg District","fr":"district de Deutschlandsberg"},"geometry":{"type":"Point","coordinates":[15.25,46.823]}},{"type":"Feature","properties":{"en":"Oberwart District","fr":"district d'Oberwart"},"geometry":{"type":"Point","coordinates":[16.243,47.294]}},{"type":"Feature","properties":{"en":"St. Veit an der Glan District","fr":"district de Sankt Veit an der Glan"},"geometry":{"type":"Point","coordinates":[14.428,46.862]}},{"type":"Feature","properties":{"en":"Villach-Land District","fr":"district de Villach-Land"},"geometry":{"type":"Point","coordinates":[13.724,46.624]}},{"type":"Feature","properties":{"en":"Völkermarkt District","fr":"district de Völkermarkt"},"geometry":{"type":"Point","coordinates":[14.644,46.591]}},{"type":"Feature","properties":{"en":"Spittal an der Drau District","fr":"district de Spittal an der Drau"},"geometry":{"type":"Point","coordinates":[13.306,46.833]}},{"type":"Feature","properties":{"en":"Güssing District","fr":"district de Güssing"},"geometry":{"type":"Point","coordinates":[16.261,47.118]}},{"type":"Feature","properties":{"en":"Neusiedl am See District","fr":"district de Neusiedl am See"},"geometry":{"type":"Point","coordinates":[16.934,47.928]}},{"type":"Feature","properties":{"en":"Leibnitz District","fr":"district de Leibnitz"},"geometry":{"type":"Point","coordinates":[15.533,46.782]}},{"type":"Feature","properties":{"en":"Kirchdorf District","fr":"district de Kirchdorf"},"geometry":{"type":"Point","coordinates":[14.158,47.884]}},{"type":"Feature","properties":{"en":"Perg District","fr":"district de Perg"},"geometry":{"type":"Point","coordinates":[14.683,48.272]}},{"type":"Feature","properties":{"en":"Wels-Land District","fr":"district de Wels-Land"},"geometry":{"type":"Point","coordinates":[13.957,48.129]}},{"type":"Feature","properties":{"en":"Klagenfurt-Land District","fr":"district de Klagenfurt-Land"},"geometry":{"type":"Point","coordinates":[14.234,46.609]}},{"type":"Feature","properties":{"en":"Weiz District","fr":"district de Weiz"},"geometry":{"type":"Point","coordinates":[15.69,47.219]}},{"type":"Feature","properties":{"en":"Landeck District","fr":"district de Landeck"},"geometry":{"type":"Point","coordinates":[10.5,47.1]}},{"type":"Feature","properties":{"en":"Wolfsberg District","fr":"district de Wolfsberg"},"geometry":{"type":"Point","coordinates":[14.86,46.842]}},{"type":"Feature","properties":{"en":"Imst District","fr":"district d'Imst"},"geometry":{"type":"Point","coordinates":[10.9,47.1]}},{"type":"Feature","properties":{"en":"Leoben District","fr":"district de Leoben"},"geometry":{"type":"Point","coordinates":[14.977,47.41]}},{"type":"Feature","properties":{"en":"Feldkirchen District","fr":"district de Feldkirchen"},"geometry":{"type":"Point","coordinates":[14.037,46.75]}},{"type":"Feature","properties":{"en":"Graz-Umgebung District","fr":"district de Graz-Umgebung"},"geometry":{"type":"Point","coordinates":[15.415,47.062]}},{"type":"Feature","properties":{"en":"Voitsberg District","fr":"district de Voitsberg"},"geometry":{"type":"Point","coordinates":[15.114,47.05]}},{"type":"Feature","properties":{"en":"Hollabrunn District","fr":"district de Hollabrunn"},"geometry":{"type":"Point","coordinates":[16.017,48.649]}},{"type":"Feature","properties":{"en":"Korneuburg District","fr":"district de Korneuburg"},"geometry":{"type":"Point","coordinates":[16.258,48.392]}},{"type":"Feature","properties":{"en":"Neunkirchen District","fr":"district de Neunkirchen"},"geometry":{"type":"Point","coordinates":[16.0817,47.7269]}},{"type":"Feature","properties":{"en":"St. Pölten District","fr":"district de Sankt Pölten-Land"},"geometry":{"type":"Point","coordinates":[15.667,48.183]}},{"type":"Feature","properties":{"en":"Krems District","fr":"district de Krems"},"geometry":{"type":"Point","coordinates":[15.567,48.45]}},{"type":"Feature","properties":{"en":"Wiener Neustadt District","fr":"district de Wiener Neustadt-Land"},"geometry":{"type":"Point","coordinates":[16.340833333333,47.6225]}},{"type":"Feature","properties":{"en":"Gmünd District","fr":"district de Gmünd"},"geometry":{"type":"Point","coordinates":[14.9833,48.7667]}},{"type":"Feature","properties":{"en":"Tulln District","fr":"district de Tulln"},"geometry":{"type":"Point","coordinates":[15.98,48.33]}},{"type":"Feature","properties":{"en":"Gänserndorf District","fr":"district de Gänserndorf"},"geometry":{"type":"Point","coordinates":[16.718,48.341]}},{"type":"Feature","properties":{"en":"Amstetten District","fr":"district d'Amstetten"},"geometry":{"type":"Point","coordinates":[14.8667,48.1167]}},{"type":"Feature","properties":{"en":"Zwettl District","fr":"district de Zwettl"},"geometry":{"type":"Point","coordinates":[15.152,48.581]}},{"type":"Feature","properties":{"en":"Lilienfeld District","fr":"district de Lilienfeld"},"geometry":{"type":"Point","coordinates":[15.609,48.013]}},{"type":"Feature","properties":{"en":"Dornbirn District","fr":"district de Dornbirn"},"geometry":{"type":"Point","coordinates":[9.75,47.416666666667]}},{"type":"Feature","properties":{"en":"Bludenz District","fr":"district de Bludenz"},"geometry":{"type":"Point","coordinates":[9.9,47.1]}},{"type":"Feature","properties":{"en":"Bregenz District","fr":"district de Brégence"},"geometry":{"type":"Point","coordinates":[10.0,47.4]}},{"type":"Feature","properties":{"en":"Innsbruck-Land District","fr":"district d'Innsbruck-Land"},"geometry":{"type":"Point","coordinates":[11.4,47.2]}},{"type":"Feature","properties":{"en":"Mattersburg District","fr":"district de Mattersburg"},"geometry":{"type":"Point","coordinates":[16.417,47.746]}},{"type":"Feature","properties":{"en":"Oberpullendorf District","fr":"district d'Oberpullendorf"},"geometry":{"type":"Point","coordinates":[16.496,47.534]}},{"type":"Feature","properties":{"en":"Jennersdorf District","fr":"district de Jennersdorf"},"geometry":{"type":"Point","coordinates":[16.1416666666667,46.9366666666667]}},{"type":"Feature","properties":{"en":"Bruck-Mürzzuschlag District","fr":"district de Bruck-Mürzzuschlag"},"geometry":{"type":"Point","coordinates":[15.2667,47.4167]}},{"type":"Feature","properties":{"en":"Hartberg-Fürstenfeld District","fr":"district de Hartberg-Fürstenfeld"},"geometry":{"type":"Point","coordinates":[15.9667,47.2667]}},{"type":"Feature","properties":{"en":"Reutte district","fr":"district de Reutte"},"geometry":{"type":"Point","coordinates":[10.5,47.4]}},{"type":"Feature","properties":{"en":"Südoststeiermark District","fr":"district de Südoststeiermark"},"geometry":{"type":"Point","coordinates":[15.8833,46.95]}},{"type":"Feature","properties":{"en":"Steyr-Land District","fr":"district de Steyr-Land"},"geometry":{"type":"Point","coordinates":[14.409,48.014]}}]}