{"type":"FeatureCollection","features":[{"type":"Feature","properties":{"en":"Zizhuyuan Subdistrict","fr":"sous-district de Zizhuyuan"},"geometry":{"type":"Point","coordinates":[116.306206,39.943236]}},{"type":"Feature","properties":{"en":"Donghuamen Subdistrict","fr":"sous-district de Donghuamen"},"geometry":{"type":"Point","coordinates":[116.40336,39.91657]}},{"type":"Feature","properties":{"en":"Guancheng Subdistrict","fr":"sous-district de Wan Cheng"},"geometry":{"type":"Point","coordinates":[113.74417,23.04081]}},{"type":"Feature","properties":{"en":"Wangjing subdistrict","fr":"Wangjing"},"geometry":{"type":"Point","coordinates":[116.46321,39.99143]}},{"type":"Feature","properties":{"en":"Chaowai Subdistrict","fr":"sous-district de Chaowai"},"geometry":{"type":"Point","coordinates":[116.43171,39.91946]}},{"type":"Feature","properties":{"en":"Ganjiakou Subdistrict","fr":"sous-district de Ganjiakou"},"geometry":{"type":"Point","coordinates":[116.31512,39.91946]}},{"type":"Feature","properties":{"en":"Hepingli Subdistrict","fr":"sous-district de Hepingli"},"geometry":{"type":"Point","coordinates":[116.41723,39.95315]}},{"type":"Feature","properties":{"en":"Andingmen Subdistrict","fr":"sous-district d'Andingmen"},"geometry":{"type":"Point","coordinates":[116.40729,39.94283]}},{"type":"Feature","properties":{"en":"Beixiaguan Subdistrict","fr":"sous-district de Bei Xiaguan"},"geometry":{"type":"Point","coordinates":[116.342861111111,39.9423055555555]}},{"type":"Feature","properties":{"en":"Beixinqiao Subdistrict","fr":"sous-district de Beixinqiao"},"geometry":{"type":"Point","coordinates":[116.41816,39.94104]}},{"type":"Feature","properties":{"en":"Fangzhuang Subdistrict","fr":"sous-district de Fangzhuang"},"geometry":{"type":"Point","coordinates":[116.41955,39.85904]}},{"type":"Feature","properties":{"en":"Huayuanlu Subdistrict","fr":"sous-district de Huayuanlu"},"geometry":{"type":"Point","coordinates":[116.36624,39.97631]}},{"type":"Feature","properties":{"en":"Jingshan Subdistrict","fr":"sous-district de Jingshan"},"geometry":{"type":"Point","coordinates":[116.40427,39.92549]}},{"type":"Feature","properties":{"en":"Maizidian Subdistrict","fr":"sous-district de Maizi Dian"},"geometry":{"type":"Point","coordinates":[116.46611111,39.94555556]}},{"type":"Feature","properties":{"en":"Qinghe Subdistrict","fr":"sous-district de Qinghe"},"geometry":{"type":"Point","coordinates":[116.33943,40.02754]}},{"type":"Feature","properties":{"en":"Qinghuayuan Subdistrict","fr":"sous-district de Qinghuayuan"},"geometry":{"type":"Point","coordinates":[116.31863,39.99828]}},{"type":"Feature","properties":{"en":"Qinglongqiao Subdistrict","fr":"sous-district de Qinglongqiao"},"geometry":{"type":"Point","coordinates":[116.26527778,40.00305556]}},{"type":"Feature","properties":{"en":"Xichang'anjie Subdistrict","fr":"sous-district de Xichang'anjie"},"geometry":{"type":"Point","coordinates":[116.37483,39.91178]}},{"type":"Feature","properties":{"en":"Xiangheyuan Subdistrict","fr":"sous-district de Xiangheyuan"},"geometry":{"type":"Point","coordinates":[116.43106,39.95982]}},{"type":"Feature","properties":{"en":"Yanyuan Subdistrict","fr":"sous-district de Yanyuan"},"geometry":{"type":"Point","coordinates":[116.29634,39.9933]}},{"type":"Feature","properties":{"en":"Zuojiazhuang Subdistrict","fr":"sous-district de Zuojiazhuang"},"geometry":{"type":"Point","coordinates":[116.44489,39.94827]}},{"type":"Feature","properties":{"en":"Wanshoulu Subdistrict","fr":"sous-district de Wanshoulu"},"geometry":{"type":"Point","coordinates":[116.25466,39.90494]}},{"type":"Feature","properties":{"en":"Wanxin Subdistrict","fr":"sous-district de Wanxin"},"geometry":{"type":"Point","coordinates":[117.16922,39.11872]}},{"type":"Feature","properties":{"en":"Sanlitun Subdistrict","fr":"sous-district de Sanlitun"},"geometry":{"type":"Point","coordinates":[116.45063,39.93385]}},{"type":"Feature","properties":{"en":"Shangdi","fr":"Shangdi"},"geometry":{"type":"Point","coordinates":[116.30702,40.02975]}},{"type":"Feature","properties":{"en":"Dongxin Subdistrict","fr":"sous-district de Dong Xin"},"geometry":{"type":"Point","coordinates":[117.26994,39.14132]}},{"type":"Feature","properties":{"en":"Donghai Subdistrict","fr":"sous-district de Donghai"},"geometry":{"type":"Point","coordinates":[117.250277777778,39.0569444444444]}},{"type":"Feature","properties":{"en":"Dongzhimen Subdistrict","fr":"sous-district de Dongzhimen"},"geometry":{"type":"Point","coordinates":[116.43403,39.93289]}},{"type":"Feature","properties":{"en":"Dongtiejiangying Subdistrict","fr":"sous-district de Dong Tiejiang Ying"},"geometry":{"type":"Point","coordinates":[116.41088,39.85799]}},{"type":"Feature","properties":{"en":"Donggaodi Subdistrict","fr":"sous-district de Dong Gaodi"},"geometry":{"type":"Point","coordinates":[116.41444,39.80581]}},{"type":"Feature","properties":{"en":"Zhongguancun Subdistrict","fr":"sous-district de Zhongguancun"},"geometry":{"type":"Point","coordinates":[116.31123,39.978]}},{"type":"Feature","properties":{"en":"Zhongshanmen Subdistrict","fr":"sous-district de Zhongshanmen"},"geometry":{"type":"Point","coordinates":[117.264166666667,39.1013888888889]}},{"type":"Feature","properties":{"en":"Fengtai Subdistrict","fr":"sous-district de Fengtai"},"geometry":{"type":"Point","coordinates":[116.28099,39.84803]}},{"type":"Feature","properties":{"en":"Erhaoqiao Subdistrict","fr":"sous-district de Erhaoqiao"},"geometry":{"type":"Point","coordinates":[117.291944444444,39.0933333333333]}},{"type":"Feature","properties":{"en":"Yungang Subdistrict","fr":"sous-district de Yungang"},"geometry":{"type":"Point","coordinates":[116.15746,39.80946]}},{"type":"Feature","properties":{"en":"Wulituo Subdistrict","fr":"sous-district de Wuli Tuo"},"geometry":{"type":"Point","coordinates":[116.1199,39.95472]}},{"type":"Feature","properties":{"en":"Jiaodaokou Subdistrict","fr":"sous-district de Jiaodaokou"},"geometry":{"type":"Point","coordinates":[116.39923,39.9352]}},{"type":"Feature","properties":{"en":"Shichahai Subdistrict","fr":"sous-district de Shichahai"},"geometry":{"type":"Point","coordinates":[116.37406,39.93251]}},{"type":"Feature","properties":{"en":"Tiyuzhongxin Subdistrict","fr":"sous-district de Tiyuzhongxin"},"geometry":{"type":"Point","coordinates":[117.171388888889,39.0669444444444]}},{"type":"Feature","properties":{"en":"Babaoshan Subdistrict","fr":"sous-district de Babaoshan"},"geometry":{"type":"Point","coordinates":[116.22998,39.90027]}},{"type":"Feature","properties":{"en":"Bajiao Subdistrict","fr":"sous-district de Bajiao"},"geometry":{"type":"Point","coordinates":[116.19012,39.91442]}},{"type":"Feature","properties":{"en":"Balizhuang Subdistrict","fr":"sous-district de Balizhuang"},"geometry":{"type":"Point","coordinates":[116.27477,39.92682]}},{"type":"Feature","properties":{"en":"Beitaipingzhuang Subdistrict","fr":"sous-district de Beitaipingzhuang"},"geometry":{"type":"Point","coordinates":[116.35229,39.95473]}},{"type":"Feature","properties":{"en":"Huaming Subdistrict","fr":"sous-district de Huaming"},"geometry":{"type":"Point","coordinates":[117.38643,39.16718]}},{"type":"Feature","properties":{"en":"Huayuan Subdistrict","fr":"sous-district de Hua Yuan"},"geometry":{"type":"Point","coordinates":[117.12002,39.08464]}},{"type":"Feature","properties":{"en":"Nanyuan Subdistrict","fr":"sous-district de Nanyuan"},"geometry":{"type":"Point","coordinates":[116.388055555556,39.8033333333333]}},{"type":"Feature","properties":{"en":"Liuliqiao Subdistrict","fr":"sous-district de Liuliqiao"},"geometry":{"type":"Point","coordinates":[116.27539,39.86967]}},{"type":"Feature","properties":{"en":"Youyilu Subdistrict","fr":"sous-district de Youyilu"},"geometry":{"type":"Point","coordinates":[117.19774,39.07679]}},{"type":"Feature","properties":{"en":"Shuanghuancun Subdistrict","fr":"sous-district de Shuanghuan Cun"},"geometry":{"type":"Point","coordinates":[117.12482,39.19383]}},{"type":"Feature","properties":{"en":"Gucheng Subdistrict","fr":"sous-district de Gucheng"},"geometry":{"type":"Point","coordinates":[116.17971,39.91359]}},{"type":"Feature","properties":{"en":"You'anmen Subdistrict","fr":"sous-district de Youanmen"},"geometry":{"type":"Point","coordinates":[116.36404,39.85983]}},{"type":"Feature","properties":{"en":"Xiangyanglou Subdistrict","fr":"sous-district de Xiangyang Lou"},"geometry":{"type":"Point","coordinates":[117.240833333333,39.135]}},{"type":"Feature","properties":{"en":"Xiangyanglu Subdistrict","fr":"sous-district de Xiangyanglu"},"geometry":{"type":"Point","coordinates":[117.12478,39.13786]}},{"type":"Feature","properties":{"en":"Heyi Subdistrict","fr":"sous-district de Heyi"},"geometry":{"type":"Point","coordinates":[116.38988,39.81132]}},{"type":"Feature","properties":{"en":"Hepingjie Subdistrict","fr":"sous-district de Hepingjie"},"geometry":{"type":"Point","coordinates":[116.4177,39.9613]}},{"type":"Feature","properties":{"en":"Xianyangbeilu Subdistrict","fr":"sous-district de Xianyang Beilu"},"geometry":{"type":"Point","coordinates":[117.13528,39.18219]}},{"type":"Feature","properties":{"en":"Datai Subdistrict","fr":"sous-district de Datai"},"geometry":{"type":"Point","coordinates":[115.93527,39.96421]}},{"type":"Feature","properties":{"en":"Datun Subdistrict","fr":"sous-district de Datun"},"geometry":{"type":"Point","coordinates":[116.40681,40.00048]}},{"type":"Feature","properties":{"en":"Dayu Subdistrict","fr":"sous-district de Dayu"},"geometry":{"type":"Point","coordinates":[116.08908,39.93981]}},{"type":"Feature","properties":{"en":"Dashilan Subdistrict","fr":"sous-district de Dazhalan"},"geometry":{"type":"Point","coordinates":[116.393055555556,39.9094444444444]}},{"type":"Feature","properties":{"en":"Tiantan Subdistrict","fr":"sous-district de Tiantan"},"geometry":{"type":"Point","coordinates":[116.4066,39.8817]}},{"type":"Feature","properties":{"en":"Tianta Subdistrict","fr":"sous-district de Tianta"},"geometry":{"type":"Point","coordinates":[117.180833333333,39.0808333333333]}},{"type":"Feature","properties":{"en":"Tianqiao Subdistrict","fr":"sous-district de Tianqiao"},"geometry":{"type":"Point","coordinates":[116.3902095,39.8825637]}},{"type":"Feature","properties":{"en":"Taipingqiao Subdistrict","fr":"sous-district de Taipingqiao"},"geometry":{"type":"Point","coordinates":[116.31394,39.88277]}},{"type":"Feature","properties":{"en":"Aoyuncun Subdistrict","fr":"sous-district de Aoyuncun"},"geometry":{"type":"Point","coordinates":[116.38813,40.02244]}},{"type":"Feature","properties":{"en":"Xuefu Subdistrict","fr":"sous-district de Xuefu"},"geometry":{"type":"Point","coordinates":[117.15968,39.11177]}},{"type":"Feature","properties":{"en":"Xueyuanlu Subdistrict","fr":"sous-district de Xueyuanlu"},"geometry":{"type":"Point","coordinates":[116.34584,39.99224]}},{"type":"Feature","properties":{"en":"Anzhen Subdistrict","fr":"sous-district de Anzhen"},"geometry":{"type":"Point","coordinates":[116.39477,39.96609]}},{"type":"Feature","properties":{"en":"Wanping Subdistrict","fr":"sous-district de Wan Ping"},"geometry":{"type":"Point","coordinates":[116.21453,39.85103]}},{"type":"Feature","properties":{"en":"Fuminlu Subdistrict","fr":"sous-district de Fuminlu"},"geometry":{"type":"Point","coordinates":[117.250833333333,39.0875]}},{"type":"Feature","properties":{"en":"Xiaoguan","fr":"Xiaoguan"},"geometry":{"type":"Point","coordinates":[116.40641,39.9761]}},{"type":"Feature","properties":{"en":"Jianshan Subdistrict","fr":"sous-district de Jianshan"},"geometry":{"type":"Point","coordinates":[117.223611111111,39.0880555555555]}},{"type":"Feature","properties":{"en":"Zhanlanlu Subdistrict","fr":"sous-district de Zhanlanlu"},"geometry":{"type":"Point","coordinates":[116.33656,39.93136]}},{"type":"Feature","properties":{"en":"Changzhou Avenue Subdistrict","fr":"sous-district de Changzhou Dao"},"geometry":{"type":"Point","coordinates":[117.234722222222,39.1455555555556]}},{"type":"Feature","properties":{"en":"Guangning Subdistrict","fr":"sous-district de Guangning"},"geometry":{"type":"Point","coordinates":[116.14097,39.92681]}},{"type":"Feature","properties":{"en":"Guanganmennei Subdistrict","fr":"sous-district de Guanganmen Nei"},"geometry":{"type":"Point","coordinates":[116.359147222222,39.894975]}},{"type":"Feature","properties":{"en":"Guanganmenwai Subdistrict","fr":"sous-district de Guanganmen Wai"},"geometry":{"type":"Point","coordinates":[116.333886,39.877894]}},{"type":"Feature","properties":{"en":"Jianwai Subdistrict","fr":"sous-district de Jianwai"},"geometry":{"type":"Point","coordinates":[116.44754,39.9107]}},{"type":"Feature","properties":{"en":"Jianchangdao Subdistrict","fr":"sous-district de Jianchang Dao"},"geometry":{"type":"Point","coordinates":[117.22369,39.17002]}},{"type":"Feature","properties":{"en":"Zhangguizhuang Subdistrict","fr":"sous-district de Zhangguizhuang"},"geometry":{"type":"Point","coordinates":[117.30754,39.08256]}},{"type":"Feature","properties":{"en":"Desheng Subdistrict","fr":"sous-district de De Sheng"},"geometry":{"type":"Point","coordinates":[116.37531,39.95285]}},{"type":"Feature","properties":{"en":"Gongchen Subdistrict","fr":"sous-district de Gong Chen"},"geometry":{"type":"Point","coordinates":[116.1372,39.72999]}},{"type":"Feature","properties":{"en":"Xinxing Subdistrict","fr":"sous-district de Xinxing"},"geometry":{"type":"Point","coordinates":[117.17988,39.10459]}},{"type":"Feature","properties":{"en":"Xincun Subdistrict","fr":"sous-district de Xincun"},"geometry":{"type":"Point","coordinates":[116.302222222222,39.8383333333333]}},{"type":"Feature","properties":{"en":"Xinli Subdistrict","fr":"sous-district de Xinli"},"geometry":{"type":"Point","coordinates":[117.33656,39.08544]}},{"type":"Feature","properties":{"en":"Xinjiekou Subdistrict","fr":"sous-district de Xinjiekou"},"geometry":{"type":"Point","coordinates":[116.36476,39.94168]}},{"type":"Feature","properties":{"en":"Shuguang Subdistrict","fr":"sous-district de Shuguang"},"geometry":{"type":"Point","coordinates":[116.2732,39.9645]}},{"type":"Feature","properties":{"en":"Yuetan Subdistrict","fr":"sous-district de Yuetan"},"geometry":{"type":"Point","coordinates":[116.33866,39.91343]}},{"type":"Feature","properties":{"en":"Yueyahe Subdistrict","fr":"sous-district de Yueya He"},"geometry":{"type":"Point","coordinates":[117.249722222222,39.16]}},{"type":"Feature","properties":{"en":"Chaotianmen Subdistrict","fr":"sous-district de Chaotianmen"},"geometry":{"type":"Point","coordinates":[106.58302,29.56551]}},{"type":"Feature","properties":{"en":"Liqizhuang Subdistrict","fr":"sous-district de Li Qi Zhuang"},"geometry":{"type":"Point","coordinates":[117.176666666667,39.0683333333333]}},{"type":"Feature","properties":{"en":"Liulin Subdistrict","fr":"sous-district de Liulin"},"geometry":{"type":"Point","coordinates":[117.266111111111,39.0652777777778]}},{"type":"Feature","properties":{"en":"Meijiang Subdistrict","fr":"sous-district de Meijiang"},"geometry":{"type":"Point","coordinates":[117.20761,39.06304]}},{"type":"Feature","properties":{"en":"Chunshu Subdistrict","fr":"sous-district de Chunshu"},"geometry":{"type":"Point","coordinates":[116.3732085,39.8925654]}},{"type":"Feature","properties":{"en":"Shuishanggongyuan Subdistrict","fr":"sous-district de Shuishanggongyuan"},"geometry":{"type":"Point","coordinates":[117.153611111111,39.0955555555555]}},{"type":"Feature","properties":{"en":"Yongdinglu Subdistrict","fr":"sous-district de Yongdinglu"},"geometry":{"type":"Point","coordinates":[116.252441666667,39.9161444444444]}},{"type":"Feature","properties":{"en":"Yongdingmenwai Subdistrict","fr":"sous-district d'Yongdingmenwai"},"geometry":{"type":"Point","coordinates":[116.402,39.8643]}},{"type":"Feature","properties":{"en":"Jiangdulu Subdistrict","fr":"sous-district de Jiangdou Lu"},"geometry":{"type":"Point","coordinates":[117.238333333333,39.1561111111111]}},{"type":"Feature","properties":{"en":"Haidian Subdistrict","fr":"sous-district de Haidian"},"geometry":{"type":"Point","coordinates":[116.30525,39.97988]}},{"type":"Feature","properties":{"en":"Lushandao Subdistrict","fr":"sous-district de Lushan Dao"},"geometry":{"type":"Point","coordinates":[117.27562,39.1495]}},{"type":"Feature","properties":{"en":"Lugu Subdistrict","fr":"sous-district de Lugu"},"geometry":{"type":"Point","coordinates":[116.21915,39.8962]}},{"type":"Feature","properties":{"en":"Jinrongjie Subdistrict","fr":"sous-district de Jinrongjie"},"geometry":{"type":"Point","coordinates":[116.35677,39.91185]}},{"type":"Feature","properties":{"en":"Taoranting Subdistrict","fr":"sous-district de Taoranting"},"geometry":{"type":"Point","coordinates":[116.377025,39.8786194444444]}},{"type":"Feature","properties":{"en":"Niujie Subdistrict","fr":"sous-district de Niujie"},"geometry":{"type":"Point","coordinates":[116.3578458,39.8860981]}},{"type":"Feature","properties":{"en":"Baizhifang Subdistrict","fr":"sous-district de Baizhifang"},"geometry":{"type":"Point","coordinates":[116.3550477,39.8796246]}},{"type":"Feature","properties":{"en":"Jiuxianqiao Subdistrict","fr":"sous-district de Jiuxianqiao"},"geometry":{"type":"Point","coordinates":[116.48487,39.96385]}},{"type":"Feature","properties":{"en":"Xiluoyuan Subdistrict","fr":"sous-district de Xiluoyuan"},"geometry":{"type":"Point","coordinates":[116.37807,39.86302]}},{"type":"Feature","properties":{"en":"Dahongmen Subdistrict","fr":"sous-district de Dahongmen"},"geometry":{"type":"Point","coordinates":[116.40096,39.83756]}},{"type":"Feature","properties":{"en":"Changxindian Subdistrict","fr":"sous-district de Changxindian"},"geometry":{"type":"Point","coordinates":[116.20447,39.82488]}},{"type":"Feature","properties":{"en":"Majiapu Subdistrict","fr":"sous-district de Majiabao"},"geometry":{"type":"Point","coordinates":[116.35905,39.84147]}},{"type":"Feature","properties":{"en":"Huaxiang Subdistrict","fr":"sous-district de Huaxiang"},"geometry":{"type":"Point","coordinates":[116.31,39.8247222222222]}},{"type":"Feature","properties":{"en":"Laoshan Subdistrict","fr":"sous-district de Laoshan"},"geometry":{"type":"Point","coordinates":[116.21638,39.90934]}},{"type":"Feature","properties":{"en":"Pingguoyuan Subdistrict","fr":"sous-district de Pingguoyuan"},"geometry":{"type":"Point","coordinates":[116.17938,39.9276]}},{"type":"Feature","properties":{"en":"Jindingjie Subdistrict","fr":"sous-district de Jinding Jie"},"geometry":{"type":"Point","coordinates":[116.1532,39.92918]}},{"type":"Feature","properties":{"en":"Yangfangdian Subdistrict","fr":"sous-district de Yangfangdian"},"geometry":{"type":"Point","coordinates":[116.31192,39.90194]}},{"type":"Feature","properties":{"en":"Xiangshan Subdistrict","fr":"sous-district de Xiangshan"},"geometry":{"type":"Point","coordinates":[116.19998,39.99283]}},{"type":"Feature","properties":{"en":"Xisanqi Subdistrict","fr":"sous-district de Xisanqi"},"geometry":{"type":"Point","coordinates":[116.34389,40.02812]}},{"type":"Feature","properties":{"en":"Malianwa Subdistrict","fr":"Malianwa"},"geometry":{"type":"Point","coordinates":[116.26919,40.03146]}},{"type":"Feature","properties":{"en":"Tiancunlu Subdistrict","fr":"sous-district de Tian Cun Lu"},"geometry":{"type":"Point","coordinates":[116.25706,39.92825]}},{"type":"Feature","properties":{"en":"Jiefangbei Subdistrict","fr":"sous-district de Jiefangbei"},"geometry":{"type":"Point","coordinates":[106.57718,29.56004]}},{"type":"Feature","properties":{"en":"Machang Subdistrict","fr":"sous-district de Machang"},"geometry":{"type":"Point","coordinates":[117.18246,39.09444]}},{"type":"Feature","properties":{"en":"Chentangzhuang Subdistrict","fr":"sous-district de Chen Tang Zhuang"},"geometry":{"type":"Point","coordinates":[117.251666666667,39.0713888888889]}},{"type":"Feature","properties":{"en":"Wangdingdi Subdistrict","fr":"sous-district de Wang Ding Di"},"geometry":{"type":"Point","coordinates":[117.13884,39.10152]}},{"type":"Feature","properties":{"en":"Xiyuzhuang Subdistrict","fr":"sous-district de Xi Yu Zhuang"},"geometry":{"type":"Point","coordinates":[117.15817,39.16525]}},{"type":"Feature","properties":{"en":"Xigu Subdistrict","fr":"sous-district de Xigu"},"geometry":{"type":"Point","coordinates":[117.15827,39.17349]}},{"type":"Feature","properties":{"en":"Shaogongzhuang Subdistrict","fr":"sous-district de Shao Gong Zhuang"},"geometry":{"type":"Point","coordinates":[117.14897,39.15325]}},{"type":"Feature","properties":{"en":"Heyuan Subdistrict","fr":"sous-district de Heyuan"},"geometry":{"type":"Point","coordinates":[117.108611111111,39.1594444444444]}},{"type":"Feature","properties":{"en":"Jinzhong Subdistrict","fr":"sous-district de Jinzhong"},"geometry":{"type":"Point","coordinates":[117.2725,39.2025]}},{"type":"Feature","properties":{"en":"Xiyingmen Subdistrict","fr":"sous-district de Xiying Men"},"geometry":{"type":"Point","coordinates":[117.08865,39.15072]}},{"type":"Feature","properties":{"en":"Ruijing Subdistrict","fr":"sous-district de Rui Jing"},"geometry":{"type":"Point","coordinates":[117.106388888889,39.195]}},{"type":"Feature","properties":{"en":"Huoying Subdistrict","fr":"sous-district de Huo Ying"},"geometry":{"type":"Point","coordinates":[116.3575,40.0836111111111]}},{"type":"Feature","properties":{"en":"Shigezhuang Subdistrict","fr":"sous-district de Shi Gezhuang"},"geometry":{"type":"Point","coordinates":[116.2793,40.10099]}},{"type":"Feature","properties":{"en":"Huilongguan Subdistrict","fr":"sous-district de Huilongguan"},"geometry":{"type":"Point","coordinates":[116.31824,40.06325]}},{"type":"Feature","properties":{"en":"Longzeyuan Subdistrict","fr":"sous-district de Long Ze Yuan"},"geometry":{"type":"Point","coordinates":[116.338611111111,40.0808333333333]}},{"type":"Feature","properties":{"en":"Kunlun Subdistrict","fr":"sous-district de Kunlun"},"geometry":{"type":"Point","coordinates":[119.45444444444,31.4475]}},{"type":"Feature","properties":{"en":"Shuanglin Subdistrict","fr":"sous-district de Shuanglin"},"geometry":{"type":"Point","coordinates":[117.292222222222,39.0575]}},{"type":"Feature","properties":{"en":"Jiarongli Subdistrict","fr":"sous-district de Jia Rong Li"},"geometry":{"type":"Point","coordinates":[117.121944444444,39.1941666666667]}},{"type":"Feature","properties":{"en":"Taihulu Subdistrict","fr":"sous-district de Taihu Lu"},"geometry":{"type":"Point","coordinates":[117.234104,39.0356]}},{"type":"Feature","properties":{"en":"Chengshousi Subdistrict","fr":"sous-district de Cheng Shou Si"},"geometry":{"type":"Point","coordinates":[116.4294,39.8536]}},{"type":"Feature","properties":{"en":"Shiliuzhuang Subdistrict","fr":"sous-district de Shiliu Zhuang"},"geometry":{"type":"Point","coordinates":[116.41363,39.83775]}},{"type":"Feature","properties":{"en":"Yuquanying Subdistrict","fr":"sous-district de Yuquanying"},"geometry":{"type":"Point","coordinates":[116.3244,39.8314]}},{"type":"Feature","properties":{"en":"Kandan Subdistrict","fr":"sous-district de Kandan"},"geometry":{"type":"Point","coordinates":[116.27302,39.82909]}},{"type":"Feature","properties":{"en":"Wulidian Subdistrict","fr":"sous-district de Wulidian"},"geometry":{"type":"Point","coordinates":[116.2503,39.8569]}},{"type":"Feature","properties":{"en":"Qingta Subdistrict","fr":"sous-district de Qingta"},"geometry":{"type":"Point","coordinates":[116.2545,39.8922]}},{"type":"Feature","properties":{"en":"Lugouqiao Subdistrict","fr":"sous-district de Lugouqiao"},"geometry":{"type":"Point","coordinates":[116.2507733,39.8745147]}},{"type":"Feature","properties":{"en":"Jinmenhu Subdistrict","fr":"sous-district de Jinmen Hu"},"geometry":{"type":"Point","coordinates":[117.2075,39.0533333333333]}}]}